{"0":{"id":"845","real_name":"Globus Restaurant Basel","url_name":"globus-restaurant-basel","address":"Marktplatz 2","zip":"4001","city":"Basel","gaultmillau":"","latitude":"47.5586","longitude":"7.58786","distance":"0"},"1":{"id":"329","real_name":"Restaurant Stadthof","url_name":"restaurant-stadthof","address":"Gerbergasse 84","zip":"4001","city":"Basel","gaultmillau":"","latitude":"47.5549","longitude":"7.58874","distance":"0"},"2":{"id":"613","real_name":"Filini - Radisson Blu","url_name":"filini-restaurant-bar","address":"Steinentorstrasse 25","zip":"4001","city":"Basel","gaultmillau":"","latitude":"47.5513","longitude":"7.58859","distance":"0"},"3":{"id":"614","real_name":"Br\u00f6tlibar Basel","url_name":"brotlibar-basel","address":"Gerbergasse 84","zip":"4001","city":"Basel","gaultmillau":"","latitude":"47.5549","longitude":"7.58874","distance":"0"},"4":{"id":"615","real_name":"Pizzeria Stadthof","url_name":"pizzeria-stadthof","address":"Gerbergasse 84","zip":"4001","city":"Basel","gaultmillau":"","latitude":"47.5549","longitude":"7.58874","distance":"0"},"5":{"id":"616","real_name":"Walliser Kanne","url_name":"walliser-kanne","address":"Gerbergasse 50","zip":"4001","city":"Basel","gaultmillau":"","latitude":"47.5558","longitude":"7.58855","distance":"0"},"6":{"id":"792","real_name":"Ramazzotti","url_name":"ramazotti","address":"Hutgasse 6","zip":"4001 ","city":"Basel","gaultmillau":"","latitude":"47.5577","longitude":"7.58717","distance":"0"},"7":{"id":"930","real_name":"Schl\u00fcsselzunft","url_name":"schlusselzunft","address":"Freie-Strasse 25","zip":"4001","city":"Basel","gaultmillau":"","latitude":"47.5572","longitude":"7.58931","distance":"0"},"8":{"id":"885","real_name":"Caspar's","url_name":"caspars","address":"Centralbahnplatz 14","zip":"4002","city":"Basel","gaultmillau":"","latitude":"47.5487","longitude":"7.58997","distance":"0"},"9":{"id":"973","real_name":"Le Train Bleu - Hotel Victoria","url_name":"le-train-bleu-hotel-victoria","address":"Centralbahnstrasse 3-4","zip":"4002","city":"Basel","gaultmillau":"","latitude":"47.5479","longitude":"7.5906","distance":"0"},"10":{"id":"832","real_name":"Manora Basel","url_name":"manora-basel_4005","address":"Greifengasse 22","zip":"4005","city":"Basel","gaultmillau":"","latitude":"47.5611","longitude":"7.59216","distance":"0"},"11":{"id":"831","real_name":"Manora St. Jakob-Park","url_name":"manora-basel","address":"St. Jakobstrasse 397","zip":"4020","city":"Basel","gaultmillau":"","latitude":"47.5407","longitude":"7.6208","distance":"0"},"12":{"id":"240","real_name":"Atlantis","url_name":"atlantis","address":"Klosterberg 13","zip":"4051 ","city":"Basel","gaultmillau":"","latitude":"47.552","longitude":"7.59057","distance":"0"},"13":{"id":"245","real_name":"Rubino","url_name":"rubino","address":"Luftg\u00e4sslein 1","zip":"4051","city":"Basel","gaultmillau":"","latitude":"47.555","longitude":"7.59284","distance":"0"},"14":{"id":"306","real_name":"Birseckerhof","url_name":"birseckerhof","address":"Binningerstrasse 15","zip":"4051 ","city":"Basel","gaultmillau":"","latitude":"47.5504","longitude":"7.58615","distance":"0"},"15":{"id":"409","real_name":"Bel \u00c9tage - Der Teufelhof","url_name":"der-teufelhof-bel-etage","address":"Leonhardsgraben 49","zip":"4051","city":"Basel","gaultmillau":"16","latitude":"47.5558","longitude":"7.58674","distance":"0"},"16":{"id":"590","real_name":"Noohn","url_name":"noohn","address":"Henric Petristrasse 12","zip":"4051","city":"Basel","gaultmillau":"","latitude":"47.5521","longitude":"7.59221","distance":"0"},"17":{"id":"633","real_name":"L'Unique","url_name":"lunique","address":"Gerberg\u00e4sslein 20","zip":"4051","city":"Basel","gaultmillau":"","latitude":"47.5561","longitude":"7.58821","distance":"0"},"18":{"id":"639","real_name":"Harmonie Basel","url_name":"harmonie-basel","address":"Petersgraben 71","zip":"4051","city":"Basel","gaultmillau":"","latitude":"47.5572","longitude":"7.58442","distance":"0"},"19":{"id":"728","real_name":"Xiao Lu's - Chinesisches Restaurant","url_name":"xiao-lus-chinesisches-restaurant","address":"Elisabethenstrasse 44","zip":"4051","city":"Basel","gaultmillau":"","latitude":"47.5507","longitude":"7.59076","distance":"0"},"20":{"id":"731","real_name":"Caf\u00e9 des Arts","url_name":"cafe-des-arts","address":"Barf\u00fcsserplatz 6","zip":"4051","city":"Basel","gaultmillau":"","latitude":"47.555","longitude":"7.59","distance":"0"},"21":{"id":"732","real_name":"Nelson Basel","url_name":"nelson-basel","address":"Gerberg\u00e4sslein 2","zip":"4051","city":"Basel","gaultmillau":"","latitude":"47.5564","longitude":"7.58776","distance":"0"},"22":{"id":"751","real_name":"La Fonda","url_name":"la-fonda","address":"Schneidergasse 21","zip":"4051","city":"Basel","gaultmillau":"","latitude":"47.558","longitude":"7.58686","distance":"0"},"23":{"id":"849","real_name":"Wettstein Restaurant","url_name":"wettstein-restaurant","address":"Aeschengraben 31 (im Hilton)","zip":"4051","city":"Basel","gaultmillau":"","latitude":"47.5488","longitude":"7.59203","distance":"0"},"24":{"id":"793","real_name":"Brasserie L\u00f6wenzorn","url_name":"brasserie-lowenzorn","address":"Gemsberg 2-4","zip":"4051","city":"Basel","gaultmillau":"","latitude":"47.5568","longitude":"7.58619","distance":"0"},"25":{"id":"794","real_name":"Gifth\u00fcttli","url_name":"gifthuttli","address":"Schneidergasse 11","zip":"4051","city":"Basel","gaultmillau":"","latitude":"47.5582","longitude":"7.58688","distance":"0"},"26":{"id":"801","real_name":"Acqua","url_name":"acqua","address":"Binningerstrasse 14","zip":"4051","city":"Basel","gaultmillau":"","latitude":"47.5497","longitude":"7.58434","distance":"0"},"27":{"id":"888","real_name":"Yoko Sushi","url_name":"yoko-sushi","address":"Steinentorstrasse 35","zip":"4051","city":"Basel","gaultmillau":"","latitude":"47.5512","longitude":"7.58842","distance":"0"},"28":{"id":"961","real_name":"Papa Joe's Basel","url_name":"papa-joes-basel","address":"Am Barf\u00fcsserplatz im Stadtcasino","zip":"4051","city":"Basel","gaultmillau":"","latitude":"47.5542","longitude":"7.58936","distance":"0"},"29":{"id":"962","real_name":"KOHLMANNS","url_name":"kohlmanns","address":"Am Barf\u00fcsserplatz im Stadtcasino","zip":"4051","city":"Basel","gaultmillau":"","latitude":"47.5542","longitude":"7.58936","distance":"0"},"30":{"id":"1064","real_name":"Hotel Brasserie au violon","url_name":"au-violon","address":"Im Lohnhof 4","zip":"4051","city":"Basel","gaultmillau":"","latitude":"47.5548","longitude":"7.58843","distance":"0"},"31":{"id":"100","real_name":"Lunchgate ","url_name":"surprise-lunchgate","address":"Froburgstrasse 99","zip":"4052","city":"basel","gaultmillau":"19","latitude":"64.99","longitude":"-19.0208","distance":"0"},"32":{"id":"795","real_name":"Gasthof zum Goldenen Sternen","url_name":"gasthof-zum-goldenen-sternen","address":"St.Alban-Rheinweg 70","zip":"4052","city":"Basel","gaultmillau":"","latitude":"47.5547","longitude":"7.60199","distance":"0"},"33":{"id":"1045","real_name":"Aeschenplatz","url_name":"aeschenplatz","address":"Aeschenplatz 4","zip":"4052","city":"Basel","gaultmillau":"","latitude":"47.5513","longitude":"7.59594","distance":"0"},"34":{"id":"1190","real_name":"Hattrick Sport-Bar","url_name":"hattrick-sport-bar","address":"St. Jakobs-Strasse 395","zip":"4052","city":"Basel","gaultmillau":"","latitude":"47.5414","longitude":"7.62016","distance":"0"},"35":{"id":"1191","real_name":"UNO","url_name":"restaurant-uno","address":"St. Jakobs-Strasse 395","zip":"4052","city":"Basel","gaultmillau":"","latitude":"47.5414","longitude":"7.61988","distance":"0"},"36":{"id":"1044","real_name":"Gastronomia Peppino","url_name":"gastronomia-peppino","address":"Zwingenstrasse 29","zip":"4053","city":"Basel","gaultmillau":"","latitude":"47.5437","longitude":"7.59296","distance":"0"},"37":{"id":"262","real_name":"Chez Donati","url_name":"chez-donati","address":"St. Johanns-Vorstadt 48","zip":"4056 ","city":"Basel","gaultmillau":"13","latitude":"47.5643","longitude":"7.58395","distance":"0"},"38":{"id":"889","real_name":"zur M\u00e4gd","url_name":"zur-magd-basel","address":"St. Johanns-Vorstadt 29","zip":"4056","city":"Basel","gaultmillau":"","latitude":"47.5637","longitude":"7.58407","distance":"0"},"39":{"id":"624","real_name":"Don Pincho","url_name":"don-pincho","address":"St. Johanns-Vorstadt 58","zip":"4056","city":"Basel","gaultmillau":"","latitude":"47.5646","longitude":"7.58391","distance":"0"},"40":{"id":"724","real_name":"Atelier - Der Teufelhof","url_name":"der-teufelhof-atelier","address":"Leonhardsgraben 49","zip":"4056","city":"Basel","gaultmillau":"","latitude":"47.5559","longitude":"7.58641","distance":"0"},"41":{"id":"737","real_name":"Jay's","url_name":"jays","address":"St. Johanns-Vorstadt 13","zip":"4056","city":"Basel","gaultmillau":"","latitude":"47.5628","longitude":"7.58474","distance":"0"},"42":{"id":"749","real_name":"Parterre","url_name":"parterre","address":"Klybeckstrasse 1b","zip":"4057","city":"Basel","gaultmillau":"","latitude":"47.5638","longitude":"7.59113","distance":"0"},"43":{"id":"931","real_name":"Rebstock","url_name":"rebstock","address":"Klingentalstrasse 67","zip":"4057 ","city":"Basel","gaultmillau":"","latitude":"47.5647","longitude":"7.59691","distance":"0"},"44":{"id":"1042","real_name":"Terrasse","url_name":"terrasse","address":"Haltingerstrasse 104","zip":"4057","city":"Basel","gaultmillau":"","latitude":"47.5666","longitude":"7.59746","distance":"0"},"45":{"id":"709","real_name":"Les Quatre Saisons","url_name":"les-quatre-saisons","address":"Clarastrasse 13","zip":"4058","city":"Basel","gaultmillau":"18","latitude":"47.5625","longitude":"7.59548","distance":"0"},"46":{"id":"565","real_name":"Restaurant Caf\u00e9 Spitz","url_name":"restaurant-cafe-spitz","address":"Rheingasse 2","zip":"4058","city":"Basel","gaultmillau":"","latitude":"47.5606","longitude":"7.59125","distance":"0"},"47":{"id":"574","real_name":"Zum Schmale Wurf","url_name":"zum-schmale-wurf","address":"Rheingasse 10","zip":"4058","city":"Basel","gaultmillau":"","latitude":"47.5603","longitude":"7.59165","distance":"0"},"48":{"id":"1146","real_name":"Schloss Bottmingen","url_name":"schloss-bottmingen","address":"Schlossgasse 9","zip":"4103","city":"Bottmingen bei Basel","gaultmillau":"15","latitude":"47.5242","longitude":"7.57052","distance":"0"},"49":{"id":"1241","real_name":"Viva! dasRestaurant","url_name":"viva-dasrestaurant","address":"Hauptstrasse 41","zip":"4104 ","city":"Oberwil","gaultmillau":"","latitude":"47.5139","longitude":"7.55618","distance":"0"},"50":{"id":"1063","real_name":"Caf\u00e9 Favorita","url_name":"cafe-favorita","address":"H\u00f6rnlialle 71","zip":"4125","city":"Riehen","gaultmillau":"","latitude":"47.5654","longitude":"7.63591","distance":"0"},"51":{"id":"929","real_name":"Gasthof Solbad","url_name":"gasthof-solbad","address":"Rheinfelderstrasse 2","zip":"4133","city":"Schweizerhalle","gaultmillau":"","latitude":"47.5211","longitude":"7.69167","distance":"0"},"52":{"id":"1147","real_name":"Die Schenke","url_name":"kloster-dornach","address":"Amthausstrasse 7","zip":"4143","city":"Dornach","gaultmillau":"","latitude":"47.4884","longitude":"7.61027","distance":"0"},"profiling":{"summary":"api_time:0.00040507316589355"}}