{"0":{"id":"959","real_name":"Schloss Salavaux","url_name":"schloss-salavaux","address":"Route Villars-le-Grand 16","zip":"1585","city":"Salavaux","gaultmillau":"13","latitude":"46.9181","longitude":"7.01895","distance":"0"},"1":{"id":"599","real_name":"San Marco","url_name":"san-marco-freiburg","address":"Boulevard de P\u00e9rolles 18","zip":"1700","city":"Fribourg","gaultmillau":"","latitude":"46.801","longitude":"7.15215","distance":"0"},"2":{"id":"600","real_name":"Gemelli","url_name":"gemelli","address":"Grand-Places 10","zip":"1700","city":"Fribourg","gaultmillau":"","latitude":"46.8031","longitude":"7.15388","distance":"0"},"3":{"id":"755","real_name":"Maharaja Palace","url_name":"maharaja-palace-biel","address":"General Dufour-Strasse 31","zip":"2502","city":"Biel","gaultmillau":"","latitude":"47.1406","longitude":"7.24885","distance":"0"},"4":{"id":"595","real_name":"Bistro Steinhalle","url_name":"bistro-steinhalle","address":"Helvetiaplatz 5","zip":"3005","city":"Bern","gaultmillau":"","latitude":"46.9436","longitude":"7.44913","distance":"0"},"5":{"id":"985","real_name":"Bistrot Marzer","url_name":"bistrot-marzer","address":"Br\u00fcckenstrasse 12","zip":"3005","city":"Bern","gaultmillau":"","latitude":"46.945","longitude":"7.44394","distance":"0"},"6":{"id":"559","real_name":"Brasserie Obstberg","url_name":"brasserie-obstberg","address":"Bantigerstrasse 18","zip":"3006","city":"Bern","gaultmillau":"","latitude":"46.9475","longitude":"7.46275","distance":"0"},"7":{"id":"594","real_name":"Restaurant Sch\u00f6ngr\u00fcn","url_name":"restaurant-schongrun","address":"Monument im Fruchland 1","zip":"3006","city":"Bern","gaultmillau":"17","latitude":"46.9495","longitude":"7.47352","distance":"0"},"8":{"id":"880","real_name":"Altes Tramdepot","url_name":"altes-tramdepot","address":"Grosser Muristalden 6","zip":"3006","city":"Bern","gaultmillau":"","latitude":"46.9475","longitude":"7.45966","distance":"0"},"9":{"id":"1066","real_name":"Schosshalde de Tapas y mas","url_name":"tapas-y-mas-schosshalde","address":"Kleiner Muristalden 40","zip":"3006","city":"Bern","gaultmillau":"","latitude":"46.9446","longitude":"7.46179","distance":"0"},"10":{"id":"387","real_name":"Brunnhof","url_name":"brunnhof","address":"Lilienweg 20","zip":"3007","city":"Bern","gaultmillau":"","latitude":"46.944","longitude":"7.42837","distance":"0"},"11":{"id":"421","real_name":"Atlantico","url_name":"atlantico","address":"Belpstrasse 45","zip":"3007","city":"Bern","gaultmillau":"","latitude":"46.9429","longitude":"7.43205","distance":"0"},"12":{"id":"549","real_name":"La Cultina","url_name":"la-cultina","address":"Seftigenstrasse 1","zip":"3007","city":"Bern","gaultmillau":"","latitude":"46.94","longitude":"7.43207","distance":"0"},"13":{"id":"687","real_name":"Flo's Restaurant","url_name":"flos-restaurant","address":"Weissenb\u00fchlweg 40","zip":"3007","city":"Bern","gaultmillau":"14","latitude":"46.9369","longitude":"7.43681","distance":"0"},"14":{"id":"760","real_name":"dr S\u00fcder","url_name":"dr-suder","address":"Weissensteinstrasse 61","zip":"3007","city":"Bern","gaultmillau":"13","latitude":"46.9386","longitude":"7.42823","distance":"0"},"15":{"id":"237","real_name":"Kurierstube","url_name":"kurierstube","address":"Zeughausgasse 9","zip":"3011","city":"Bern","gaultmillau":"13","latitude":"46.9487","longitude":"7.44632","distance":"0"},"16":{"id":"364","real_name":"Casa Novo","url_name":"casa-novo","address":"L\u00e4uferplatz 6","zip":"3011","city":"Bern","gaultmillau":"14","latitude":"46.9497","longitude":"7.4576","distance":"0"},"17":{"id":"350","real_name":"Le Mazot","url_name":"le-mazot","address":"B\u00e4renplatz 5","zip":"3011","city":"Bern","gaultmillau":"","latitude":"46.948","longitude":"7.44398","distance":"0"},"18":{"id":"370","real_name":"Way to India, South India, Mad Mex","url_name":"way-to-india","address":"Bubenbergplatz 9","zip":"3011","city":"Bern","gaultmillau":"","latitude":"46.9472","longitude":"7.43967","distance":"0"},"19":{"id":"404","real_name":"Maharaja Palace","url_name":"maharaja-palace","address":"Effingerstrasse 51","zip":"3011","city":"Bern","gaultmillau":"","latitude":"46.9457","longitude":"7.42928","distance":"0"},"20":{"id":"411","real_name":"La Table de Urs Hauri","url_name":"la-table-de-urs-hauri","address":"Zeughaus-Passage 19","zip":"3011","city":"Bern","gaultmillau":"","latitude":"46.948","longitude":"7.44815","distance":"0"},"21":{"id":"449","real_name":"Belle Epoque","url_name":"belle-epoque","address":"Gerechtigkeitsgasse 18","zip":"3011","city":"Bern","gaultmillau":"","latitude":"46.9488","longitude":"7.45546","distance":"0"},"22":{"id":"472","real_name":"Aarbergerhof","url_name":"aarbergerhof","address":"Aarbergergasse 40","zip":"3011","city":"Bern","gaultmillau":"","latitude":"46.9497","longitude":"7.44239","distance":"0"},"23":{"id":"492","real_name":"Bellini Caf\u00e9 Bar","url_name":"bellini-cafe-bar","address":"Ryfflig\u00e4sschen 4","zip":"3011","city":"Bern","gaultmillau":"","latitude":"46.9484","longitude":"7.44211","distance":"0"},"24":{"id":"493","real_name":"Mixed Bar & Lounge","url_name":"mixed-bar-lounge","address":"Aarbergergasse 46","zip":"3011","city":"Bern","gaultmillau":"","latitude":"46.9499","longitude":"7.44228","distance":"0"},"25":{"id":"515","real_name":"Domino","url_name":"domino","address":"Schwanengasse 3","zip":"3011","city":"Bern","gaultmillau":"","latitude":"46.9469","longitude":"7.43918","distance":"0"},"26":{"id":"516","real_name":"National","url_name":"national-bern","address":"Hirschengraben 24","zip":"3011","city":"Bern","gaultmillau":"","latitude":"46.9461","longitude":"7.43698","distance":"0"},"27":{"id":"528","real_name":"Lirum Larum","url_name":"lirum-larum","address":"Kramgasse 19a","zip":"3011","city":"Bern","gaultmillau":"","latitude":"46.9478","longitude":"7.45123","distance":"0"},"28":{"id":"532","real_name":"Caff\u00e8 Bar Roma","url_name":"caffe-bar-roma","address":"Spitalgasse 14","zip":"3011","city":"Bern","gaultmillau":"","latitude":"46.9483","longitude":"7.44286","distance":"0"},"29":{"id":"550","real_name":"Cesary","url_name":"cesary","address":"Kornhausplatz 11","zip":"3011","city":"Bern","gaultmillau":"","latitude":"46.9485","longitude":"7.44781","distance":"0"},"30":{"id":"560","real_name":"Entrec\u00f4te Caf\u00e9 F\u00e9d\u00e9ral","url_name":"entrecote-cafe-federal","address":"B\u00e4renplatz 31","zip":"3011","city":"Bern","gaultmillau":"","latitude":"46.9474","longitude":"7.44395","distance":"0"},"31":{"id":"586","real_name":"Mekong-Beizli","url_name":"mekong-beizli","address":"Kornhausplatz 7","zip":"3011","city":"Bern","gaultmillau":"","latitude":"46.9483","longitude":"7.44761","distance":"0"},"32":{"id":"660","real_name":"Mishio im Vatterland","url_name":"mishio-im-vatterland","address":"B\u00e4renplatz 2","zip":"3011","city":"Bern","gaultmillau":"","latitude":"46.9481","longitude":"7.44345","distance":"0"},"33":{"id":"674","real_name":"Zimmermania","url_name":"zimmermania","address":"Brunngasse 19","zip":"3011","city":"Bern","gaultmillau":"13","latitude":"46.9489","longitude":"7.44952","distance":"0"},"34":{"id":"715","real_name":"Akul","url_name":"akul","address":"Monbijoustrasse 26","zip":"3011","city":"Bern","gaultmillau":"","latitude":"46.9441","longitude":"7.43572","distance":"0"},"35":{"id":"720","real_name":"Sassafraz","url_name":"sassafraz","address":"Arbergergasse 57","zip":"3011","city":"Bern","gaultmillau":"","latitude":"46.9497","longitude":"7.44155","distance":"0"},"36":{"id":"721","real_name":"Fugu - Nydegg","url_name":"fugu-nydegg","address":"Gerechtigkeitsgasse 16","zip":"3011","city":"Bern","gaultmillau":"","latitude":"46.9488","longitude":"7.45552","distance":"0"},"37":{"id":"759","real_name":"Diagonal","url_name":"diagonal","address":"Amthausgasse 18","zip":"3011","city":"Bern","gaultmillau":"","latitude":"46.9473","longitude":"7.44587","distance":"0"},"38":{"id":"785","real_name":"Celina","url_name":"celina","address":"Spitalgasse 2","zip":"3011","city":"Bern","gaultmillau":"","latitude":"46.9484","longitude":"7.44337","distance":"0"},"39":{"id":"810","real_name":"Volver BarTapasCaf\u00e9","url_name":"volver-bartapascafe","address":"Rathausplatz 8","zip":"3011","city":"Bern","gaultmillau":"","latitude":"46.9484","longitude":"7.45215","distance":"0"},"40":{"id":"848","real_name":"Globus Restaurant Bern","url_name":"globus-restaurant-bern","address":"Spitalgasse 17","zip":"3011","city":"Bern","gaultmillau":"","latitude":"46.9479","longitude":"7.44268","distance":"0"},"41":{"id":"960","real_name":"Papa Joe's Bern","url_name":"papa-joes-bern","address":"Schauplatzgasse 23","zip":"3011","city":"Bern","gaultmillau":"","latitude":"46.9473","longitude":"7.44234","distance":"0"},"42":{"id":"981","real_name":"Zum \u00c4usseren Stand","url_name":"zum-ausseren-stand","address":"Zeughausgass 17","zip":"3011","city":"Bern","gaultmillau":"","latitude":"46.9487","longitude":"7.44594","distance":"0"},"43":{"id":"561","real_name":"L\u00e4nggass-St\u00fcbli","url_name":"langgass-stubli","address":"Muesmattstrasse 46","zip":"3012","city":"Bern","gaultmillau":"","latitude":"46.9544","longitude":"7.42917","distance":"0"},"44":{"id":"1122","real_name":"Waldheim","url_name":"waldheim-bern","address":"Waldheimstrasse 40","zip":"3012","city":"Bern","gaultmillau":"12","latitude":"46.9541","longitude":"7.42656","distance":"0"},"45":{"id":"361","real_name":"B\u00fcner","url_name":"buner","address":"Kasernenstrasse 31","zip":"3013","city":"Bern","gaultmillau":"14","latitude":"46.9572","longitude":"7.45657","distance":"0"},"46":{"id":"394","real_name":"Du Nord","url_name":"du-nord","address":"Lorrainestrasse 2","zip":"3013","city":"Bern","gaultmillau":"","latitude":"46.9548","longitude":"7.44563","distance":"0"},"47":{"id":"543","real_name":"Tinu's OK Bar","url_name":"tinus-ok-bar","address":"Lorrainestrasse 8","zip":"3013","city":"Bern","gaultmillau":"","latitude":"46.9554","longitude":"7.44531","distance":"0"},"48":{"id":"584","real_name":"Henris","url_name":"henris-restaurant","address":"Mingerstrasse 6","zip":"3014","city":"Bern","gaultmillau":"","latitude":"46.9597","longitude":"7.46775","distance":"0"},"49":{"id":"693","real_name":"Caledonia","url_name":"caledonia","address":"Mingerstrasse 16","zip":"3014","city":"Bern","gaultmillau":"","latitude":"46.9591","longitude":"7.46765","distance":"0"},"50":{"id":"783","real_name":"Eggh\u00f6lzli","url_name":"eggholzli","address":"Weltpoststrasse 16","zip":"3015","city":"Bern","gaultmillau":"","latitude":"46.9378","longitude":"7.47555","distance":"0"},"51":{"id":"514","real_name":"La Piazzetta","url_name":"la-piazzetta","address":"B\u00fcmplizstrasse 114","zip":"3018","city":"Bern","gaultmillau":"","latitude":"46.9415","longitude":"7.39037","distance":"0"},"52":{"id":"517","real_name":"Osteria da Santo","url_name":"osteria-da-santo","address":"Bernstrasse 79","zip":"3018","city":"Bern","gaultmillau":"","latitude":"46.9409","longitude":"7.39314","distance":"0"},"53":{"id":"157","real_name":"Brasserie Bits&Bites","url_name":"brasserie-bitsbites","address":"Riedbachstrasse 96","zip":"3027","city":"Bern","gaultmillau":"","latitude":"46.9441","longitude":"7.3751","distance":"0"},"54":{"id":"707","real_name":"Acher","url_name":"acher","address":"Kornweg 15","zip":"3027","city":"Bern","gaultmillau":"","latitude":"46.9501","longitude":"7.39295","distance":"0"},"55":{"id":"695","real_name":"Gasthof Tiefenau","url_name":"gasthof-tiefenau","address":"Alte Tiefenaustrasse 4","zip":"3048","city":"Bern","gaultmillau":"","latitude":"46.9812","longitude":"7.4576","distance":"0"},"56":{"id":"673","real_name":"Arcadia Taberna Romana","url_name":"arcadia-taberna-romana","address":"Talgut-Zentrum 34","zip":"3063","city":"Bern-Ittigen","gaultmillau":"13","latitude":"46.9748","longitude":"7.48165","distance":"0"},"57":{"id":"719","real_name":"Bellevue","url_name":"bellevue","address":"Papierm\u00fchlestrasse 140","zip":"3063","city":"Ittigen","gaultmillau":"","latitude":"46.9715","longitude":"7.47218","distance":"0"},"58":{"id":"767","real_name":"Bistro","url_name":"bistro","address":"Dorfm\u00e4rit 19","zip":"3065","city":"Bolligen","gaultmillau":"","latitude":"46.9739","longitude":"7.49657","distance":"0"},"59":{"id":"685","real_name":"Haberb\u00fcni \u00c4sstorant","url_name":"haberbuni-asstorant","address":"K\u00f6nizstrasse 175","zip":"3097","city":"Bern-Liebefeld","gaultmillau":"14","latitude":"46.9349","longitude":"7.41565","distance":"0"},"60":{"id":"675","real_name":"Rondell","url_name":"rondell","address":"K\u00f6nizstrasse 260","zip":"3097","city":"Liebefeld","gaultmillau":"","latitude":"46.9288","longitude":"7.41627","distance":"0"},"61":{"id":"786","real_name":"Gasthof L\u00f6wen","url_name":"gasthof-lowen-munsingen","address":"Bernstrasse 28","zip":"3110","city":"M\u00fcnsingen","gaultmillau":"","latitude":"46.879","longitude":"7.56091","distance":"0"},"62":{"id":"746","real_name":"Gasthof L\u00f6wen","url_name":"gasthof-lowen-wichtrach","address":"Dorfplatz 12","zip":"3114","city":"Wichtrach","gaultmillau":"","latitude":"46.8498","longitude":"7.5757","distance":"0"},"63":{"id":"771","real_name":"Il Brunello","url_name":"il-brunello","address":"Bernstrasse 1","zip":"3122","city":"Kehrsatz","gaultmillau":"","latitude":"46.9098","longitude":"7.4705","distance":"0"},"64":{"id":"808","real_name":"Hirschen","url_name":"hirschen-oberwangen-be","address":"Wangentalstrasse 231","zip":"3173","city":"Oberwangen BE","gaultmillau":"","latitude":"46.9158","longitude":"7.36051","distance":"0"},"65":{"id":"897","real_name":"Bistrottino","url_name":"bistrottino","address":"Hauptgasse 51","zip":"3280","city":"Murten","gaultmillau":"","latitude":"46.929","longitude":"7.11788","distance":"0"},"66":{"id":"692","real_name":"Krone","url_name":"krone","address":"Bernstrasse 92","zip":"3324 ","city":"Hindelbank","gaultmillau":"","latitude":"47.0345","longitude":"7.53665","distance":"0"},"67":{"id":"696","real_name":"Schwert ","url_name":"schwert-thun","address":"Untere Hauptgasse 8","zip":"3600","city":"Thun","gaultmillau":"","latitude":"46.7601","longitude":"7.62879","distance":"0"},"68":{"id":"680","real_name":"mani's ","url_name":"manis-coffee-wine-bar","address":"Panoramastrasse 1 A","zip":"3600","city":"Thun","gaultmillau":"","latitude":"46.7553","longitude":"7.63081","distance":"0"},"69":{"id":"688","real_name":"Waisenhaus","url_name":"waisenhaus","address":"B\u00e4lliz 61","zip":"3600","city":"Thun","gaultmillau":"","latitude":"46.7576","longitude":"7.62939","distance":"0"},"70":{"id":"714","real_name":"Zunfthaus zu Metzgern","url_name":"zunfthaus-zu-metzgern","address":"Untere Hauptgasse 2","zip":"3600","city":"Thun","gaultmillau":"","latitude":"46.7599","longitude":"7.62884","distance":"0"},"71":{"id":"700","real_name":"Schloss Schadau","url_name":"schloss-schadau","address":"Seestrasse 45","zip":"3600","city":"Thun","gaultmillau":"14","latitude":"46.7461","longitude":"7.6373","distance":"0"},"72":{"id":"701","real_name":"Rossini ","url_name":"rossini-ristorante-pizzeria","address":"Marktgasse 12","zip":"3600","city":"Thun","gaultmillau":"","latitude":"46.7606","longitude":"7.62772","distance":"0"},"73":{"id":"704","real_name":"Bahnhofbuffet Thun","url_name":"bahnhofbuffet-thun","address":"Seestrasse 2","zip":"3600","city":"Thun","gaultmillau":"","latitude":"46.7549","longitude":"7.62966","distance":"0"},"74":{"id":"706","real_name":"Beaurivage","url_name":"beaurivage","address":"Hofstettenstrasse 6","zip":"3600","city":"Thun","gaultmillau":"","latitude":"46.7571","longitude":"7.63306","distance":"0"},"75":{"id":"718","real_name":"Oliva","url_name":"oliva","address":"Frutigenstrasse 46 a","zip":"3600","city":"Thun","gaultmillau":"","latitude":"46.748","longitude":"7.6259","distance":"0"},"76":{"id":"723","real_name":"AEK Caff\u00e8","url_name":"aek-caffe","address":"Hofstettenstrasse 2","zip":"3600","city":"Thun","gaultmillau":"","latitude":"46.7577","longitude":"7.63293","distance":"0"},"77":{"id":"725","real_name":"KQ Gniesstaurant","url_name":"kq-gniesstaurant","address":"M\u00fchleplatz","zip":"3600","city":"Thun","gaultmillau":"","latitude":"46.7584","longitude":"7.62944","distance":"0"},"78":{"id":"726","real_name":"Cocktail-Bar Altes Keller Theater","url_name":"cocktail-bar-altes-keller-theater","address":"Obere Hauptgasse 46","zip":"3600","city":"Thun","gaultmillau":"","latitude":"46.7584","longitude":"7.63001","distance":"0"},"79":{"id":"743","real_name":"al ponte ristorante","url_name":"al-ponte-ristorante","address":"Freienhofgasse 16","zip":"3600","city":"Thun","gaultmillau":"","latitude":"46.7577","longitude":"7.63074","distance":"0"},"80":{"id":"745","real_name":"Reber am Pl\u00e4tzli","url_name":"reber-am-platzli","address":"Hauptgasse 76 am Pl\u00e4tzli","zip":"3600","city":"Thun","gaultmillau":"","latitude":"46.758","longitude":"7.63183","distance":"0"},"81":{"id":"754","real_name":"Hotel Krone","url_name":"gourmet-hotel-krone","address":"Rathausplatz","zip":"3600","city":"Thun","gaultmillau":"12","latitude":"46.7593","longitude":"7.62877","distance":"0"},"82":{"id":"834","real_name":"Manora Thun","url_name":"manora-thun","address":"Bahnhofstrasse 6","zip":"3601","city":"Thun","gaultmillau":"","latitude":"46.756","longitude":"7.62964","distance":"0"},"83":{"id":"713","real_name":"Holiday","url_name":"holiday","address":"Gwattstrasse 1","zip":"3604 ","city":"Thun","gaultmillau":"","latitude":"46.7412","longitude":"7.62819","distance":"0"},"84":{"id":"1238","real_name":"Bl\u00fcmlisalp","url_name":"blumlisalp","address":"Dorfstrasse 88","zip":"3624","city":"Goldiwil","gaultmillau":"","latitude":"46.7634","longitude":"7.66894","distance":"0"},"85":{"id":"932","real_name":"Hotel Chartreuse","url_name":"hotel-chartreuse","address":"Staatsstrasse 142","zip":"3626","city":"Hilterfingen","gaultmillau":"","latitude":"46.7459","longitude":"7.64428","distance":"0"},"86":{"id":"772","real_name":"Da Bruno","url_name":"da-bruno","address":"Gheiweg 6","zip":"3646","city":"Einigen","gaultmillau":"","latitude":"46.7023","longitude":"7.65535","distance":"0"},"87":{"id":"933","real_name":"L\u00e4ndte","url_name":"restaurant-landte","address":"Schoren 17","zip":"3653","city":"Oberhofen","gaultmillau":"","latitude":"46.7314","longitude":"7.6639","distance":"0"},"88":{"id":"934","real_name":"Parkhotel Gunten","url_name":"parkhotel-gunten","address":"Seestrasse 90","zip":"3654","city":"Gunten","gaultmillau":"","latitude":"46.7123","longitude":"7.70254","distance":"0"},"89":{"id":"936","real_name":"Solbadhotel","url_name":"solbadhotel","address":"Sigriswilstrasse 117","zip":"3655","city":"Sigriswil","gaultmillau":"","latitude":"46.7154","longitude":"7.71449","distance":"0"},"90":{"id":"939","real_name":"Hotel Seegarten Pizzeria Al Porto","url_name":"hotel-restaurant-seegarten-pizzeria-al-porto","address":"Schachenstrasse 3","zip":"3700","city":"Spiez","gaultmillau":"","latitude":"46.6888","longitude":"7.68684","distance":"0"},"91":{"id":"941","real_name":"Hecht","url_name":"restaurant-hecht-faulensee","address":"Interlakenstrasse 85","zip":"3705","city":"Faulensee","gaultmillau":"","latitude":"46.6742","longitude":"7.70299","distance":"0"},"92":{"id":"942","real_name":"Hotel M\u00f6ve","url_name":"hotel-restaurant-move","address":"Interlaktenstrasse 140","zip":"3705","city":"Spiez","gaultmillau":"","latitude":"46.6677","longitude":"7.7188","distance":"0"},"93":{"id":"943","real_name":"Hotel Kreuz","url_name":"hotel-kreuz","address":"Dorfstrasse 32","zip":"3706","city":"Leissigen","gaultmillau":"","latitude":"46.6546","longitude":"7.76992","distance":"0"},"94":{"id":"944","real_name":"Sternen","url_name":"restaurant-sternen","address":"Hauptstrasse 89","zip":"3707","city":"D\u00e4rligen","gaultmillau":"","latitude":"46.663","longitude":"7.80806","distance":"0"},"95":{"id":"937","real_name":"Hotel Neuhaus","url_name":"hotel-neuhaus","address":"Seestrasse 121","zip":"3800","city":"Unterseen","gaultmillau":"","latitude":"46.6789","longitude":"7.81668","distance":"0"},"96":{"id":"938","real_name":"Hotel Beausite","url_name":"hotel-beausite","address":"Seestrasse 16","zip":"3800","city":"Interlaken","gaultmillau":"","latitude":"46.6846","longitude":"7.84657","distance":"0"},"97":{"id":"935","real_name":"Hotel Gloria","url_name":"hotel-gloria","address":"Hauptstrasse 115","zip":"3803","city":"Beatenberg","gaultmillau":"","latitude":"46.6897","longitude":"7.77422","distance":"0"},"98":{"id":"940","real_name":"Hotel Belv\u00e9d\u00e8re","url_name":"hotel-restaurant-belvedere","address":"Schachenstrasse 39","zip":"3900","city":"Spiez","gaultmillau":"","latitude":"46.6852","longitude":"7.68952","distance":"0"},"99":{"id":"845","real_name":"Globus Restaurant Basel","url_name":"globus-restaurant-basel","address":"Marktplatz 2","zip":"4001","city":"Basel","gaultmillau":"","latitude":"47.5586","longitude":"7.58786","distance":"0"},"100":{"id":"329","real_name":"Restaurant Stadthof","url_name":"restaurant-stadthof","address":"Gerbergasse 84","zip":"4001","city":"Basel","gaultmillau":"","latitude":"47.5549","longitude":"7.58874","distance":"0"},"101":{"id":"613","real_name":"Filini - Radisson Blu","url_name":"filini-restaurant-bar","address":"Steinentorstrasse 25","zip":"4001","city":"Basel","gaultmillau":"","latitude":"47.5513","longitude":"7.58859","distance":"0"},"102":{"id":"614","real_name":"Br\u00f6tlibar Basel","url_name":"brotlibar-basel","address":"Gerbergasse 84","zip":"4001","city":"Basel","gaultmillau":"","latitude":"47.5549","longitude":"7.58874","distance":"0"},"103":{"id":"615","real_name":"Pizzeria Stadthof","url_name":"pizzeria-stadthof","address":"Gerbergasse 84","zip":"4001","city":"Basel","gaultmillau":"","latitude":"47.5549","longitude":"7.58874","distance":"0"},"104":{"id":"616","real_name":"Walliser Kanne","url_name":"walliser-kanne","address":"Gerbergasse 50","zip":"4001","city":"Basel","gaultmillau":"","latitude":"47.5558","longitude":"7.58855","distance":"0"},"105":{"id":"792","real_name":"Ramazzotti","url_name":"ramazotti","address":"Hutgasse 6","zip":"4001 ","city":"Basel","gaultmillau":"","latitude":"47.5577","longitude":"7.58717","distance":"0"},"106":{"id":"930","real_name":"Schl\u00fcsselzunft","url_name":"schlusselzunft","address":"Freie-Strasse 25","zip":"4001","city":"Basel","gaultmillau":"","latitude":"47.5572","longitude":"7.58931","distance":"0"},"107":{"id":"885","real_name":"Caspar's","url_name":"caspars","address":"Centralbahnplatz 14","zip":"4002","city":"Basel","gaultmillau":"","latitude":"47.5487","longitude":"7.58997","distance":"0"},"108":{"id":"973","real_name":"Le Train Bleu - Hotel Victoria","url_name":"le-train-bleu-hotel-victoria","address":"Centralbahnstrasse 3-4","zip":"4002","city":"Basel","gaultmillau":"","latitude":"47.5479","longitude":"7.5906","distance":"0"},"109":{"id":"832","real_name":"Manora Basel","url_name":"manora-basel_4005","address":"Greifengasse 22","zip":"4005","city":"Basel","gaultmillau":"","latitude":"47.5611","longitude":"7.59216","distance":"0"},"110":{"id":"831","real_name":"Manora St. Jakob-Park","url_name":"manora-basel","address":"St. Jakobstrasse 397","zip":"4020","city":"Basel","gaultmillau":"","latitude":"47.5407","longitude":"7.6208","distance":"0"},"111":{"id":"240","real_name":"Atlantis","url_name":"atlantis","address":"Klosterberg 13","zip":"4051 ","city":"Basel","gaultmillau":"","latitude":"47.552","longitude":"7.59057","distance":"0"},"112":{"id":"245","real_name":"Rubino","url_name":"rubino","address":"Luftg\u00e4sslein 1","zip":"4051","city":"Basel","gaultmillau":"","latitude":"47.555","longitude":"7.59284","distance":"0"},"113":{"id":"306","real_name":"Birseckerhof","url_name":"birseckerhof","address":"Binningerstrasse 15","zip":"4051 ","city":"Basel","gaultmillau":"","latitude":"47.5504","longitude":"7.58615","distance":"0"},"114":{"id":"409","real_name":"Bel \u00c9tage - Der Teufelhof","url_name":"der-teufelhof-bel-etage","address":"Leonhardsgraben 49","zip":"4051","city":"Basel","gaultmillau":"16","latitude":"47.5558","longitude":"7.58674","distance":"0"},"115":{"id":"590","real_name":"Noohn","url_name":"noohn","address":"Henric Petristrasse 12","zip":"4051","city":"Basel","gaultmillau":"","latitude":"47.5521","longitude":"7.59221","distance":"0"},"116":{"id":"633","real_name":"L'Unique","url_name":"lunique","address":"Gerberg\u00e4sslein 20","zip":"4051","city":"Basel","gaultmillau":"","latitude":"47.5561","longitude":"7.58821","distance":"0"},"117":{"id":"639","real_name":"Harmonie Basel","url_name":"harmonie-basel","address":"Petersgraben 71","zip":"4051","city":"Basel","gaultmillau":"","latitude":"47.5572","longitude":"7.58442","distance":"0"},"118":{"id":"728","real_name":"Xiao Lu's - Chinesisches Restaurant","url_name":"xiao-lus-chinesisches-restaurant","address":"Elisabethenstrasse 44","zip":"4051","city":"Basel","gaultmillau":"","latitude":"47.5507","longitude":"7.59076","distance":"0"},"119":{"id":"731","real_name":"Caf\u00e9 des Arts","url_name":"cafe-des-arts","address":"Barf\u00fcsserplatz 6","zip":"4051","city":"Basel","gaultmillau":"","latitude":"47.555","longitude":"7.59","distance":"0"},"120":{"id":"732","real_name":"Nelson Basel","url_name":"nelson-basel","address":"Gerberg\u00e4sslein 2","zip":"4051","city":"Basel","gaultmillau":"","latitude":"47.5564","longitude":"7.58776","distance":"0"},"121":{"id":"751","real_name":"La Fonda","url_name":"la-fonda","address":"Schneidergasse 21","zip":"4051","city":"Basel","gaultmillau":"","latitude":"47.558","longitude":"7.58686","distance":"0"},"122":{"id":"849","real_name":"Wettstein Restaurant","url_name":"wettstein-restaurant","address":"Aeschengraben 31 (im Hilton)","zip":"4051","city":"Basel","gaultmillau":"","latitude":"47.5488","longitude":"7.59203","distance":"0"},"123":{"id":"793","real_name":"Brasserie L\u00f6wenzorn","url_name":"brasserie-lowenzorn","address":"Gemsberg 2-4","zip":"4051","city":"Basel","gaultmillau":"","latitude":"47.5568","longitude":"7.58619","distance":"0"},"124":{"id":"794","real_name":"Gifth\u00fcttli","url_name":"gifthuttli","address":"Schneidergasse 11","zip":"4051","city":"Basel","gaultmillau":"","latitude":"47.5582","longitude":"7.58688","distance":"0"},"125":{"id":"801","real_name":"Acqua","url_name":"acqua","address":"Binningerstrasse 14","zip":"4051","city":"Basel","gaultmillau":"","latitude":"47.5497","longitude":"7.58434","distance":"0"},"126":{"id":"888","real_name":"Yoko Sushi","url_name":"yoko-sushi","address":"Steinentorstrasse 35","zip":"4051","city":"Basel","gaultmillau":"","latitude":"47.5512","longitude":"7.58842","distance":"0"},"127":{"id":"961","real_name":"Papa Joe's Basel","url_name":"papa-joes-basel","address":"Am Barf\u00fcsserplatz im Stadtcasino","zip":"4051","city":"Basel","gaultmillau":"","latitude":"47.5542","longitude":"7.58936","distance":"0"},"128":{"id":"962","real_name":"KOHLMANNS","url_name":"kohlmanns","address":"Am Barf\u00fcsserplatz im Stadtcasino","zip":"4051","city":"Basel","gaultmillau":"","latitude":"47.5542","longitude":"7.58936","distance":"0"},"129":{"id":"1064","real_name":"Hotel Brasserie au violon","url_name":"au-violon","address":"Im Lohnhof 4","zip":"4051","city":"Basel","gaultmillau":"","latitude":"47.5548","longitude":"7.58843","distance":"0"},"130":{"id":"100","real_name":"Lunchgate ","url_name":"surprise-lunchgate","address":"Froburgstrasse 99","zip":"4052","city":"basel","gaultmillau":"19","latitude":"64.99","longitude":"-19.0208","distance":"0"},"131":{"id":"795","real_name":"Gasthof zum Goldenen Sternen","url_name":"gasthof-zum-goldenen-sternen","address":"St.Alban-Rheinweg 70","zip":"4052","city":"Basel","gaultmillau":"","latitude":"47.5547","longitude":"7.60199","distance":"0"},"132":{"id":"1045","real_name":"Aeschenplatz","url_name":"aeschenplatz","address":"Aeschenplatz 4","zip":"4052","city":"Basel","gaultmillau":"","latitude":"47.5513","longitude":"7.59594","distance":"0"},"133":{"id":"1190","real_name":"Hattrick Sport-Bar","url_name":"hattrick-sport-bar","address":"St. Jakobs-Strasse 395","zip":"4052","city":"Basel","gaultmillau":"","latitude":"47.5414","longitude":"7.62016","distance":"0"},"134":{"id":"1191","real_name":"UNO","url_name":"restaurant-uno","address":"St. Jakobs-Strasse 395","zip":"4052","city":"Basel","gaultmillau":"","latitude":"47.5414","longitude":"7.61988","distance":"0"},"135":{"id":"1044","real_name":"Gastronomia Peppino","url_name":"gastronomia-peppino","address":"Zwingenstrasse 29","zip":"4053","city":"Basel","gaultmillau":"","latitude":"47.5437","longitude":"7.59296","distance":"0"},"136":{"id":"262","real_name":"Chez Donati","url_name":"chez-donati","address":"St. Johanns-Vorstadt 48","zip":"4056 ","city":"Basel","gaultmillau":"13","latitude":"47.5643","longitude":"7.58395","distance":"0"},"137":{"id":"889","real_name":"zur M\u00e4gd","url_name":"zur-magd-basel","address":"St. Johanns-Vorstadt 29","zip":"4056","city":"Basel","gaultmillau":"","latitude":"47.5637","longitude":"7.58407","distance":"0"},"138":{"id":"624","real_name":"Don Pincho","url_name":"don-pincho","address":"St. Johanns-Vorstadt 58","zip":"4056","city":"Basel","gaultmillau":"","latitude":"47.5646","longitude":"7.58391","distance":"0"},"139":{"id":"724","real_name":"Atelier - Der Teufelhof","url_name":"der-teufelhof-atelier","address":"Leonhardsgraben 49","zip":"4056","city":"Basel","gaultmillau":"","latitude":"47.5559","longitude":"7.58641","distance":"0"},"140":{"id":"737","real_name":"Jay's","url_name":"jays","address":"St. Johanns-Vorstadt 13","zip":"4056","city":"Basel","gaultmillau":"","latitude":"47.5628","longitude":"7.58474","distance":"0"},"141":{"id":"749","real_name":"Parterre","url_name":"parterre","address":"Klybeckstrasse 1b","zip":"4057","city":"Basel","gaultmillau":"","latitude":"47.5638","longitude":"7.59113","distance":"0"},"142":{"id":"931","real_name":"Rebstock","url_name":"rebstock","address":"Klingentalstrasse 67","zip":"4057 ","city":"Basel","gaultmillau":"","latitude":"47.5647","longitude":"7.59691","distance":"0"},"143":{"id":"1042","real_name":"Terrasse","url_name":"terrasse","address":"Haltingerstrasse 104","zip":"4057","city":"Basel","gaultmillau":"","latitude":"47.5666","longitude":"7.59746","distance":"0"},"144":{"id":"709","real_name":"Les Quatre Saisons","url_name":"les-quatre-saisons","address":"Clarastrasse 13","zip":"4058","city":"Basel","gaultmillau":"18","latitude":"47.5625","longitude":"7.59548","distance":"0"},"145":{"id":"565","real_name":"Restaurant Caf\u00e9 Spitz","url_name":"restaurant-cafe-spitz","address":"Rheingasse 2","zip":"4058","city":"Basel","gaultmillau":"","latitude":"47.5606","longitude":"7.59125","distance":"0"},"146":{"id":"574","real_name":"Zum Schmale Wurf","url_name":"zum-schmale-wurf","address":"Rheingasse 10","zip":"4058","city":"Basel","gaultmillau":"","latitude":"47.5603","longitude":"7.59165","distance":"0"},"147":{"id":"1146","real_name":"Schloss Bottmingen","url_name":"schloss-bottmingen","address":"Schlossgasse 9","zip":"4103","city":"Bottmingen bei Basel","gaultmillau":"15","latitude":"47.5242","longitude":"7.57052","distance":"0"},"148":{"id":"1241","real_name":"Viva! dasRestaurant","url_name":"viva-dasrestaurant","address":"Hauptstrasse 41","zip":"4104 ","city":"Oberwil","gaultmillau":"","latitude":"47.5139","longitude":"7.55618","distance":"0"},"149":{"id":"1063","real_name":"Caf\u00e9 Favorita","url_name":"cafe-favorita","address":"H\u00f6rnlialle 71","zip":"4125","city":"Riehen","gaultmillau":"","latitude":"47.5654","longitude":"7.63591","distance":"0"},"150":{"id":"929","real_name":"Gasthof Solbad","url_name":"gasthof-solbad","address":"Rheinfelderstrasse 2","zip":"4133","city":"Schweizerhalle","gaultmillau":"","latitude":"47.5211","longitude":"7.69167","distance":"0"},"151":{"id":"1147","real_name":"Die Schenke","url_name":"kloster-dornach","address":"Amthausstrasse 7","zip":"4143","city":"Dornach","gaultmillau":"","latitude":"47.4884","longitude":"7.61027","distance":"0"},"152":{"id":"860","real_name":"Salzhaus","url_name":"salzhaus","address":"Landhausquai 15a","zip":"4500","city":"Solothurn","gaultmillau":"","latitude":"47.2063","longitude":"7.53648","distance":"0"},"153":{"id":"861","real_name":"Baseltor","url_name":"baseltor","address":"Hauptgasse 79","zip":"4500","city":"Solothurn","gaultmillau":"","latitude":"47.2087","longitude":"7.53929","distance":"0"},"154":{"id":"862","real_name":"Solheure","url_name":"solheure","address":"Ritterquai 10","zip":"4500","city":"Solothurn","gaultmillau":"","latitude":"47.2071","longitude":"7.53972","distance":"0"},"155":{"id":"865","real_name":"Trattoria Al Solito Posto","url_name":"trattoria-al-solito-posto","address":"Fabrikstrasse 4","zip":"4500","city":"Solothurn","gaultmillau":"","latitude":"47.2118","longitude":"7.52576","distance":"0"},"156":{"id":"866","real_name":"Malarvanam","url_name":"malarvanam","address":"Baselstrasse 68","zip":"4500","city":"Solothurn","gaultmillau":"","latitude":"47.2134","longitude":"7.54736","distance":"0"},"157":{"id":"869","real_name":"Ramada","url_name":"ramada","address":"Sch\u00e4nzlistrasse 5","zip":"4500","city":"Solothurn","gaultmillau":"","latitude":"47.2059","longitude":"7.54168","distance":"0"},"158":{"id":"870","real_name":"Sternen","url_name":"sternen","address":"Baselstrasse 47","zip":"4500","city":"Solothurn","gaultmillau":"","latitude":"47.2122","longitude":"7.54509","distance":"0"},"159":{"id":"871","real_name":"Akropolis","url_name":"akropolis","address":"Kreuzackerstrasse 6","zip":"4500","city":"Solothurn","gaultmillau":"","latitude":"47.2049","longitude":"7.53894","distance":"0"},"160":{"id":"925","real_name":"AnaCapri","url_name":"anacapri-solothurn","address":"Friedhofplatz 14","zip":"4500","city":"Solothurn","gaultmillau":"","latitude":"47.2073","longitude":"7.53576","distance":"0"},"161":{"id":"926","real_name":"Manora Solothurn","url_name":"manora-solothurn","address":"Gurzelngasse 18","zip":"4500","city":"Solothurn","gaultmillau":"","latitude":"47.2081","longitude":"7.53592","distance":"0"},"162":{"id":"1086","real_name":"Havanna","url_name":"havanna","address":"Gerbergasse 12","zip":"4800","city":"Zofingen","gaultmillau":"","latitude":"47.2872","longitude":"7.94665","distance":"0"},"163":{"id":"986","real_name":"art cigar","url_name":"art-cigar","address":"Ziegelrain 8","zip":"5000","city":"Aarau","gaultmillau":"","latitude":"47.3917","longitude":"8.04396","distance":"0"},"164":{"id":"1168","real_name":"Tuchlaube Cafe Bar","url_name":"tuchlaube-cafe-bar","address":"Metzgergasse 18","zip":"5000","city":"Aarau","gaultmillau":"","latitude":"47.3938","longitude":"8.04377","distance":"0"},"165":{"id":"1123","real_name":"Hirschen - Landhotel","url_name":"hirschen-landhotel","address":"Hauptstrasse 125","zip":"5015","city":"Erlinsbach","gaultmillau":"14","latitude":"47.3331","longitude":"7.75515","distance":"0"},"166":{"id":"139","real_name":"Thai Thai","url_name":"thai-thai","address":"Bibersteinerstrasse 11","zip":"5022","city":"Rombach","gaultmillau":"","latitude":"47.4018","longitude":"8.04457","distance":"0"},"167":{"id":"150","real_name":"Dorf","url_name":"dorf","address":"Hauptstrasse 15","zip":"5024","city":"K\u00fcttigen","gaultmillau":"","latitude":"47.4144","longitude":"8.04774","distance":"0"},"168":{"id":"209","real_name":"Gia Vinh","url_name":"gia-vinh","address":"Aarauerstrasse 2","zip":"5033","city":"Buchs","gaultmillau":"","latitude":"47.3899","longitude":"8.06398","distance":"0"},"169":{"id":"1214","real_name":"Zum Sternen","url_name":"zum-sternen","address":"Endingerstrasse 7","zip":"5303","city":"W\u00fcrenlingen","gaultmillau":"","latitude":"47.5312","longitude":"8.25853","distance":"0"},"170":{"id":"672","real_name":"Bouillon","url_name":"bouillon","address":"Bruggerstrasse 46","zip":"5400","city":"Baden","gaultmillau":"","latitude":"47.4772","longitude":"8.30484","distance":"0"},"171":{"id":"698","real_name":"Eintracht","url_name":"eintracht","address":"Z\u00fcrcherstrasse 2","zip":"5400","city":"Baden","gaultmillau":"","latitude":"47.471","longitude":"8.30567","distance":"0"},"172":{"id":"736","real_name":"Restaurant Grand Casino Baden","url_name":"restaurant-grand-casino-baden","address":"Haselstrasse 2","zip":"5400","city":"Baden","gaultmillau":"","latitude":"47.4788","longitude":"8.31054","distance":"0"},"173":{"id":"750","real_name":"Atrium - Hotel Blume","url_name":"atrium-hotel-blume","address":"Kurplatz 4","zip":"5400","city":"Baden","gaultmillau":"","latitude":"47.4804","longitude":"8.31358","distance":"0"},"174":{"id":"824","real_name":"Manora Baden","url_name":"manora-baden","address":"Schlossbergplatz 7","zip":"5400","city":"Baden","gaultmillau":"","latitude":"47.4736","longitude":"8.3071","distance":"0"},"175":{"id":"903","real_name":"Spedition","url_name":"spedition","address":"Bruggerstrasse 37","zip":"5400","city":"Baden","gaultmillau":"","latitude":"47.4759","longitude":"8.30481","distance":"0"},"176":{"id":"591","real_name":"Schloss Schartenfels","url_name":"schloss-schartenfels","address":"Schartenfelsstrasse","zip":"5430","city":"Wettingen","gaultmillau":"","latitude":"47.4734","longitude":"8.31802","distance":"0"},"177":{"id":"911","real_name":"Restaurant Charly - Krone Lenzburg","url_name":"hotel-krone","address":"Kronenplatz 18\/20","zip":"5600","city":"Lenzburg","gaultmillau":"","latitude":"47.3881","longitude":"8.18129","distance":"0"},"178":{"id":"912","real_name":"Hotel Ochsen","url_name":"hotel-ochsen","address":"Burghaldenstrasse 33","zip":"5600","city":"Lenzburg","gaultmillau":"","latitude":"47.3856","longitude":"8.18094","distance":"0"},"179":{"id":"964","real_name":"Hirschen","url_name":"hirschen-lenzburg","address":"Rathausgasse 41","zip":"5600","city":"Lenzburg","gaultmillau":"","latitude":"47.3873","longitude":"8.18116","distance":"0"},"180":{"id":"984","real_name":"Seehotel Delphin","url_name":"seehotel-delphin","address":"Delphinstrasse 26","zip":"5616","city":"Meisterschwanden","gaultmillau":"","latitude":"47.2963","longitude":"8.22051","distance":"0"},"181":{"id":"1025","real_name":"Seeblick","url_name":"seeblick-boniswil","address":"Seetalstrasse 57","zip":"5706","city":"Boniswil","gaultmillau":"","latitude":"47.3105","longitude":"8.19068","distance":"0"},"182":{"id":"1032","real_name":"Lintharena ","url_name":"lintharena","address":"Oberurnerstrasse 14","zip":"5752","city":"N\u00e4fels","gaultmillau":"","latitude":"47.1058","longitude":"9.06535","distance":"0"},"183":{"id":"988","real_name":"Sauvage","url_name":"sauvage","address":"Bahnhofstrasse 30","zip":"6000","city":"Luzern 7","gaultmillau":"14","latitude":"47.0503","longitude":"8.30308","distance":"0"},"184":{"id":"1207","real_name":"Hermitage ","url_name":"hermitage","address":"Seeburgstrasse 72","zip":"6000","city":"Luzern ","gaultmillau":"","latitude":"47.0425","longitude":"8.35096","distance":"0"},"185":{"id":"164","real_name":"Jasper","url_name":"jasper","address":"Haldenstrasse 10","zip":"6002","city":"Luzern","gaultmillau":"","latitude":"47.0553","longitude":"8.31962","distance":"0"},"186":{"id":"216","real_name":"Brasserie Flora","url_name":"brasserie-flora","address":"Seidenhofstrasse 5","zip":"6002 ","city":"Luzern","gaultmillau":"","latitude":"47.0502","longitude":"8.30776","distance":"0"},"187":{"id":"336","real_name":"Hotel Schweizerhof Luzern","url_name":"hotel-schweizerhof-luzern","address":"Schweizerhofquai","zip":"6002","city":"Luzern","gaultmillau":"","latitude":"47.0539","longitude":"8.30987","distance":"0"},"188":{"id":"840","real_name":"Kulinarische Abendfahrten","url_name":"kulinarische-abendfahrten","address":"Bahnhofquai, Landungsbr\u00fccke 1 (SGV)","zip":"6002","city":"Luzern","gaultmillau":"","latitude":"47.0475","longitude":"8.31505","distance":"0"},"189":{"id":"710","real_name":"Au Premier","url_name":"au-premier","address":"Bahnhof Luzern","zip":"6002","city":"Luzern","gaultmillau":"13","latitude":"47.0502","longitude":"8.31017","distance":"0"},"190":{"id":"711","real_name":"Bahnhof Buffet","url_name":"bahnhof-buffet","address":"Bahnhof Luzern","zip":"6002","city":"Luzern","gaultmillau":"","latitude":"47.0502","longitude":"8.31017","distance":"0"},"191":{"id":"823","real_name":"Manora Luzern","url_name":"manora","address":"Weggisgasse 5","zip":"6002 ","city":"Luzern","gaultmillau":"","latitude":"47.0532","longitude":"8.30645","distance":"0"},"192":{"id":"842","real_name":"Mensa Hochschule Luzern- Soziale Arbeit ","url_name":"mensa-hslu-sa","address":"Werftestrasse 5","zip":"6002","city":"Luzern","gaultmillau":"","latitude":"47.048","longitude":"8.31507","distance":"0"},"193":{"id":"843","real_name":"LUZ Seebistro","url_name":"luz-seebistro","address":"Banhofplatz","zip":"6002","city":"Luzern","gaultmillau":"","latitude":"47.051","longitude":"8.31001","distance":"0"},"194":{"id":"846","real_name":"Globus Restaurant Luzern","url_name":"globus-restaurant-luzern","address":"Pilatusstrasse 4","zip":"6002","city":"Luzern","gaultmillau":"","latitude":"47.0501","longitude":"8.30833","distance":"0"},"195":{"id":"873","real_name":"Mittagsschiff","url_name":"kulinarische-abendfahrten-luzern","address":"Bahnhofquai, Landungsbr\u00fccke 1 (SGV)","zip":"6002","city":"Luzern","gaultmillau":"","latitude":"47.0475","longitude":"8.31505","distance":"0"},"196":{"id":"125","real_name":"Wirtschaft zur Ente","url_name":"wirtschaft-zur-ente","address":"Buobenmatt","zip":"6003","city":"Luzern","gaultmillau":"","latitude":"47.0501","longitude":"8.30643","distance":"0"},"197":{"id":"478","real_name":"Marilyn","url_name":"marilyn","address":"Pilatusstrasse 46","zip":"6003","city":"Luzern","gaultmillau":"","latitude":"47.0477","longitude":"8.30313","distance":"0"},"198":{"id":"486","real_name":"Weisses Schloss","url_name":"weisses-schloss","address":"Moosstrasse 7","zip":"6003","city":"Luzern","gaultmillau":"","latitude":"47.0458","longitude":"8.30516","distance":"0"},"199":{"id":"491","real_name":"Wirtshaus Galliker","url_name":"wirtshaus-galliker","address":"Sch\u00fctzenstrasse 1","zip":"6003","city":"Luzern","gaultmillau":"","latitude":"47.051","longitude":"8.3008","distance":"0"},"200":{"id":"572","real_name":"Burgerstube","url_name":"burgerstube","address":"Bahnhofstrasse 30","zip":"6003","city":"Luzern","gaultmillau":"14","latitude":"47.0503","longitude":"8.30308","distance":"0"},"201":{"id":"788","real_name":"BOLERO Restaurant & Lounge","url_name":"bolero-restaurant-lounge","address":"Bundesplatz 18","zip":"6003","city":"Luzern","gaultmillau":"","latitude":"47.0462","longitude":"8.30929","distance":"0"},"202":{"id":"1221","real_name":"Stern Luzern","url_name":"sternen-luzern","address":"Burgerstrasse 35","zip":"6003","city":"Luzern ","gaultmillau":"","latitude":"47.0493","longitude":"8.30288","distance":"0"},"203":{"id":"145","real_name":"Balances","url_name":"balances","address":"Weinmarkt","zip":"6004","city":"Luzern","gaultmillau":"14","latitude":"47.0516","longitude":"8.30472","distance":"0"},"204":{"id":"149","real_name":"Restaurant Krone","url_name":"restaurant-krone","address":"Weinmarkt 12","zip":"6004","city":"Luzern","gaultmillau":"","latitude":"47.052","longitude":"8.30445","distance":"0"},"205":{"id":"489","real_name":"Joel's - Hotel Luzernerhof","url_name":"joels-hotel-luzernerhof","address":"Alpenstrasse 3","zip":"6004","city":"Luzern","gaultmillau":"","latitude":"47.0551","longitude":"8.31096","distance":"0"},"206":{"id":"519","real_name":"La Gondola","url_name":"la-gondola","address":"Weinmarkt 3","zip":"6004","city":"Luzern","gaultmillau":"","latitude":"47.0519","longitude":"8.30495","distance":"0"},"207":{"id":"533","real_name":"Wiederkehr","url_name":"wiederkehr","address":"Z\u00fcrichstrasse 16 (beim L\u00f6wendenkmal) ","zip":"6004","city":"Luzern","gaultmillau":"13","latitude":"47.0582","longitude":"8.30988","distance":"0"},"208":{"id":"542","real_name":"Lapin - Hotel de la Paix","url_name":"lapin-hotel-de-la-paix","address":"Museggstrasse 2","zip":"6004","city":"Luzern","gaultmillau":"","latitude":"47.0559","longitude":"8.31022","distance":"0"},"209":{"id":"989","real_name":"Old Swiss House","url_name":"old-swiss-house","address":"L\u00f6wenplatz 4","zip":"6004","city":"Luzern","gaultmillau":"15","latitude":"47.0573","longitude":"8.31126","distance":"0"},"210":{"id":"208","real_name":"Luce - Radisson Blu Hotel","url_name":"luce-radisson-blu-hotel","address":"Inseliquai 12","zip":"6005","city":"Luzern","gaultmillau":"","latitude":"47.0485","longitude":"8.31399","distance":"0"},"211":{"id":"1126","real_name":"Grottino 13\/13","url_name":"grottino-13-13","address":"Industriestrasse 7","zip":"6005","city":"Luzern","gaultmillau":"","latitude":"47.0416","longitude":"8.31116","distance":"0"},"212":{"id":"1117","real_name":"Seepark","url_name":"seepark","address":"Alpenquai 40a","zip":"6005 ","city":"Luzern ","gaultmillau":"","latitude":"47.0443","longitude":"8.32062","distance":"0"},"213":{"id":"809","real_name":"KKL Restaurant RED","url_name":"restaurant-red","address":"Europaplatz 1","zip":"6005","city":"Luzern","gaultmillau":"15","latitude":"47.0503","longitude":"8.31183","distance":"0"},"214":{"id":"841","real_name":"N'ICE","url_name":"nice","address":"Eisfeldstrasse 2","zip":"6005","city":"Luzern","gaultmillau":"","latitude":"47.0412","longitude":"8.32138","distance":"0"},"215":{"id":"1192","real_name":"KKL Seebar","url_name":"kkl-seebar","address":"Europaplatz 1","zip":"6005","city":"Luzern ","gaultmillau":"","latitude":"47.0825","longitude":"8.35253","distance":"0"},"216":{"id":"564","real_name":"1871 Essen.Trinken.Sein","url_name":"1871-essentrinkensein","address":"Haldenstrasse 6","zip":"6006","city":"Luzern","gaultmillau":"","latitude":"47.055","longitude":"8.31707","distance":"0"},"217":{"id":"661","real_name":"Piccard","url_name":"piccard","address":"Lidostrasse 5","zip":"6006","city":"Luzern","gaultmillau":"","latitude":"47.0531","longitude":"8.33535","distance":"0"},"218":{"id":"1060","real_name":"Krienserhalle","url_name":"krienserhalle","address":"Gallusstrasse 14","zip":"6010","city":"Kriens","gaultmillau":"","latitude":"47.0332","longitude":"8.28077","distance":"0"},"219":{"id":"1140","real_name":"Kuonimatt","url_name":"kuonimatt","address":"Industriestr 9","zip":"6010","city":"Kriens","gaultmillau":"","latitude":"47.0246","longitude":"8.29981","distance":"0"},"220":{"id":"1247","real_name":"feRUS hotel-bar-grill","url_name":"ferus-hotel-bar-grill","address":"Rothenburgstrasse 45","zip":"6020","city":"Emmenbr\u00fccke","gaultmillau":"","latitude":"47.0871","longitude":"8.27229","distance":"0"},"221":{"id":"1102","real_name":"Paradies","url_name":"paradies","address":"R\u00fceggisingerstrasse 69","zip":"6020","city":"Emmenbr\u00fccke","gaultmillau":"","latitude":"47.0826","longitude":"8.28412","distance":"0"},"222":{"id":"900","real_name":"Manora Emmen","url_name":"manora-emmen","address":"Shopping-Center Emmen","zip":"6032","city":"Emmen","gaultmillau":"","latitude":"47.0936","longitude":"8.30389","distance":"0"},"223":{"id":"886","real_name":"Gaststube Seehotel Sternen","url_name":"gaststube-seehotel-sternen","address":"Winkelstrasse 46","zip":"6048","city":"Horw","gaultmillau":"","latitude":"47.0116","longitude":"8.3161","distance":"0"},"224":{"id":"919","real_name":"Neptun Seehotel Sternen","url_name":"neptun-seehotel-sternen","address":"Winkelstrasse 46","zip":"6048","city":"Horw","gaultmillau":"","latitude":"47.0112","longitude":"8.31521","distance":"0"},"225":{"id":"1219","real_name":"Venus Seehotel Sternen ","url_name":"venus-seehotel-sternen","address":"Winkelstrasse 46","zip":"6048","city":"Horw","gaultmillau":"","latitude":"47.0116","longitude":"8.31614","distance":"0"},"226":{"id":"965","real_name":"Glasi Restaurant Adler ","url_name":"glasi-restaurant-adler","address":"Seestrasse 7","zip":"6052","city":"Hergiswil NW","gaultmillau":"","latitude":"46.9815","longitude":"8.31094","distance":"0"},"227":{"id":"1133","real_name":"Roggerli","url_name":"roggerli","address":"Riedmattstrasse 21","zip":"6052","city":"Hergiswil","gaultmillau":"","latitude":"46.9882","longitude":"8.30729","distance":"0"},"228":{"id":"1087","real_name":"Hardy's","url_name":"hardys","address":"Rathausplatz 7","zip":"6210","city":"Sursee","gaultmillau":"","latitude":"47.1728","longitude":"8.10989","distance":"0"},"229":{"id":"1220","real_name":"Woods","url_name":"woods","address":"Luzernerstrase 9","zip":"6247","city":"Sch\u00f6tz","gaultmillau":"13","latitude":"47.1702","longitude":"7.99059","distance":"0"},"230":{"id":"154","real_name":"Ristorante Pasteria R\u00f6thelberg","url_name":"ristorante-pasteria-rothelberg","address":"Blasenbergstrasse 15","zip":"6300","city":"Zug","gaultmillau":"","latitude":"47.1649","longitude":"8.52611","distance":"0"},"231":{"id":"95","real_name":"Swisshotel Zug","url_name":"swissbistro-chollermuli","address":"Chollerstr. 1a","zip":"6300","city":"Zug","gaultmillau":"","latitude":"47.183","longitude":"8.48384","distance":"0"},"232":{"id":"113","real_name":"Speck Confiserie-Cafe","url_name":"speck-confiserie-cafe","address":"beim Bahnhof\/Alpenstr. 12","zip":"6300","city":"Zug","gaultmillau":"","latitude":"47.1725","longitude":"8.51494","distance":"0"},"233":{"id":"114","real_name":"Confiserie Cafe Speck Metalli","url_name":"confiserie-cafe-speck-metalli","address":"Baarerstrasse 22","zip":"6300","city":"Zug","gaultmillau":"","latitude":"47.1732","longitude":"8.51702","distance":"0"},"234":{"id":"115","real_name":"Monsieur Baguette","url_name":"monsieur-baguette","address":"Baarerstrasse 53","zip":"6300","city":"Zug","gaultmillau":"","latitude":"47.1748","longitude":"8.51655","distance":"0"},"235":{"id":"159","real_name":"Almodobar","url_name":"almodobar","address":"Grafenauweg 6","zip":"6300","city":"Zug","gaultmillau":"","latitude":"47.1745","longitude":"8.51304","distance":"0"},"236":{"id":"207","real_name":"Schiff","url_name":"schiff","address":"Graben 2","zip":"6300","city":"Zug","gaultmillau":"","latitude":"47.1666","longitude":"8.51463","distance":"0"},"237":{"id":"576","real_name":"San Marco","url_name":"san-marco","address":"Fischmarkt 2","zip":"6300","city":"Zug","gaultmillau":"","latitude":"47.1663","longitude":"8.51433","distance":"0"},"238":{"id":"577","real_name":"Liguria","url_name":"liguria","address":"Fischmarkt 2","zip":"6300","city":"Zug","gaultmillau":"","latitude":"47.1666","longitude":"8.51372","distance":"0"},"239":{"id":"644","real_name":"Mantra Bar, Caf\u00e9 & Lounge","url_name":"mantra-bar-cafe-lounge","address":"Alpenstrasse 14","zip":"6300","city":"Zug","gaultmillau":"","latitude":"47.1727","longitude":"8.51507","distance":"0"},"240":{"id":"645","real_name":"Giardino","url_name":"giardino","address":"Reifferg\u00e4ssli 3","zip":"6300","city":"Zug","gaultmillau":"","latitude":"47.1697","longitude":"8.51512","distance":"0"},"241":{"id":"646","real_name":"Fischm\u00e4rt","url_name":"fischmart","address":"Fischmarkt 15","zip":"6300","city":"Zug","gaultmillau":"","latitude":"47.1662","longitude":"8.515","distance":"0"},"242":{"id":"658","real_name":"Hafenrestaurant","url_name":"hafenrestaurant","address":"Hafenplatz 2","zip":"6300","city":"Zug","gaultmillau":"","latitude":"47.1728","longitude":"8.50475","distance":"0"},"243":{"id":"681","real_name":"Althus Bar - Bistro","url_name":"althus-bar-bistro","address":"Landsgemeindeplatz 8","zip":"6300","city":"Zug","gaultmillau":"","latitude":"47.1667","longitude":"8.51497","distance":"0"},"244":{"id":"787","real_name":"a Dragon Palace ","url_name":"a-dragon-palace","address":"Industriestrasse 22","zip":"6300","city":"Zug","gaultmillau":"","latitude":"47.1746","longitude":"8.51927","distance":"0"},"245":{"id":"1243","real_name":"SPAGO","url_name":"spago","address":"Bahnhofstrasse 12","zip":"6300","city":"Zug","gaultmillau":"","latitude":"47.1689","longitude":"8.51592","distance":"0"},"246":{"id":"1203","real_name":"Kursschiff Zugersee","url_name":"kursschiff-zugersee","address":"An der Aa 6 ","zip":"6304 ","city":"Zug","gaultmillau":"","latitude":"47.1674","longitude":"8.5137","distance":"0"},"247":{"id":"1205","real_name":"Kulinarische Abendfahrten Zugersee","url_name":"kulinarische-abendfahrten-zugersee","address":"An der Aa 6","zip":"6304","city":"Zug","gaultmillau":"","latitude":"47.1702","longitude":"8.5132","distance":"0"},"248":{"id":"180","real_name":"Zunfthaus Kreuz","url_name":"zunfthaus-kreuz","address":"Artherstrasse 108","zip":"6317","city":"Oberwil","gaultmillau":"","latitude":"47.1494","longitude":"8.50758","distance":"0"},"249":{"id":"990","real_name":"The Blinker ","url_name":"the-blinker","address":"Alte Steinhauserstrasse 15","zip":"6330","city":"Cham 2","gaultmillau":"","latitude":"47.1876","longitude":"8.47436","distance":"0"},"250":{"id":"475","real_name":"Waldheim","url_name":"waldheim","address":"Rischerstrasse 27","zip":"6343","city":"Risch","gaultmillau":"15","latitude":"47.1334","longitude":"8.46609","distance":"0"},"251":{"id":"1172","real_name":"APART","url_name":"apart","address":"Mattenstrasse 1","zip":"6343","city":"Rotkreuz","gaultmillau":"","latitude":"47.1427","longitude":"8.43047","distance":"0"},"252":{"id":"978","real_name":"Seehotel Gotthard","url_name":"seehotel-gotthard","address":"Gotthardstrasse 11","zip":"6353","city":"Weggis am Vierwaldst\u00e4tterhof","gaultmillau":"","latitude":"47.032","longitude":"8.43722","distance":"0"},"253":{"id":"980","real_name":"Hotel Graziella","url_name":"hotel-graziella","address":"Hertensteinstrasse 132","zip":"6353 ","city":"Weggis","gaultmillau":"","latitude":"47.0284","longitude":"8.40625","distance":"0"},"254":{"id":"1061","real_name":"Krone","url_name":"krone-stansstad","address":"Kronengasse 3","zip":"6362","city":"Stansstad","gaultmillau":"","latitude":"46.9797","longitude":"8.33815","distance":"0"},"255":{"id":"968","real_name":"Seehotel Baumgarten","url_name":"seehotel-baumgarten","address":"Baumgartenstrasse 4","zip":"6365","city":"Kehrsiten Dorf ","gaultmillau":"","latitude":"46.9995","longitude":"8.36506","distance":"0"},"256":{"id":"1010","real_name":"Buochserstube - Krone","url_name":"buochserstube-krone","address":"Dorfplatz 2a","zip":"6374","city":"Buochs","gaultmillau":"","latitude":"46.9735","longitude":"8.42099","distance":"0"},"257":{"id":"1006","real_name":"Nidwaldnerhof","url_name":"nidwaldnerhof","address":"Dorfstrasse 12","zip":"6375","city":"Beckenried","gaultmillau":"","latitude":"46.9695","longitude":"8.47119","distance":"0"},"258":{"id":"1024","real_name":"SEEBLICK","url_name":"seeblick","address":"Hugenstrasse 24","zip":"6376","city":"Emmetten","gaultmillau":"","latitude":"46.9593","longitude":"8.52093","distance":"0"},"259":{"id":"1180","real_name":"Europ\u00e4ischer Hof - Hotel Europe","url_name":"europaischer-hof-hotel-europe","address":"Dorfstrasse 40","zip":"6390","city":"Engelberg","gaultmillau":"","latitude":"46.8206","longitude":"8.40239","distance":"0"},"260":{"id":"1178","real_name":"Alpenclub","url_name":"alpenclub","address":"Dorfstrasse 5","zip":"6390","city":"Engelberg","gaultmillau":"","latitude":"46.8212","longitude":"8.40709","distance":"0"},"261":{"id":"979","real_name":"Rigi Kulm","url_name":"rigi-kulm","address":"","zip":"6410","city":"Rigi Kulm","gaultmillau":"","latitude":"47.0569","longitude":"8.48525","distance":"0"},"262":{"id":"596","real_name":"Soave 10","url_name":"soave-10","address":"Via Soave 10","zip":"6900","city":"Lugano","gaultmillau":"","latitude":"46.0045","longitude":"8.95027","distance":"0"},"263":{"id":"597","real_name":"Tango","url_name":"tango","address":"Piazza Riforma","zip":"6900","city":"Lugano","gaultmillau":"","latitude":"46.0037","longitude":"8.95105","distance":"0"},"264":{"id":"598","real_name":"AnaCapri","url_name":"anacapri","address":"Via Clemente Maraini","zip":"6900","city":"Lugano","gaultmillau":"","latitude":"46.0003","longitude":"8.94697","distance":"0"},"265":{"id":"1021","real_name":"Thai Restaurant Djaoprayah","url_name":"thai-restaurant-djaoprayah","address":"Reichsgasse 24","zip":"7000","city":"Chur","gaultmillau":"","latitude":"46.8511","longitude":"9.53364","distance":"0"},"266":{"id":"872","real_name":"Sommerau - Best Western","url_name":"sommerau-best-western","address":"Emserstrasse 4","zip":"7000","city":"Chur","gaultmillau":"","latitude":"46.8459","longitude":"9.50545","distance":"0"},"267":{"id":"921","real_name":"Klein-Waldegg","url_name":"klein-waldegg","address":"Bondastrasse 128","zip":"7000","city":"Chur","gaultmillau":"","latitude":"46.862","longitude":"9.54778","distance":"0"},"268":{"id":"906","real_name":"Zunfthaus zur Rebleuten","url_name":"zunfthaus-zur-rebleuten","address":"Pfisterplatz 1","zip":"7000","city":"Chur","gaultmillau":"12","latitude":"46.8485","longitude":"9.5311","distance":"0"},"269":{"id":"915","real_name":"Romantik Hotel Stern","url_name":"romantik-hotel-stern","address":"Reichsgasse 11","zip":"7000 ","city":"Chur","gaultmillau":"13","latitude":"46.8514","longitude":"9.53414","distance":"0"},"270":{"id":"946","real_name":"La Meridiana","url_name":"la-meridiana","address":"Kupergasse 11","zip":"7000","city":"Chur","gaultmillau":"","latitude":"46.8491","longitude":"9.53043","distance":"0"},"271":{"id":"991","real_name":"VA BENE","url_name":"vabene","address":"G\u00e4uggelistrasse 60","zip":"7000","city":"Chur","gaultmillau":"13","latitude":"46.8513","longitude":"9.52386","distance":"0"},"272":{"id":"1020","real_name":"Hofkellerei","url_name":"restaurant-hofkellerei","address":"Hof 1","zip":"7000","city":"Chur","gaultmillau":"","latitude":"46.8486","longitude":"9.53386","distance":"0"},"273":{"id":"1177","real_name":"Old Town","url_name":"restaurant-old-town","address":"Scharfrichtergasse 3","zip":"7000","city":"Chur","gaultmillau":"","latitude":"46.8514","longitude":"9.53369","distance":"0"},"274":{"id":"1196","real_name":"Falken","url_name":"falken-chur","address":"Martinsplatz 9","zip":"7000","city":"Chur","gaultmillau":"","latitude":"46.8483","longitude":"9.53279","distance":"0"},"275":{"id":"1222","real_name":"Rheinfels","url_name":"rheinfels","address":"Rasch\u00e4renstrasse 38","zip":"7000","city":"Chur","gaultmillau":"","latitude":"46.8504","longitude":"9.51082","distance":"0"},"276":{"id":"999","real_name":"Orelli - Sorell Hotel","url_name":"restaurant-orelli","address":"Poststrasse","zip":"7050","city":"Arosa","gaultmillau":"","latitude":"46.7774","longitude":"9.67346","distance":"0"},"277":{"id":"896","real_name":"Weiss Kreuz","url_name":"weiss-kreuz-malans","address":"Dorfplatz 1","zip":"7208","city":"Malans","gaultmillau":"","latitude":"46.9825","longitude":"9.57608","distance":"0"},"278":{"id":"982","real_name":"Alpina - Hotel Restaurant Pizzeria","url_name":"alpina-hotel-restaurant-pizzeria","address":"Schrabachstrasse 95b","zip":"7220","city":"Schiers","gaultmillau":"","latitude":"46.966","longitude":"9.68951","distance":"0"},"279":{"id":"895","real_name":"Berggasthaus Post Schuders","url_name":"berggasthaus-post-schuders","address":"Post","zip":"7228","city":"Schuders","gaultmillau":"","latitude":"46.9912","longitude":"9.73714","distance":"0"},"280":{"id":"1183","real_name":"Madrisajoch","url_name":"madrisajoch","address":"Am Platz 42","zip":"7246","city":"St. Ant\u00f6nien","gaultmillau":"","latitude":"46.9697","longitude":"9.8142","distance":"0"},"281":{"id":"1233","real_name":"Berghaus Suzfluh","url_name":"berghaus-suzfluh","address":"Partnun","zip":"7246","city":"St. Ant\u00f6nien","gaultmillau":"","latitude":"46.9954","longitude":"9.85838","distance":"0"},"282":{"id":"1234","real_name":"Alpenr\u00f6sli","url_name":"alpenrosli-st-antonien","address":".","zip":"7246","city":"St. Antonien","gaultmillau":"","latitude":"46.9984","longitude":"9.85806","distance":"0"},"283":{"id":"1184","real_name":"Old Jnn","url_name":"old-jnn","address":"Hauptstrasse 130","zip":"7247","city":"Saas im Pr\u00e4ttigau","gaultmillau":"","latitude":"46.91","longitude":"9.8104","distance":"0"},"284":{"id":"1136","real_name":"Hotel Steinbock","url_name":"hotel-steinbock","address":"Landstrasse 146","zip":"7250","city":"Klosters Platz","gaultmillau":"","latitude":"46.8717","longitude":"9.88074","distance":"0"},"285":{"id":"1137","real_name":"Alpenr\u00f6sli","url_name":"alpenrosli","address":"Talstrasse 135","zip":"7250","city":"Klosters","gaultmillau":"","latitude":"46.8788","longitude":"9.89511","distance":"0"},"286":{"id":"1166","real_name":"Rustico","url_name":"rustico","address":"Landstrasse 194","zip":"7250","city":"Klosters","gaultmillau":"","latitude":"46.8654","longitude":"9.88192","distance":"0"},"287":{"id":"1138","real_name":"Cafe Weber","url_name":"cafe-weber","address":"Promenade 148","zip":"7260","city":"Davos Dorf","gaultmillau":"","latitude":"46.8078","longitude":"9.83838","distance":"0"},"288":{"id":"1162","real_name":"Islen","url_name":"islen","address":"Br\u00fcche Friedhofstrasse 1","zip":"7270","city":"Davos Platz","gaultmillau":"","latitude":"46.7772","longitude":"9.80879","distance":"0"},"289":{"id":"1078","real_name":"Alpenhof Davos","url_name":"alpenhof-davos","address":"Hofstrasse 22","zip":"7270","city":"Davos-Platz","gaultmillau":"","latitude":"46.7824","longitude":"9.81396","distance":"0"},"290":{"id":"1161","real_name":"Giodavin","url_name":"restaurant-giodavin","address":"Obere Strasse 39","zip":"7270","city":"Davos Platz","gaultmillau":"","latitude":"46.796","longitude":"9.81914","distance":"0"},"291":{"id":"1231","real_name":"TIME-OUT","url_name":"time-out","address":"Talstrasse 41","zip":"7270","city":"Davos Platz","gaultmillau":"","latitude":"46.7976","longitude":"9.8273","distance":"0"},"292":{"id":"1232","real_name":"Grischa","url_name":"grischa","address":"Talstrasse 3","zip":"7270","city":"Davos Platz","gaultmillau":"","latitude":"46.7922","longitude":"9.82036","distance":"0"},"293":{"id":"1235","real_name":"Bolgen Plaza","url_name":"bolgen-plaza","address":"Skistrasse 26","zip":"7270","city":"Davos Platz","gaultmillau":"","latitude":"46.7958","longitude":"9.82143","distance":"0"},"294":{"id":"1236","real_name":"Walserhuus","url_name":"walserhuus-sertig","address":"Sertigerstrasse","zip":"7272 ","city":"Davos Sertig ","gaultmillau":"","latitude":"46.7257","longitude":"8.50616","distance":"0"},"295":{"id":"1237","real_name":"Restaurant M\u00fchle","url_name":"restaurant-muhle","address":"Sertigerstrasse 8","zip":"7272 ","city":"Davos Sertig","gaultmillau":"","latitude":"46.761","longitude":"9.82504","distance":"0"},"296":{"id":"924","real_name":"Schloss Brandis","url_name":"schloss-brandis","address":"Schloss Brandis 2","zip":"7304","city":"Maienfeld","gaultmillau":"","latitude":"47.0067","longitude":"9.53115","distance":"0"},"297":{"id":"957","real_name":"M\u00fchle Fl\u00e4sch","url_name":"muhle-flasch","address":"M\u00fchle 99","zip":"7306","city":"Fl\u00e4sch","gaultmillau":"15","latitude":"47.0176","longitude":"9.50978","distance":"0"},"298":{"id":"992","real_name":"Adler","url_name":"adler","address":"Kreuzgasse 2","zip":"7306","city":"Fl\u00e4sch","gaultmillau":"","latitude":"47.0274","longitude":"9.5133","distance":"0"},"299":{"id":"977","real_name":"Sorell Hotel Tamina","url_name":"sorell-hotel-tamina","address":"Am Platz 3","zip":"7310","city":"Bad Ragaz","gaultmillau":"","latitude":"47.0082","longitude":"9.50118","distance":"0"},"300":{"id":"898","real_name":"Manora Sargans","url_name":"manora-sargans","address":"Grossfeldstrasse","zip":"7320","city":"Sargans","gaultmillau":"","latitude":"47.046","longitude":"9.43845","distance":"0"},"301":{"id":"1163","real_name":"Pizzeria Oberalp","url_name":"pizzeria-oberalp","address":"Obere Bahnhofstrasse 17","zip":"7402","city":"Bonaduz","gaultmillau":"","latitude":"46.8105","longitude":"9.3983","distance":"0"},"302":{"id":"1187","real_name":"Chasellas","url_name":"chasellas","address":"Via Suvretta 22","zip":"7500","city":"St.Moritz","gaultmillau":"15","latitude":"46.4951","longitude":"9.8362","distance":"0"},"303":{"id":"1130","real_name":"Pavarotti & Friends","url_name":"pavarotti-friends","address":"Plazza dal Mulin 3","zip":"7500","city":"St. Moritz","gaultmillau":"","latitude":"46.4989","longitude":"9.8394","distance":"0"},"304":{"id":"1129","real_name":"La Stalla Ristorante","url_name":"la-stalla-ristorante","address":"Plazza dal Mulin 2","zip":"7500","city":"St. Moritz","gaultmillau":"","latitude":"46.4989","longitude":"9.83998","distance":"0"},"305":{"id":"1099","real_name":"Hauser St. Moritz","url_name":"hauser-st-moritz","address":"Via Traunter Plazzas 7","zip":"7500","city":"St. Moritz","gaultmillau":"","latitude":"46.4958","longitude":"9.83615","distance":"0"},"306":{"id":"1100","real_name":"The Piz","url_name":"the-piz-st-moritz","address":"Via dal Bagn 6","zip":"7500","city":"St. Moritz","gaultmillau":"","latitude":"46.489","longitude":"9.83531","distance":"0"},"307":{"id":"1118","real_name":"Segelclub St. Moritz","url_name":"restaurant-segelclub-st-moritz","address":"Via Grevas 34","zip":"7500","city":"St. Moritz","gaultmillau":"","latitude":"46.4947","longitude":"9.83984","distance":"0"},"308":{"id":"1186","real_name":"Chamanna im Skigebiet Corviglia","url_name":"chamanna-im-skigebiet-corviglia","address":"Via Chasellas 1","zip":"7500","city":"St. Moritz","gaultmillau":"","latitude":"46.5025","longitude":"9.80172","distance":"0"},"309":{"id":"1188","real_name":"Trutz im Skigebiet Corviglia","url_name":"trutz-im-skigebiet-corviglia","address":"Via Chasellas 1","zip":"7500","city":"St.Moritz","gaultmillau":"","latitude":"46.4929","longitude":"9.81171","distance":"0"},"310":{"id":"1202","real_name":"Grissini im Hotel Crystal","url_name":"grissini-im-hotel-crystal","address":"Via Traunter Plazzas 1","zip":"7500","city":"St. Moritz","gaultmillau":"13","latitude":"46.4983","longitude":"9.83863","distance":"0"},"311":{"id":"1169","real_name":"La Padella im Hotel Donatz","url_name":"donatz","address":"Plazzet 15","zip":"7503","city":"Samedan","gaultmillau":"","latitude":"46.5354","longitude":"9.87182","distance":"0"},"312":{"id":"1176","real_name":"Romantik Hotel Muottas Muragl","url_name":"muottas-muragl","address":"Samedan","zip":"7503","city":"Samedan","gaultmillau":"","latitude":"46.5217","longitude":"9.90187","distance":"0"},"313":{"id":"1193","real_name":"Piemont im Hotel Schweizerhof","url_name":"piemont-im-hotel-schweizerhof","address":"Via Maistra 175","zip":"7504","city":"Pontresina","gaultmillau":"","latitude":"46.4905","longitude":"9.90538","distance":"0"},"314":{"id":"1209","real_name":"B\u00fcndnerst\u00fcbli","url_name":"bundnerstubli","address":"Via Maistra 157","zip":"7504","city":"Pontresina","gaultmillau":"13","latitude":"46.4917","longitude":"9.90402","distance":"0"},"315":{"id":"1212","real_name":"St\u00fcva im Hotel M\u00fcller","url_name":"stuva-im-hotel-muller","address":"Via Maistra 202","zip":"7504","city":"Pontresina","gaultmillau":"","latitude":"46.4898","longitude":"9.90551","distance":"0"},"316":{"id":"1175","real_name":"St\u00fcvetta im Skigebiet Corviglia","url_name":"stuvetta-im-skigebiet","address":"Skigebiet Corviglia","zip":"7505","city":"Celerina","gaultmillau":"","latitude":"46.5165","longitude":"9.82395","distance":"0"},"317":{"id":"1197","real_name":"St\u00fcva im Hotel Crusch Alva","url_name":"stuva-im-hotel-crusch-alva","address":"Via Maistra 26","zip":"7524","city":"Zuoz","gaultmillau":"","latitude":"46.6018","longitude":"9.95958","distance":"0"},"318":{"id":"1198","real_name":"Engiadina im Hotel Engiadina","url_name":"engiadina-im-hotel-engiadina","address":"San Bastiaun 13","zip":"7524","city":"Zuoz","gaultmillau":"14","latitude":"46.6008","longitude":"9.95922","distance":"0"},"319":{"id":"1199","real_name":"Chamanna im Hotel Engiadina","url_name":"chamanna-im-hotel-engiadina","address":"San Bastiaun 13","zip":"7524","city":"Zuoz","gaultmillau":"","latitude":"46.6009","longitude":"9.95933","distance":"0"},"320":{"id":"1200","real_name":"Cruschetta im Hotel Crusch Alva","url_name":"cruschetta-im-hotel-crusch-alva","address":"Via Maistra 26","zip":"7524","city":"Zuoz","gaultmillau":"","latitude":"46.6019","longitude":"9.9595","distance":"0"},"321":{"id":"987","real_name":"Caf\u00e9 Ernst","url_name":"cafe-ernst","address":"Bahnhofstrasse 61","zip":"8001","city":"Z\u00fcrich","gaultmillau":"","latitude":"47.3733","longitude":"8.538","distance":"0"},"322":{"id":"41","real_name":"Zunfthaus zur Waag","url_name":"zunfthaus-zur-waag","address":"M\u00fcnsterhof 8","zip":"8001","city":"Z\u00fcrich","gaultmillau":"","latitude":"47.3702","longitude":"8.54048","distance":"0"},"323":{"id":"42","real_name":"Carlton ","url_name":"carlton","address":"Bahnhofstrasse 41","zip":"8001","city":"Z\u00fcrich","gaultmillau":"14","latitude":"47.3715","longitude":"8.53778","distance":"0"},"324":{"id":"49","real_name":"Lunch-Schiff","url_name":"lunch-schiff","address":"B\u00fcrkliplatz","zip":"8001","city":"Z\u00fcrich","gaultmillau":"","latitude":"47.3658","longitude":"8.54144","distance":"0"},"325":{"id":"54","real_name":"Old Fashion Bar","url_name":"old-fashion-bar","address":"Fraum\u00fcnsterstrasse 15","zip":"8001","city":"Z\u00fcrich","gaultmillau":"","latitude":"47.3687","longitude":"8.54072","distance":"0"},"326":{"id":"468","real_name":"R\u00f6ssli Bar","url_name":"rossli-bar","address":"R\u00f6ssligasse 7","zip":"8001","city":"Z\u00fcrich","gaultmillau":"","latitude":"47.3693","longitude":"8.54443","distance":"0"},"327":{"id":"69","real_name":"Movie","url_name":"movie","address":"Beatenplatz 4","zip":"8001","city":"Z\u00fcrich","gaultmillau":"","latitude":"47.3762","longitude":"8.54129","distance":"0"},"328":{"id":"73","real_name":"Florhof","url_name":"florhof","address":"Florhofgasse 4","zip":"8001","city":"Z\u00fcrich","gaultmillau":"14","latitude":"47.3723","longitude":"8.54874","distance":"0"},"329":{"id":"75","real_name":"Zum Gr\u00fcnen Glas","url_name":"zum-grunen-glas","address":"Untere Z\u00e4une 15","zip":"8001","city":"Z\u00fcrich","gaultmillau":"","latitude":"47.3715","longitude":"8.54575","distance":"0"},"330":{"id":"78","real_name":"Caf\u00e9 Kr\u00e4nzlin","url_name":"cafe-kranzlin","address":"Sch\u00fctzengasse 16","zip":"8001","city":"Z\u00fcrich","gaultmillau":"","latitude":"47.3765","longitude":"8.53942","distance":"0"},"331":{"id":"80","real_name":"0815","url_name":"0815-lintheschergasse","address":"Lintheschergasse 23","zip":"8001","city":"Z\u00fcrich","gaultmillau":"","latitude":"47.377","longitude":"8.53872","distance":"0"},"332":{"id":"580","real_name":"TimeOut - Hotel St.Josef","url_name":"timeout-hotel-stjosef","address":"Hirschengraben 64","zip":"8001","city":"Z\u00fcrich","gaultmillau":"","latitude":"47.3754","longitude":"8.54585","distance":"0"},"333":{"id":"90","real_name":"Storchen Z\u00fcrich","url_name":"hotel-zum-storchen","address":"Weinplatz 2","zip":"8001","city":"Z\u00fcrich","gaultmillau":"","latitude":"47.3712","longitude":"8.54172","distance":"0"},"334":{"id":"91","real_name":"Urania Tapasbar & Restaurant","url_name":"urania-tapasbar-restaurant","address":"Uraniastrasse 7","zip":"8001","city":"Z\u00fcrich","gaultmillau":"","latitude":"47.3743","longitude":"8.54008","distance":"0"},"335":{"id":"179","real_name":"Mishio Stadelhofen","url_name":"mishio-stadelhofen","address":"Stadelhoferstrasse 10","zip":"8001","city":"Z\u00fcrich","gaultmillau":"","latitude":"47.3666","longitude":"8.54786","distance":"0"},"336":{"id":"97","real_name":"Mishio Bahnhofstrasse","url_name":"mishio-bahnhofstrasse","address":"Sihlstrasse 9","zip":"8001","city":"Z\u00fcrich","gaultmillau":"","latitude":"47.3737","longitude":"8.5373","distance":"0"},"337":{"id":"106","real_name":"Heug\u00fcmper","url_name":"heugumper","address":"Waaggasse 4","zip":"8001","city":"Z\u00fcrich","gaultmillau":"13","latitude":"47.3702","longitude":"8.54008","distance":"0"},"338":{"id":"124","real_name":"Weisser Wind - Zunfthaus","url_name":"weisser-wind-zunfthaus","address":"Oberdorfstrasse 20","zip":"8001","city":"Z\u00fcrich","gaultmillau":"","latitude":"47.3686","longitude":"8.54573","distance":"0"},"339":{"id":"129","real_name":"Talacker 41","url_name":"talacker-41","address":"Talacker 41","zip":"8001","city":"Z\u00fcrich","gaultmillau":"","latitude":"47.372","longitude":"8.53482","distance":"0"},"340":{"id":"185","real_name":"Jelmoli RestaurantBar","url_name":"jelmoli-restaurantbar","address":"Seidengasse 1","zip":"8001","city":"Z\u00fcrich","gaultmillau":"","latitude":"47.3742","longitude":"8.53766","distance":"0"},"341":{"id":"193","real_name":"B\u00e4rengasse","url_name":"barengasse","address":"Bahnhofstrasse 25","zip":"8001","city":"Z\u00fcrich","gaultmillau":"13","latitude":"47.3706","longitude":"8.53856","distance":"0"},"342":{"id":"215","real_name":"Le D\u00e9zaley","url_name":"le-dezaley","address":"R\u00f6mergasse 7+9","zip":"8001","city":"Z\u00fcrich","gaultmillau":"","latitude":"47.3706","longitude":"8.54378","distance":"0"},"343":{"id":"407","real_name":"Widder Restaurant by Alexander Kroll","url_name":"widder-by-alexander-kroll","address":"Rennweg 7","zip":"8001","city":"Z\u00fcrich","gaultmillau":"15","latitude":"47.3725","longitude":"8.53977","distance":"0"},"344":{"id":"474","real_name":"Barf\u00fcsser","url_name":"barfusser","address":"Spitalgasse 14","zip":"8001","city":"Z\u00fcrich","gaultmillau":"","latitude":"47.3709","longitude":"8.53921","distance":"0"},"345":{"id":"456","real_name":"Hummer- & Austerbar","url_name":"hummer-austerbar","address":"Bahnhofstrasse 87","zip":"8001","city":"Z\u00fcrich","gaultmillau":"","latitude":"47.3764","longitude":"8.539","distance":"0"},"346":{"id":"436","real_name":"Rio Bar","url_name":"rio-bar","address":"Gessnerallee 17","zip":"8001","city":"Z\u00fcrich","gaultmillau":"","latitude":"47.3763","longitude":"8.53581","distance":"0"},"347":{"id":"444","real_name":"Reithalle","url_name":"reithalle","address":"Gessnerallee 8","zip":"8001","city":"Z\u00fcrich","gaultmillau":"","latitude":"47.3748","longitude":"8.53471","distance":"0"},"348":{"id":"453","real_name":"Schlauch","url_name":"schlauch","address":"M\u00fcnstergasse 20","zip":"8001","city":"Z\u00fcrich","gaultmillau":"","latitude":"47.3713","longitude":"8.54433","distance":"0"},"349":{"id":"454","real_name":"Ristorante Toscano","url_name":"ristorante-toscano","address":"Schmidgasse 3","zip":"8001","city":"Z\u00fcrich","gaultmillau":"","latitude":"47.3748","longitude":"8.54355","distance":"0"},"350":{"id":"469","real_name":"Oepfelchammer","url_name":"oepfelchammer","address":"Rindermarkt 12","zip":"8001","city":"Z\u00fcrich","gaultmillau":"","latitude":"47.3725","longitude":"8.54456","distance":"0"},"351":{"id":"460","real_name":"Ban Song Thai","url_name":"ban-song","address":"Kirchgasse 6","zip":"8001","city":"Z\u00fcrich","gaultmillau":"","latitude":"47.3694","longitude":"8.54422","distance":"0"},"352":{"id":"461","real_name":"Sein","url_name":"sein","address":"Sch\u00fctzengasse 5","zip":"8001","city":"Z\u00fcrich","gaultmillau":"17","latitude":"47.3762","longitude":"8.54015","distance":"0"},"353":{"id":"462","real_name":"Bodega Espa\u00f1ola","url_name":"bodega-espantildeola","address":"M\u00fcnstergasse 15","zip":"8001","city":"Z\u00fcrich","gaultmillau":"","latitude":"47.3712","longitude":"8.54413","distance":"0"},"354":{"id":"465","real_name":"Au Gratin","url_name":"au-gratin","address":"Bahnhofplatz 2","zip":"8001","city":"Z\u00fcrich","gaultmillau":"","latitude":"47.3768","longitude":"8.54082","distance":"0"},"355":{"id":"464","real_name":"Zunfthaus zur Saffran","url_name":"zunfthaus-zur-saffran","address":"Limmatquai 54","zip":"8001","city":"Z\u00fcrich","gaultmillau":"","latitude":"47.3715","longitude":"8.5431","distance":"0"},"356":{"id":"466","real_name":"Caf\u00e9 Neum\u00e4rt","url_name":"cafe-neumart","address":"Neumarkt 28","zip":"8001","city":"Z\u00fcrich","gaultmillau":"","latitude":"47.3729","longitude":"8.54664","distance":"0"},"357":{"id":"467","real_name":"Walliser Keller","url_name":"walliser-keller","address":"Z\u00e4hringerstrasse 21","zip":"8001","city":"Z\u00fcrich","gaultmillau":"","latitude":"47.375","longitude":"8.54444","distance":"0"},"358":{"id":"470","real_name":"Marion","url_name":"marion","address":"M\u00fchlegasse 22","zip":"8001","city":"Z\u00fcrich","gaultmillau":"","latitude":"47.374","longitude":"8.54441","distance":"0"},"359":{"id":"479","real_name":"Zum Gelben Schnabel","url_name":"zum-gelben-schnabel","address":"Zinnengasse 7 - 9","zip":"8001","city":"Z\u00fcrich","gaultmillau":"","latitude":"47.3705","longitude":"8.54137","distance":"0"},"360":{"id":"481","real_name":"Zum Kropf","url_name":"zum-kropf","address":"In Gassen 16","zip":"8001","city":"Z\u00fcrich","gaultmillau":"","latitude":"47.3707","longitude":"8.5402","distance":"0"},"361":{"id":"483","real_name":"Griederbar","url_name":"griederbar","address":"Bahnhofstrasse 30","zip":"8001","city":"Z\u00fcrich","gaultmillau":"","latitude":"47.3704","longitude":"8.53951","distance":"0"},"362":{"id":"484","real_name":"Coco","url_name":"coco","address":"Bleicherweg 1a","zip":"8001","city":"Z\u00fcrich","gaultmillau":"","latitude":"47.3691","longitude":"8.53835","distance":"0"},"363":{"id":"485","real_name":"Caf\u00e9 Schober","url_name":"cafe-schober","address":"Napfgasse 4","zip":"8001","city":"Z\u00fcrich","gaultmillau":"","latitude":"47.3715","longitude":"8.54428","distance":"0"},"364":{"id":"525","real_name":"B\u00fc's Bar & Restaurant","url_name":"bus-bar-restaurant","address":"Kuttelgasse 15","zip":"8001","city":"Z\u00fcrich","gaultmillau":"","latitude":"47.3727","longitude":"8.53875","distance":"0"},"365":{"id":"496","real_name":"Churrasco Grill Restaurant","url_name":"churrasco-grill-restaurant","address":"Glockengasse 9","zip":"8001","city":"Z\u00fcrich","gaultmillau":"","latitude":"47.3719","longitude":"8.54025","distance":"0"},"366":{"id":"499","real_name":"La Piazzetta","url_name":"la-piazzetta-zurich","address":"Pelikanstrasse 37","zip":"8001","city":"Z\u00fcrich","gaultmillau":"","latitude":"47.3709","longitude":"8.53563","distance":"0"},"367":{"id":"500","real_name":"Zunfthaus zur Haue","url_name":"zunfthaus-zur-haue","address":"Limmatquai 52","zip":"8001","city":"Z\u00fcrich","gaultmillau":"","latitude":"47.3714","longitude":"8.54314","distance":"0"},"368":{"id":"507","real_name":"Zum Grobe Ernst","url_name":"zum-grobe-ernst","address":"St\u00fcssihofstatt 16","zip":"8001","city":"Z\u00fcrich","gaultmillau":"","latitude":"47.3725","longitude":"8.5433","distance":"0"},"369":{"id":"508","real_name":"Caf\u00e9 Felix","url_name":"cafe-felix","address":"Bellevueplatz 5","zip":"8001","city":"Z\u00fcrich","gaultmillau":"","latitude":"47.3675","longitude":"8.5447","distance":"0"},"370":{"id":"513","real_name":"Blockhus","url_name":"blockhus","address":"Schiffl\u00e4ndi 4 \/ Kruggasse 2","zip":"8001","city":"Z\u00fcrich","gaultmillau":"","latitude":"47.3682","longitude":"8.5452","distance":"0"},"371":{"id":"520","real_name":"Ojo de Agua","url_name":"ojo-de-agua","address":"Oetenbachgasse 13","zip":"8001","city":"Z\u00fcrich","gaultmillau":"","latitude":"47.3738","longitude":"8.53947","distance":"0"},"372":{"id":"534","real_name":"Taverna Catalana","url_name":"taverna-catalana","address":"Glockengasse 8","zip":"8001","city":"Z\u00fcrich","gaultmillau":"","latitude":"47.3721","longitude":"8.54041","distance":"0"},"373":{"id":"537","real_name":"Pizza Pasta Ciao","url_name":"pizza-pasta-ciao","address":"Weinbergstrasse 26","zip":"8001","city":"Z\u00fcrich","gaultmillau":"","latitude":"47.3789","longitude":"8.54448","distance":"0"},"374":{"id":"551","real_name":"WINGS Airline Bar & Lounge","url_name":"wings-airline-bar-lounge","address":"Limmatquai 54","zip":"8001","city":"Z\u00fcrich","gaultmillau":"","latitude":"47.3709","longitude":"8.53921","distance":"0"},"375":{"id":"552","real_name":"R\u00fcden Bar","url_name":"ruden-bar","address":"Limmatquai 42","zip":"8001","city":"Z\u00fcrich","gaultmillau":"","latitude":"47.3709","longitude":"8.54314","distance":"0"},"376":{"id":"571","real_name":"Gran Caf\u00e9 Motta","url_name":"gran-cafe-motta","address":"Limmatquai 66","zip":"8001","city":"Z\u00fcrich","gaultmillau":"","latitude":"47.3724","longitude":"8.54298","distance":"0"},"377":{"id":"637","real_name":"Regenbogen - Six Bar","url_name":"regenbogen-six-bar","address":"Rosengasse 6","zip":"8001","city":"Z\u00fcrich","gaultmillau":"","latitude":"47.3731","longitude":"8.5432","distance":"0"},"378":{"id":"655","real_name":"Corazon","url_name":"corazon","address":"Z\u00e4hringerplatz 11","zip":"8001","city":"Z\u00fcrich","gaultmillau":"","latitude":"47.3735","longitude":"8.54482","distance":"0"},"379":{"id":"667","real_name":"St. Peter","url_name":"st-peter","address":"In Gassen 10","zip":"8001","city":"Z\u00fcrich","gaultmillau":"","latitude":"47.3708","longitude":"8.54049","distance":"0"},"380":{"id":"668","real_name":"Caf\u00e9 & Take-Away Schurter","url_name":"cafe-take-away-schurter","address":"Niederdorfstrasse 90","zip":"8001","city":"Z\u00fcrich","gaultmillau":"","latitude":"47.3763","longitude":"8.54398","distance":"0"},"381":{"id":"744","real_name":"Mohrenkopf Caf\u00e9 Restaurant","url_name":"mohrenkopf-cafe-restaurant","address":"Niederdorfstrasse 31","zip":"8001","city":"Z\u00fcrich","gaultmillau":"","latitude":"47.3746","longitude":"8.54371","distance":"0"},"382":{"id":"684","real_name":"Winter-Traumschiffe","url_name":"winter-traumschiffe","address":"B\u00fcrkliplatz","zip":"8001","city":"Z\u00fcrich","gaultmillau":"","latitude":"47.3659","longitude":"8.53981","distance":"0"},"383":{"id":"702","real_name":"Zunfthaus zur Meisen","url_name":"zunfthaus-zur-meisen","address":"M\u00fcnsterhof 20","zip":"8001 ","city":"Z\u00fcrich","gaultmillau":"","latitude":"47.37","longitude":"8.5417","distance":"0"},"384":{"id":"738","real_name":"Turm","url_name":"turm","address":"Obere Z\u00e4une 19","zip":"8001","city":"Z\u00fcrich","gaultmillau":"","latitude":"47.3716","longitude":"8.54476","distance":"0"},"385":{"id":"741","real_name":"Mexikano","url_name":"mexikano","address":"Niederdorfstrasse 13","zip":"8001","city":"Z\u00fcrich","gaultmillau":"","latitude":"47.3734","longitude":"8.54356","distance":"0"},"386":{"id":"776","real_name":"La Pasta","url_name":"la-pasta","address":"Niederdorfstrasse 80","zip":"8001","city":"Z\u00fcrich","gaultmillau":"","latitude":"47.376","longitude":"8.54409","distance":"0"},"387":{"id":"777","real_name":"Valentino Italienische Spezialit\u00e4ten","url_name":"valentino-spezialitaten-shop","address":"L\u00e4den Shop Ville","zip":"8001","city":"Z\u00fcrich","gaultmillau":"","latitude":"47.3782","longitude":"8.54019","distance":"0"},"388":{"id":"1170","real_name":"Brasserie Louis","url_name":"brasserie-louis","address":"Niederdorfstrasse 10","zip":"8001","city":"Z\u00fcrich","gaultmillau":"","latitude":"47.3731","longitude":"8.54379","distance":"0"},"389":{"id":"798","real_name":"Caf\u00e9 Central Bar - Central Plaza","url_name":"cafe-central-bar","address":"Central 1","zip":"8001","city":"Z\u00fcrich","gaultmillau":"","latitude":"47.377","longitude":"8.54359","distance":"0"},"390":{"id":"799","real_name":"King`s Cave Grillrestaurant - Central Plaza","url_name":"kings-cave-central-plaza","address":"Central 1","zip":"8001 ","city":"Z\u00fcrich","gaultmillau":"","latitude":"47.3772","longitude":"8.54372","distance":"0"},"391":{"id":"815","real_name":"Picnic","url_name":"picnic","address":"Bahnhofstrasse 52","zip":"8001","city":"Z\u00fcrich","gaultmillau":"","latitude":"47.3728","longitude":"8.53846","distance":"0"},"392":{"id":"827","real_name":"B\u00e4ckerei Buchmann Rennweg","url_name":"backerei-buchmann-rennweg","address":"Rennweg 1","zip":"8001","city":"Z\u00fcrich","gaultmillau":"","latitude":"47.3723","longitude":"8.53994","distance":"0"},"393":{"id":"828","real_name":"B\u00e4ckerei Buchmann Shopville","url_name":"backerei-buchmann-shopville","address":"Shopville","zip":"8001","city":"Z\u00fcrich","gaultmillau":"","latitude":"47.3709","longitude":"8.53921","distance":"0"},"394":{"id":"847","real_name":"Globus Restaurant Z\u00fcrich","url_name":"globus-restaurant-zurich","address":"Schweizergasse 11","zip":"8001","city":"Z\u00fcrich","gaultmillau":"","latitude":"47.3759","longitude":"8.53799","distance":"0"},"395":{"id":"958","real_name":"Papa Joe's Z\u00fcrich","url_name":"papa-joes-zurich","address":"Schiffl\u00e4nde 18","zip":"8001","city":"Z\u00fcrich","gaultmillau":"","latitude":"47.3709","longitude":"8.53921","distance":"0"},"396":{"id":"949","real_name":"Bierhalle Wolf","url_name":"bierhalle-wolf","address":"Limmatquai 132","zip":"8001","city":"Z\u00fcrich","gaultmillau":"","latitude":"47.3758","longitude":"8.5437","distance":"0"},"397":{"id":"951","real_name":"Big Ben Pub","url_name":"big-ben-pub","address":"Niederdorfstrasse 52","zip":"8001","city":"Z\u00fcrich","gaultmillau":"","latitude":"47.3751","longitude":"8.54393","distance":"0"},"398":{"id":"953","real_name":"Gr\u00e4bli Bar","url_name":"grabli-bar","address":"Niederdorfstrasse 66","zip":"8001","city":"Z\u00fcrich","gaultmillau":"","latitude":"47.3756","longitude":"8.54411","distance":"0"},"399":{"id":"955","real_name":"N-68","url_name":"n-68","address":"Niederdorfstrasse 68","zip":"8001","city":"Z\u00fcrich","gaultmillau":"","latitude":"47.3756","longitude":"8.54409","distance":"0"},"400":{"id":"1073","real_name":"Platzhirsch","url_name":"platzhirsch","address":"Spitalgasse 3","zip":"8001","city":"Z\u00fcrich","gaultmillau":"","latitude":"47.3735","longitude":"8.54426","distance":"0"},"401":{"id":"1157","real_name":"Yooji`s Bellevue","url_name":"yoojis-bellevue","address":"St. Urbangasse 8","zip":"8001","city":"Z\u00fcrich","gaultmillau":"","latitude":"47.3672","longitude":"8.54648","distance":"0"},"402":{"id":"1189","real_name":"Veltlinerkeller","url_name":"veltlinerkeller","address":"Schl\u00fcsselgasse 8","zip":"8001","city":"Z\u00fcrich","gaultmillau":"","latitude":"47.3709","longitude":"8.54119","distance":"0"},"403":{"id":"1223","real_name":"Hausbar","url_name":"hausbar","address":"Schweizergasse 8","zip":"8001 ","city":"Z\u00fcrich","gaultmillau":"","latitude":"47.3761","longitude":"8.53827","distance":"0"},"404":{"id":"239","real_name":"Tifo","url_name":"tifo","address":"General Wille Str. 18","zip":"8002 ","city":"Z\u00fcrich","gaultmillau":"","latitude":"47.3638","longitude":"8.53257","distance":"0"},"405":{"id":"51","real_name":"Tandoori BBQ","url_name":"tandoori-bbq","address":"Bleicherweg 19","zip":"8002","city":"Z\u00fcrich","gaultmillau":"","latitude":"47.3678","longitude":"8.53571","distance":"0"},"406":{"id":"55","real_name":"Bederhof","url_name":"bederhof","address":"Brandschenkestrasse 177","zip":"8002","city":"Z\u00fcrich","gaultmillau":"","latitude":"47.3625","longitude":"8.5266","distance":"0"},"407":{"id":"76","real_name":"Brasserie","url_name":"brasserie","address":"Beethovenstrasse 2","zip":"8002","city":"Z\u00fcrich","gaultmillau":"","latitude":"47.3654","longitude":"8.53823","distance":"0"},"408":{"id":"77","real_name":"Intermezzo","url_name":"intermezzo","address":"Beethovenstrasse 2","zip":"8002","city":"Z\u00fcrich","gaultmillau":"","latitude":"47.3652","longitude":"8.53773","distance":"0"},"409":{"id":"206","real_name":"Le Jardin Suisse","url_name":"le-jardin-suisse","address":"Stockerstrasse 17","zip":"8002","city":"Z\u00fcrich","gaultmillau":"","latitude":"47.3655","longitude":"8.53592","distance":"0"},"410":{"id":"213","real_name":"Le Poisson","url_name":"le-poisson","address":"Claridenstrasse 30","zip":"8002","city":"Z\u00fcrich","gaultmillau":"","latitude":"47.3677","longitude":"8.53738","distance":"0"},"411":{"id":"353","real_name":"Orangerie im Hotel Engimatt","url_name":"orangerie-im-hotel-engimatt","address":"Engimattstrasse 14","zip":"8002","city":"Z\u00fcrich","gaultmillau":"","latitude":"47.3596","longitude":"8.52456","distance":"0"},"412":{"id":"354","real_name":"Restaurant ALDEN","url_name":"alden-hotel-splugenschloss","address":"Spl\u00fcgenstrasse 2","zip":"8002","city":"Z\u00fcrich","gaultmillau":"13","latitude":"47.3646","longitude":"8.53422","distance":"0"},"413":{"id":"356","real_name":"Turf Bar","url_name":"turf-bar","address":"Tessinerplatz 9","zip":"8002","city":"Z\u00fcrich","gaultmillau":"","latitude":"47.3639","longitude":"8.53224","distance":"0"},"414":{"id":"509","real_name":"Don Leone II","url_name":"don-leone-2","address":"Waffenplatzstrasse  15","zip":"8002","city":"Z\u00fcrich","gaultmillau":"","latitude":"47.3612","longitude":"8.52672","distance":"0"},"415":{"id":"504","real_name":"Brunegg","url_name":"brunegg","address":"Brunaustrasse 61","zip":"8002","city":"Z\u00fcrich","gaultmillau":"","latitude":"47.3546","longitude":"8.52664","distance":"0"},"416":{"id":"567","real_name":"Rietberg","url_name":"rietberg","address":"Waffenplatzstrasse 63","zip":"8002","city":"Z\u00fcrich","gaultmillau":"","latitude":"47.3583","longitude":"8.52718","distance":"0"},"417":{"id":"575","real_name":"Bar Nocciolina","url_name":"bar-nocciolina","address":"Bleicherweg 18","zip":"8002","city":"Z\u00fcrich","gaultmillau":"","latitude":"47.3684","longitude":"8.53645","distance":"0"},"418":{"id":"735","real_name":"Acqua Z\u00fcrich","url_name":"acqua-zurich","address":"Mythenquai 61","zip":"8002","city":"Z\u00fcrich","gaultmillau":"","latitude":"47.3588","longitude":"8.53697","distance":"0"},"419":{"id":"747","real_name":"Juan Costa am Bleicherweg","url_name":"juan-costa-am-bleicherweg","address":"Bleicherweg 47","zip":"8002","city":"Z\u00fcrich","gaultmillau":"","latitude":"47.3658","longitude":"8.53258","distance":"0"},"420":{"id":"748","real_name":"Juan Costa am H\u00fcrlimannplatz","url_name":"juan-costa-am-hurlimannplatz","address":"Brandschenkestrasse 130","zip":"8002","city":"Z\u00fcrich","gaultmillau":"","latitude":"47.3647","longitude":"8.52555","distance":"0"},"421":{"id":"813","real_name":"Goodman","url_name":"goodman","address":"Brandschenkestrasse 20","zip":"8002","city":"Z\u00fcrich","gaultmillau":"","latitude":"47.3694","longitude":"8.53253","distance":"0"},"422":{"id":"819","real_name":"San Marco","url_name":"san-marco-zurich","address":"General-Wille-Strasse 21","zip":"8002","city":"Z\u00fcrich","gaultmillau":"","latitude":"47.3635","longitude":"8.53236","distance":"0"},"423":{"id":"890","real_name":"Restaurant Ascot","url_name":"restaurant-ascot","address":"Tessinerplatz 9","zip":"8002","city":"Z\u00fcrich","gaultmillau":"","latitude":"47.3639","longitude":"8.53224","distance":"0"},"424":{"id":"891","real_name":"Fujiya of Japan","url_name":"fujiya-of-japan","address":"Tessinerplatz 5","zip":"8002","city":"Z\u00fcrich","gaultmillau":"","latitude":"47.3644","longitude":"8.53213","distance":"0"},"425":{"id":"64","real_name":"Desperado","url_name":"desperado-wiedikon","address":"Birmensdorferstrasse 129","zip":"8003","city":"Z\u00fcrich","gaultmillau":"","latitude":"47.3698","longitude":"8.52077","distance":"0"},"426":{"id":"43","real_name":"Jdaburg","url_name":"jdaburg","address":"Gertrudstrasse 44","zip":"8003","city":"Z\u00fcrich","gaultmillau":"","latitude":"47.3734","longitude":"8.51479","distance":"0"},"427":{"id":"46","real_name":"Falcone","url_name":"falcone","address":"Birmensdorferstrasse 150","zip":"8003","city":"Z\u00fcrich","gaultmillau":"","latitude":"47.3702","longitude":"8.51948","distance":"0"},"428":{"id":"66","real_name":"Delmonico","url_name":"delmonico","address":"Hopfenstrasse 19","zip":"8003","city":"Z\u00fcrich","gaultmillau":"13","latitude":"47.3651","longitude":"8.52001","distance":"0"},"429":{"id":"389","real_name":"Da Michelangelo","url_name":"da-michelangelo","address":"Gertrudstrasse 37","zip":"8003","city":"Z\u00fcrich","gaultmillau":"","latitude":"47.3734","longitude":"8.5153","distance":"0"},"430":{"id":"540","real_name":"Taverne da Angelo","url_name":"taverne-da-angelo","address":"Badenerstrasse 275","zip":"8003","city":"Z\u00fcrich","gaultmillau":"","latitude":"47.3761","longitude":"8.51471","distance":"0"},"431":{"id":"430","real_name":"Cafe Uetli","url_name":"cafe-uetli","address":"Kalkbreitestrasse 134","zip":"8003","city":"Z\u00fcrich","gaultmillau":"","latitude":"47.3706","longitude":"8.51394","distance":"0"},"432":{"id":"448","real_name":"Kulturmarkt","url_name":"kulturmarkt","address":"Aemtlerstrasse 23","zip":"8003","city":"Z\u00fcrich","gaultmillau":"","latitude":"47.3718","longitude":"8.51539","distance":"0"},"433":{"id":"452","real_name":"Pl\u00fcsch - Caf\u00e9 Bar","url_name":"plusch","address":"Aemtlerstrasse 16","zip":"8003","city":"Z\u00fcrich","gaultmillau":"","latitude":"47.3713","longitude":"8.51636","distance":"0"},"434":{"id":"523","real_name":"Zentraleck","url_name":"zentraleck","address":"Zentralstrasse 161","zip":"8003","city":"Z\u00fcrich","gaultmillau":"","latitude":"47.3759","longitude":"8.51418","distance":"0"},"435":{"id":"544","real_name":"Chez Brigitte","url_name":"chez-brigitte","address":"Sihlfeldstrasse 45","zip":"8003","city":"Z\u00fcrich","gaultmillau":"","latitude":"47.3746","longitude":"8.51676","distance":"0"},"436":{"id":"851","real_name":"Bottega Berta","url_name":"bottega-berta","address":"Bertastrasse 36","zip":"8003","city":"Z\u00fcrich","gaultmillau":"","latitude":"47.3741","longitude":"8.51355","distance":"0"},"437":{"id":"47","real_name":"New Point","url_name":"new-point","address":"Kasernenstrasse 77a","zip":"8004","city":"Z\u00fcrich","gaultmillau":"","latitude":"47.3758","longitude":"8.53535","distance":"0"},"438":{"id":"72","real_name":"Hermanseck","url_name":"hermanseck","address":"Birmensdorferstrasse 58","zip":"8004","city":"Z\u00fcrich","gaultmillau":"","latitude":"47.3717","longitude":"8.52488","distance":"0"},"439":{"id":"120","real_name":"Da Teresa Onkel Toms H\u00fctte","url_name":"da-teresa-onkel-toms-hutte","address":"Rotwandstrasse 42","zip":"8004","city":"Z\u00fcrich","gaultmillau":"","latitude":"47.3752","longitude":"8.5284","distance":"0"},"440":{"id":"108","real_name":"Exer","url_name":"exer","address":"Tellstr. 10","zip":"8004","city":"Z\u00fcrich","gaultmillau":"","latitude":"47.3783","longitude":"8.52857","distance":"0"},"441":{"id":"155","real_name":"Camino","url_name":"camino","address":"Freisch\u00fctzgasse 4","zip":"8004","city":"Z\u00fcrich","gaultmillau":"","latitude":"47.377","longitude":"8.53277","distance":"0"},"442":{"id":"190","real_name":"Volkshaus","url_name":"volkshaus","address":"Stauffacherstrasse 60","zip":"8004","city":"Z\u00fcrich","gaultmillau":"","latitude":"47.3755","longitude":"8.52722","distance":"0"},"443":{"id":"390","real_name":"Emilio","url_name":"emilio","address":"Zweierstrasse 9","zip":"8004","city":"Z\u00fcrich","gaultmillau":"","latitude":"47.373","longitude":"8.52715","distance":"0"},"444":{"id":"266","real_name":"Rossi","url_name":"rossi","address":"Sihlhallenstrasse 3","zip":"8004","city":"Z\u00fcrich","gaultmillau":"","latitude":"47.3795","longitude":"8.5272","distance":"0"},"445":{"id":"315","real_name":"Leo's Bistro","url_name":"leos-bistro","address":"Birmensdorferstrasse 5","zip":"8004","city":"Z\u00fcrich","gaultmillau":"","latitude":"47.3729","longitude":"8.52768","distance":"0"},"446":{"id":"359","real_name":"Pflug","url_name":"pflug","address":"Brauerstrasse 74","zip":"8004","city":"Z\u00fcrich","gaultmillau":"","latitude":"47.3791","longitude":"8.52491","distance":"0"},"447":{"id":"539","real_name":"Caf\u00e9 Boy","url_name":"cafe-boy","address":"Kochstrasse 2","zip":"8004","city":"Z\u00fcrich","gaultmillau":"","latitude":"47.3779","longitude":"8.51591","distance":"0"},"448":{"id":"422","real_name":"Nachtigall","url_name":"nachtigall","address":"B\u00e4ckerstrasse 30","zip":"8004","city":"Z\u00fcrich","gaultmillau":"","latitude":"47.3747","longitude":"8.5295","distance":"0"},"449":{"id":"423","real_name":"Mamma Leone","url_name":"mamma-leone","address":"Rotwandstrasse 49","zip":"8004","city":"Z\u00fcrich","gaultmillau":"","latitude":"47.3755","longitude":"8.52844","distance":"0"},"450":{"id":"428","real_name":"Brasserie Lam","url_name":"brasserie-lam","address":"Brauerstrasse 42","zip":"8004","city":"Z\u00fcrich","gaultmillau":"","latitude":"47.3779","longitude":"8.52709","distance":"0"},"451":{"id":"431","real_name":"Raja Bongo","url_name":"raja-bongo","address":"Zwinglistrasse 3","zip":"8004","city":"Z\u00fcrich","gaultmillau":"","latitude":"47.3778","longitude":"8.52958","distance":"0"},"452":{"id":"432","real_name":"Don Leone","url_name":"don-leone","address":"B\u00e4ckerstrasse 31","zip":"8004","city":"Z\u00fcrich","gaultmillau":"","latitude":"47.3747","longitude":"8.52906","distance":"0"},"453":{"id":"433","real_name":"Ah-Hua II","url_name":"ah-hua-ii","address":"Ankerstrasse 110","zip":"8004","city":"Z\u00fcrich","gaultmillau":"","latitude":"47.3761","longitude":"8.52787","distance":"0"},"454":{"id":"438","real_name":"Bistro Lochergut","url_name":"bistro-lochergut","address":"Badenerstrasse 230","zip":"8004","city":"Z\u00fcrich","gaultmillau":"","latitude":"47.3758","longitude":"8.51714","distance":"0"},"455":{"id":"459","real_name":"Krokodil","url_name":"krokodil","address":"Hohlstrasse 44","zip":"8004","city":"Z\u00fcrich","gaultmillau":"","latitude":"47.3776","longitude":"8.52625","distance":"0"},"456":{"id":"471","real_name":"Werdguet","url_name":"werdguet","address":"Morgartenstrasse 30","zip":"8004","city":"Z\u00fcrich","gaultmillau":"","latitude":"47.3716","longitude":"8.52747","distance":"0"},"457":{"id":"480","real_name":"Segantini","url_name":"segantini","address":"Ankerstrasse 120","zip":"8004","city":"Z\u00fcrich","gaultmillau":"14","latitude":"47.3765","longitude":"8.52852","distance":"0"},"458":{"id":"482","real_name":"Helvetia","url_name":"helvetia-zurich","address":"Stauffacherquai 1","zip":"8004","city":"Z\u00fcrich","gaultmillau":"14","latitude":"47.3732","longitude":"8.5317","distance":"0"},"459":{"id":"487","real_name":"Bubbles","url_name":"bubbles","address":"Werdstrasse 54","zip":"8004","city":"Z\u00fcrich","gaultmillau":"","latitude":"47.3727","longitude":"8.52815","distance":"0"},"460":{"id":"497","real_name":"Il Giglio","url_name":"il-giglio","address":"Weberstrasse 14","zip":"8004","city":"Z\u00fcrich","gaultmillau":"14","latitude":"47.3709","longitude":"8.52839","distance":"0"},"461":{"id":"501","real_name":"Kobal Curry + Caf\u00e9","url_name":"kobal-curry-cafe","address":"Kanzleistrasse 78","zip":"8004","city":"Z\u00fcrich","gaultmillau":"","latitude":"47.3757","longitude":"8.5244","distance":"0"},"462":{"id":"531","real_name":"Paneolio","url_name":"paneolio","address":"Cramerstrasse 8","zip":"8004","city":"Z\u00fcrich","gaultmillau":"","latitude":"47.3732","longitude":"8.52616","distance":"0"},"463":{"id":"536","real_name":"Caduff's Wine Loft","url_name":"caduffs-wine-loft","address":"Kanzleistrasse 126","zip":"8004","city":"Z\u00fcrich","gaultmillau":"15","latitude":"47.3772","longitude":"8.52028","distance":"0"},"464":{"id":"546","real_name":"Marisqueira Atlantico","url_name":"marisqueira-atlantico","address":"Hohlstrasse 365","zip":"8004","city":"Z\u00fcrich","gaultmillau":"","latitude":"47.3848","longitude":"8.50846","distance":"0"},"465":{"id":"585","real_name":"Forum","url_name":"forum","address":"Badenerstrasse 120","zip":"8004","city":"Z\u00fcrich","gaultmillau":"","latitude":"47.3744","longitude":"8.52372","distance":"0"},"466":{"id":"587","real_name":"Peoples Bar, Club & Lounge","url_name":"gate-125","address":"Badenerstrasse 125","zip":"8004","city":"Z\u00fcrich","gaultmillau":"","latitude":"47.3742","longitude":"8.52351","distance":"0"},"467":{"id":"652","real_name":"Italia","url_name":"italia","address":"Zeughausstrasse 61","zip":"8004","city":"Z\u00fcrich","gaultmillau":"","latitude":"47.3764","longitude":"8.52922","distance":"0"},"468":{"id":"682","real_name":"Bernerhof","url_name":"bernerhof","address":"Zeughaustrasse 1","zip":"8004","city":"Z\u00fcrich","gaultmillau":"","latitude":"47.3746","longitude":"8.53201","distance":"0"},"469":{"id":"1081","real_name":"Tonneau Bar Restaurant","url_name":"tonneau-bar-restaurant","address":"Morgartenstrasse 26","zip":"8004","city":"Z\u00fcrich","gaultmillau":"","latitude":"47.3715","longitude":"8.52779","distance":"0"},"470":{"id":"734","real_name":"Hardhof","url_name":"hardhof","address":"Badenerstrasse 344","zip":"8004","city":"Z\u00fcrich","gaultmillau":"","latitude":"47.3782","longitude":"8.51089","distance":"0"},"471":{"id":"817","real_name":"Convivio","url_name":"convivio","address":"Rotwandstrasse 62","zip":"8004","city":"Z\u00fcrich","gaultmillau":"","latitude":"47.3757","longitude":"8.52926","distance":"0"},"472":{"id":"818","real_name":"Rizzi","url_name":"rizzi","address":"Brauerstrasse 4","zip":"8004","city":"Z\u00fcrich","gaultmillau":"","latitude":"47.377","longitude":"8.52868","distance":"0"},"473":{"id":"875","real_name":"Certo","url_name":"certo","address":"Strassburgstrasse 5","zip":"8004","city":"Z\u00fcrich","gaultmillau":"","latitude":"47.3722","longitude":"8.52892","distance":"0"},"474":{"id":"1012","real_name":"Don Leone L'Aperitivo","url_name":"don-leone-laperitivo","address":"B\u00e4ckerstrasse 36","zip":"8004","city":"Z\u00fcrich","gaultmillau":"","latitude":"47.375","longitude":"8.52904","distance":"0"},"475":{"id":"1181","real_name":"Daniel H.","url_name":"daniel-h","address":"M\u00fcllerstrasse 51","zip":"8004","city":"Z\u00fcrich","gaultmillau":"","latitude":"47.3754","longitude":"8.52925","distance":"0"},"476":{"id":"1206","real_name":"Schmuklerski","url_name":"schmuklerski","address":"Badenerstrasse 101","zip":"8004","city":"Z\u00fcrich","gaultmillau":"","latitude":"47.3742","longitude":"8.52517","distance":"0"},"477":{"id":"476","real_name":"Mundial","url_name":"mundial","address":"Neugasse 76","zip":"8005","city":"Z\u00fcrich","gaultmillau":"","latitude":"47.3833","longitude":"8.52843","distance":"0"},"478":{"id":"53","real_name":"Westend","url_name":"westend","address":"F\u00f6rrlibuckstrasse 180","zip":"8005","city":"Z\u00fcrich","gaultmillau":"","latitude":"47.3921","longitude":"8.51164","distance":"0"},"479":{"id":"384","real_name":"X-TRA","url_name":"x-tra","address":"Limmatstrasse 118","zip":"8005","city":"Z\u00fcrich","gaultmillau":"","latitude":"47.3841","longitude":"8.53267","distance":"0"},"480":{"id":"442","real_name":"Riviera","url_name":"riviera","address":"Langstrasse 212","zip":"8005","city":"Z\u00fcrich","gaultmillau":"","latitude":"47.383","longitude":"8.53027","distance":"0"},"481":{"id":"450","real_name":"Don Weber","url_name":"don-weber","address":"Heinrichstrasse 213","zip":"8005","city":"Z\u00fcrich","gaultmillau":"","latitude":"47.3878","longitude":"8.52443","distance":"0"},"482":{"id":"455","real_name":"Toscano im Puls 5","url_name":"toscano-im-puls-5","address":"Giessereistrasse 18","zip":"8005","city":"Z\u00fcrich","gaultmillau":"","latitude":"47.3902","longitude":"8.51752","distance":"0"},"483":{"id":"463","real_name":"Eisenhof","url_name":"eisenhof","address":"Gasometerstrasse 20","zip":"8005","city":"Z\u00fcrich","gaultmillau":"","latitude":"47.3836","longitude":"8.52874","distance":"0"},"484":{"id":"503","real_name":"Limmathof","url_name":"limmathof","address":"Limmatstrasse 217","zip":"8005","city":"Z\u00fcrich","gaultmillau":"","latitude":"47.3875","longitude":"8.5273","distance":"0"},"485":{"id":"506","real_name":"Sala of Tokyo","url_name":"sala-of-tokyo","address":"Limmatstrasse 29","zip":"8005","city":"Z\u00fcrich","gaultmillau":"16","latitude":"47.381","longitude":"8.5362","distance":"0"},"486":{"id":"526","real_name":"La Contrada","url_name":"la-contrada","address":"Heinrichstrasse 83","zip":"8005","city":"Z\u00fcrich","gaultmillau":"","latitude":"47.3848","longitude":"8.52951","distance":"0"},"487":{"id":"555","real_name":"Cucina","url_name":"cucina","address":"Luisenstrasse 40","zip":"8005","city":"Z\u00fcrich","gaultmillau":"","latitude":"47.3842","longitude":"8.53034","distance":"0"},"488":{"id":"568","real_name":"Il Gallo","url_name":"il-gallo","address":"Hardstrasse 324","zip":"8005","city":"Z\u00fcrich","gaultmillau":"","latitude":"47.3903","longitude":"8.52285","distance":"0"},"489":{"id":"638","real_name":"Cinque","url_name":"cinque","address":"Langstrasse 215","zip":"8005","city":"Z\u00fcrich","gaultmillau":"","latitude":"47.3833","longitude":"8.53018","distance":"0"},"490":{"id":"703","real_name":"sph\u00e8res bar buch & b\u00fchne","url_name":"spheres-bar-buch-buhne","address":"Hardturmstrasse 66","zip":"8005","city":"Z\u00fcrich","gaultmillau":"","latitude":"47.392","longitude":"8.51878","distance":"0"},"491":{"id":"769","real_name":"Vulkan - Indisches Restaurant","url_name":"vulkan-indisches-restaurant","address":"Klingenstrasse 33","zip":"8005","city":"Z\u00fcrich","gaultmillau":"","latitude":"47.3821","longitude":"8.53372","distance":"0"},"492":{"id":"796","real_name":"Max und Moritz","url_name":"max-und-moritz","address":"F\u00f6rrlibuckstrasse 70 \/ 72","zip":"8005","city":"Z\u00fcrich","gaultmillau":"","latitude":"47.3923","longitude":"8.51426","distance":"0"},"493":{"id":"852","real_name":"Nectar","url_name":"nectar","address":"Limmatstrasse 317","zip":"8005","city":"Z\u00fcrich","gaultmillau":"","latitude":"47.3902","longitude":"8.523","distance":"0"},"494":{"id":"874","real_name":"Tant Pis","url_name":"tant-pis","address":"Konradstrasse 73","zip":"8005","city":"Z\u00fcrich","gaultmillau":"","latitude":"47.382","longitude":"8.53325","distance":"0"},"495":{"id":"893","real_name":"Way to India","url_name":"way-to-india-zurich","address":"Langstrasse 192","zip":"8005","city":"Z\u00fcrich","gaultmillau":"","latitude":"47.3821","longitude":"8.5296","distance":"0"},"496":{"id":"950","real_name":"St. Joseph`s Pub","url_name":"st-josephs-pub","address":"Fabrikstrasse 23","zip":"8005 ","city":"Z\u00fcrich","gaultmillau":"","latitude":"47.3864","longitude":"8.52797","distance":"0"},"497":{"id":"956","real_name":"Big Ben Pub Westside","url_name":"big-ben-pub-westside","address":"Hardstrasse 234","zip":"8005","city":"Z\u00fcrich","gaultmillau":"","latitude":"47.3873","longitude":"8.51956","distance":"0"},"498":{"id":"1156","real_name":"Yooji`s Josef","url_name":"yoojis-josef","address":"Josefstrasse 112","zip":"8005","city":"Z\u00fcrich","gaultmillau":"","latitude":"47.3837","longitude":"8.53006","distance":"0"},"499":{"id":"398","real_name":"Stapferstube da Rizzo","url_name":"stapferstube-da-rizzo","address":"Culmannstrasse 45","zip":"8006","city":"Z\u00fcrich","gaultmillau":"","latitude":"47.3822","longitude":"8.5474","distance":"0"},"500":{"id":"488","real_name":"La Casa","url_name":"la-casa","address":"Riedtlistrasse 2","zip":"8006","city":"Z\u00fcrich","gaultmillau":"","latitude":"47.3902","longitude":"8.54","distance":"0"},"501":{"id":"498","real_name":"Casa Ferlin","url_name":"casa-ferlin","address":"Stampfenbachstrasse 38","zip":"8006","city":"Z\u00fcrich","gaultmillau":"","latitude":"47.3798","longitude":"8.54338","distance":"0"},"502":{"id":"535","real_name":"Didi's Frieden","url_name":"didis-frieden","address":"Stampfenbachstrasse 32","zip":"8006","city":"Z\u00fcrich","gaultmillau":"","latitude":"47.3792","longitude":"8.54359","distance":"0"},"503":{"id":"857","real_name":"Drei Stuben","url_name":"drei-stuben","address":"Beckenhofstrasse 5","zip":"8006","city":"Z\u00fcrich","gaultmillau":"","latitude":"47.3832","longitude":"8.54155","distance":"0"},"504":{"id":"9","real_name":"Miracle","url_name":"miracle","address":"Fr\u00f6hlichstrasse 37","zip":"8008","city":"Z\u00fcrich","gaultmillau":"","latitude":"47.3545","longitude":"8.55602","distance":"0"},"505":{"id":"8","real_name":"Blaue Ente","url_name":"blaue-ente","address":"Seefeldstrasse 223","zip":"8008","city":"Z\u00fcrich","gaultmillau":"14","latitude":"47.3519","longitude":"8.56114","distance":"0"},"506":{"id":"12","real_name":"Ristorante Strozzis","url_name":"ristorante-strozzis","address":"Seefeldstrasse 214","zip":"8008","city":"Z\u00fcrich","gaultmillau":"","latitude":"47.353","longitude":"8.55878","distance":"0"},"507":{"id":"15","real_name":"Sorrento","url_name":"ristorante-sorrento","address":"Forchstrasse 2","zip":"8008","city":"Z\u00fcrich","gaultmillau":"","latitude":"47.3646","longitude":"8.55442","distance":"0"},"508":{"id":"14","real_name":"Griechische Taverne","url_name":"griechische-taverne","address":"Seefeldstrasse 167","zip":"8008","city":"Z\u00fcrich","gaultmillau":"","latitude":"47.3548","longitude":"8.55732","distance":"0"},"509":{"id":"16","real_name":"Du Th\u00e9\u00e2tre","url_name":"du-theatre","address":"Dufourstrasse 20","zip":"8008","city":"Z\u00fcrich","gaultmillau":"","latitude":"47.364","longitude":"8.54745","distance":"0"},"510":{"id":"17","real_name":"Tres Kilos","url_name":"tres-kilos","address":"Dufourstrasse 175","zip":"8008","city":"Z\u00fcrich","gaultmillau":"","latitude":"47.3544","longitude":"8.55578","distance":"0"},"511":{"id":"19","real_name":"Bar - Paninoteca Arcobaleno","url_name":"bar-paninoteca-arcobaleno","address":"H\u00f6schgasse 33","zip":"8008","city":"Z\u00fcrich","gaultmillau":"","latitude":"47.3573","longitude":"8.5526","distance":"0"},"512":{"id":"50","real_name":"Opera","url_name":"a-lopera","address":"Falkenstrasse 6","zip":"8008","city":"Z\u00fcrich","gaultmillau":"","latitude":"47.3643","longitude":"8.54703","distance":"0"},"513":{"id":"56","real_name":"Tot\u00f2","url_name":"toto","address":"Seefeldstrasse 124","zip":"8008","city":"Z\u00fcrich","gaultmillau":"","latitude":"47.3581","longitude":"8.55397","distance":"0"},"514":{"id":"58","real_name":"Iroquois","url_name":"iroquois","address":"Seefeldstrasse 120","zip":"8008","city":"Z\u00fcrich","gaultmillau":"","latitude":"47.3583","longitude":"8.55368","distance":"0"},"515":{"id":"205","real_name":"Belcanto","url_name":"belcanto","address":"Falkenstrasse 1","zip":"8008","city":"Z\u00fcrich","gaultmillau":"","latitude":"47.3648","longitude":"8.54635","distance":"0"},"516":{"id":"79","real_name":"0815","url_name":"0815-kreuzstrasse","address":"Kreuzstrasse 26","zip":"8008","city":"Z\u00fcrich","gaultmillau":"","latitude":"47.3629","longitude":"8.54925","distance":"0"},"517":{"id":"121","real_name":"Stones","url_name":"corretto","address":"Seefeldstrasse 96","zip":"8008","city":"Z\u00fcrich","gaultmillau":"","latitude":"47.3598","longitude":"8.55241","distance":"0"},"518":{"id":"96","real_name":"Caf\u00e9 Black","url_name":"cafe-black","address":"F\u00e4rberstrasse 6","zip":"8008","city":"Z\u00fcrich","gaultmillau":"","latitude":"47.3618","longitude":"8.5487","distance":"0"},"519":{"id":"152","real_name":"Steigenberger Bellerive au Lac","url_name":"steigenberger-bellerive-au-lac","address":"Utoquai 47","zip":"8008","city":"Z\u00fcrich","gaultmillau":"","latitude":"47.3623","longitude":"8.54763","distance":"0"},"520":{"id":"243","real_name":"Caf\u00e9 F\u00fcchsli","url_name":"cafe-fuchsli","address":"Am Hegibachplatz","zip":"8008","city":"Z\u00fcrich","gaultmillau":"","latitude":"47.3614","longitude":"8.56091","distance":"0"},"521":{"id":"510","real_name":"Escoffier","url_name":"escoffier","address":"Feldstrasse 49","zip":"8008","city":"Z\u00fcrich","gaultmillau":"","latitude":"47.3606","longitude":"8.55241","distance":"0"},"522":{"id":"548","real_name":"Hornegg","url_name":"hornegg","address":"Seefeldstrasse 201","zip":"8008","city":"Z\u00fcrich","gaultmillau":"","latitude":"47.3529","longitude":"8.55938","distance":"0"},"523":{"id":"666","real_name":"Die Bar - Hotel Seefeld","url_name":"die-bar-hotel-seefeld","address":"Seefeldstrasse 63","zip":"8008","city":"Z\u00fcrich","gaultmillau":"","latitude":"47.3616","longitude":"8.55131","distance":"0"},"524":{"id":"694","real_name":"Piacere","url_name":"piacere","address":"Wiesenstrasse 1 \/ Seefeldstrasse 59","zip":"8008","city":"Z\u00fcrich","gaultmillau":"","latitude":"47.3621","longitude":"8.55091","distance":"0"},"525":{"id":"733","real_name":"Weisses Kreuz","url_name":"weisses-kreuz","address":"Falkenstrasse 27","zip":"8008","city":"Z\u00fcrich","gaultmillau":"","latitude":"47.3661","longitude":"8.54861","distance":"0"},"526":{"id":"757","real_name":"Asian Moon","url_name":"asian-moon","address":"Seefeldstrasse 40","zip":"8008","city":"Z\u00fcrich","gaultmillau":"","latitude":"47.3631","longitude":"8.54964","distance":"0"},"527":{"id":"829","real_name":"Nuno Espressobar","url_name":"nuno-espressobar","address":"Seefeldstrasse 225","zip":"8008","city":"Z\u00fcrich","gaultmillau":"","latitude":"47.3517","longitude":"8.56077","distance":"0"},"528":{"id":"830","real_name":"B\u00e4ckerei Buchmann Seefeld","url_name":"backerei-buchmann-seefeld","address":"Seefeldstrasse 4","zip":"8008","city":"Z\u00fcrich","gaultmillau":"","latitude":"47.3648","longitude":"8.54803","distance":"0"},"529":{"id":"853","real_name":"Kreuzplatz Restaurant & Bar","url_name":"kreuzplatz-restaurant-bar","address":"Zollikerstrasse 1","zip":"8008","city":"Z\u00fcrich","gaultmillau":"","latitude":"47.3642","longitude":"8.55468","distance":"0"},"530":{"id":"854","real_name":"Stefs Freieck","url_name":"stefs","address":"Wildbachstrasse 42","zip":"8008","city":"Z\u00fcrich Seefeld","gaultmillau":"","latitude":"47.3566","longitude":"8.55711","distance":"0"},"531":{"id":"878","real_name":"Fischstube","url_name":"fischstube","address":"Bellerivestrasse 160","zip":"8008","city":"Z\u00fcrich","gaultmillau":"","latitude":"47.353","longitude":"8.55058","distance":"0"},"532":{"id":"907","real_name":"Drinx Bar","url_name":"drinx-bar","address":"Dufourstrasse 24","zip":"8008","city":"z\u00dcRICH","gaultmillau":"","latitude":"47.3637","longitude":"8.54775","distance":"0"},"533":{"id":"904","real_name":"Quaglinos","url_name":"quaglinos","address":"Dufourstrasse 4","zip":"8008 ","city":"Z\u00fcrich","gaultmillau":"","latitude":"47.3642","longitude":"8.54726","distance":"0"},"534":{"id":"1155","real_name":"Yooji`s Seefeld","url_name":"yoojis-seefeld","address":"Seefeldstrasse 115","zip":"8008","city":"Z\u00fcrich","gaultmillau":"","latitude":"47.3583","longitude":"8.55412","distance":"0"},"535":{"id":"1225","real_name":"Trattoria & Soul","url_name":"trattoria-soul","address":"Seefeldstrasse 5","zip":"8008","city":"Z\u00fcrich","gaultmillau":"","latitude":"47.3651","longitude":"8.54833","distance":"0"},"536":{"id":"822","real_name":"Manora Z\u00fcrich","url_name":"manora-zurich","address":"Bahnhofstrasse 75","zip":"8021","city":"Z\u00fcrich","gaultmillau":"","latitude":"47.3749","longitude":"8.53847","distance":"0"},"537":{"id":"212","real_name":"Vivace","url_name":"vivace","address":"Claridenstrasse 30","zip":"8022","city":"Z\u00fcrich","gaultmillau":"","latitude":"47.368","longitude":"8.53706","distance":"0"},"538":{"id":"884","real_name":"Zeughauskeller","url_name":"zeughauskeller","address":"Bahnhofstrasse 28a","zip":"8022","city":"Z\u00fcrich","gaultmillau":"","latitude":"47.3702","longitude":"8.53967","distance":"0"},"539":{"id":"45","real_name":"R\u00f6merblick","url_name":"romerblick","address":"Asylstrasse 58","zip":"8032","city":"Z\u00fcrich","gaultmillau":"","latitude":"47.368","longitude":"8.55987","distance":"0"},"540":{"id":"112","real_name":"aRoma","url_name":"aroma","address":"Asylstrasse 110","zip":"8032","city":"Z\u00fcrich","gaultmillau":"","latitude":"47.3654","longitude":"8.56359","distance":"0"},"541":{"id":"186","real_name":"Marco Polo","url_name":"marco-polo","address":"Zeltweg 12","zip":"8032","city":"Z\u00fcrich","gaultmillau":"","latitude":"47.369","longitude":"8.55001","distance":"0"},"542":{"id":"439","real_name":"Dolder Waldhaus","url_name":"dolder-waldhaus","address":"Kurhausstrasse 20","zip":"8032","city":"Z\u00fcrich","gaultmillau":"","latitude":"47.3729","longitude":"8.56886","distance":"0"},"543":{"id":"440","real_name":"Garden Restaurant \/ Dolder Grand","url_name":"garden-restaurant","address":"Kurhausstrasse 65","zip":"8032","city":"Z\u00fcrich","gaultmillau":"","latitude":"47.3727","longitude":"8.57316","distance":"0"},"544":{"id":"441","real_name":"The Restaurant \/ Dolder Grand","url_name":"the-restaurant","address":"Kurhausstrasse 65","zip":"8032","city":"Z\u00fcrich","gaultmillau":"17","latitude":"47.3727","longitude":"8.57363","distance":"0"},"545":{"id":"579","real_name":"Piccola Italia","url_name":"piccola-italia","address":"Asylstrasse 81","zip":"8032","city":"Z\u00fcrich","gaultmillau":"","latitude":"47.3668","longitude":"8.56167","distance":"0"},"546":{"id":"578","real_name":"Monte Primero Wolfbach","url_name":"monte-primero-wolfbach","address":"Wolfbachstrasse 35","zip":"8032","city":"Z\u00fcrich","gaultmillau":"","latitude":"47.3704","longitude":"8.5522","distance":"0"},"547":{"id":"657","real_name":"Marcellino Pane e Vino","url_name":"marcellino-pane-e-vino","address":"Forchstrasse 168","zip":"8032","city":"Z\u00fcrich","gaultmillau":"","latitude":"47.3602","longitude":"8.56556","distance":"0"},"548":{"id":"756","real_name":"Lemon Grass","url_name":"lemon-grass","address":"Neptunstrasse 57","zip":"8032","city":"Z\u00fcrich","gaultmillau":"","latitude":"47.3662","longitude":"8.55722","distance":"0"},"549":{"id":"821","real_name":"Degenried","url_name":"degenried","address":"Degenriedstrasse 135","zip":"8032","city":"Z\u00fcrich","gaultmillau":"","latitude":"47.3674","longitude":"8.57923","distance":"0"},"550":{"id":"1158","real_name":"Nooba","url_name":"nooba","address":"Kreuzplatz 5","zip":"8032","city":"Z\u00fcrich","gaultmillau":"","latitude":"47.3651","longitude":"8.55455","distance":"0"},"551":{"id":"1159","real_name":"Bohemia","url_name":"bohemia","address":"am Kreuzplatz","zip":"8032","city":"Z\u00fcrich","gaultmillau":"","latitude":"47.365","longitude":"8.55412","distance":"0"},"552":{"id":"1215","real_name":"Kafi Bistro Klus","url_name":"kafi-klus","address":"Witikonerstrasse 15","zip":"8032","city":"Z\u00fcrich","gaultmillau":"","latitude":"47.3641","longitude":"8.56692","distance":"0"},"553":{"id":"1226","real_name":"Sonnenberg","url_name":"sonnenberg","address":"Hitzigweg 15","zip":"8032","city":"Z\u00fcrich","gaultmillau":"15","latitude":"47.3674","longitude":"8.56768","distance":"0"},"554":{"id":"570","real_name":"Vitruv im Hotel Rigihof","url_name":"vitruv-im-hotel-rigihof","address":"Universit\u00e4tsstrasse 101","zip":"8033","city":"Z\u00fcrich","gaultmillau":"","latitude":"47.3859","longitude":"8.54898","distance":"0"},"555":{"id":"34","real_name":"Tre Fratelli ","url_name":"tre-fratelli","address":"Nordstrasse 182","zip":"8037","city":"Z\u00fcrich","gaultmillau":"12","latitude":"47.3923","longitude":"8.53141","distance":"0"},"556":{"id":"61","real_name":"Tessin Grotto J\u00e4gerhaus","url_name":"tessin-grotto-jagerhaus","address":"Waidbadstrasse 151","zip":"8037","city":"Z\u00fcrich","gaultmillau":"","latitude":"47.4033","longitude":"8.51619","distance":"0"},"557":{"id":"62","real_name":"Die Waid","url_name":"die-waid","address":"Waidbadstrasse 45","zip":"8037","city":"Z\u00fcrich","gaultmillau":"","latitude":"47.3998","longitude":"8.51552","distance":"0"},"558":{"id":"727","real_name":"Tizziani","url_name":"tizziani","address":"H\u00f6nggerstrasse 10","zip":"8037","city":"Z\u00fcrich","gaultmillau":"13","latitude":"47.391","longitude":"8.52717","distance":"0"},"559":{"id":"1151","real_name":"Meister GAO","url_name":"meister-gao","address":"R\u00f6telstrasse 125","zip":"8037","city":"Z\u00fcrich","gaultmillau":"","latitude":"47.3971","longitude":"8.53235","distance":"0"},"560":{"id":"1160","real_name":"Taj Palace","url_name":"taj-palace","address":"H\u00f6nggerstrasse 25","zip":"8037","city":"Z\u00fcrich","gaultmillau":"","latitude":"47.391","longitude":"8.52659","distance":"0"},"561":{"id":"678","real_name":"Sommer Traumschiffe","url_name":"sommerschiff","address":"Mythenquai 323","zip":"8038","city":"Z\u00fcrich","gaultmillau":"","latitude":"47.3666","longitude":"8.54077","distance":"0"},"562":{"id":"116","real_name":"Seerose","url_name":"seerose","address":"Seestrasse 493","zip":"8038","city":"Z\u00fcrich-Wollishofen","gaultmillau":"","latitude":"47.3382","longitude":"8.54048","distance":"0"},"563":{"id":"505","real_name":"Renggergut","url_name":"renggergut","address":"Renggerstrasse 68","zip":"8038","city":"Z\u00fcrich","gaultmillau":"","latitude":"47.3441","longitude":"8.53304","distance":"0"},"564":{"id":"602","real_name":"Fischers Fritz","url_name":"fischers-fritz","address":"Seestrasse 559","zip":"8038","city":"Z\u00fcrich","gaultmillau":"","latitude":"47.3357","longitude":"8.54125","distance":"0"},"565":{"id":"1171","real_name":"Bayerischer Hof","url_name":"bayerischer-hof","address":"Herdernstrasse 56","zip":"8040","city":"Z\u00fcrich","gaultmillau":"","latitude":"47.383","longitude":"8.50593","distance":"0"},"566":{"id":"838","real_name":"Alter Tobelhof","url_name":"alter-tobelhof","address":"Tobelhofstrasse 236","zip":"8044","city":"Z\u00fcrich","gaultmillau":"","latitude":"47.3823","longitude":"8.58817","distance":"0"},"567":{"id":"662","real_name":"R 21 - Hotel Z\u00fcrichberg","url_name":"restaurant-r-21","address":"Orellistrasse 21","zip":"8044","city":"Z\u00fcrich","gaultmillau":"","latitude":"47.3825","longitude":"8.5669","distance":"0"},"568":{"id":"663","real_name":"Restaurant Rigiblick","url_name":"restaurant-rigiblick","address":"Germaniastrasse 99","zip":"8044","city":"Z\u00fcrich","gaultmillau":"16","latitude":"47.3883","longitude":"8.55345","distance":"0"},"569":{"id":"839","real_name":"Ch\u00e4salp","url_name":"chasalp","address":"Tobelhofstrasse 236","zip":"8044","city":"Z\u00fcrich","gaultmillau":"","latitude":"47.382","longitude":"8.58693","distance":"0"},"570":{"id":"963","real_name":"Roter Kamm","url_name":"roter-kamm","address":"Tobelhofstrasse 240","zip":"8044","city":"Z\u00fcrich","gaultmillau":"","latitude":"47.3834","longitude":"8.58692","distance":"0"},"571":{"id":"70","real_name":"B\u00e4ckerei Buchmann Binz","url_name":"buchmann-backerei-binz","address":"Uetlibergstrasse 65","zip":"8045","city":"Z\u00fcrich","gaultmillau":"","latitude":"47.3624","longitude":"8.51888","distance":"0"},"572":{"id":"92","real_name":"R\u00fcsterei","url_name":"rusterei","address":"Kalanderplatz 6","zip":"8045","city":"Z\u00fcrich","gaultmillau":"","latitude":"47.3582","longitude":"8.52265","distance":"0"},"573":{"id":"163","real_name":"Oh l\u00e0 l\u00e0 Sihlcity","url_name":"oh-la-la-sihlcity","address":"Kalanderplatz 1","zip":"8045","city":"Z\u00fcrich","gaultmillau":"","latitude":"47.358","longitude":"8.52327","distance":"0"},"574":{"id":"347","real_name":"Four Points - Rampe S\u00fcd","url_name":"four-points-rampe-sud","address":"Kalandergasse 1","zip":"8045 ","city":"Z\u00fcrich","gaultmillau":"","latitude":"47.3592","longitude":"8.52307","distance":"0"},"575":{"id":"562","real_name":"La Penisola","url_name":"la-penisola","address":"Uetlibergstrasse 132","zip":"8045","city":"Z\u00fcrich","gaultmillau":"","latitude":"47.3604","longitude":"8.51614","distance":"0"},"576":{"id":"30","real_name":"Hotel Kronenhof","url_name":"hotel-kronenhof","address":"Wehntalerstrasse 551","zip":"8046","city":"Z\u00fcrich","gaultmillau":"","latitude":"47.4193","longitude":"8.50529","distance":"0"},"577":{"id":"712","real_name":"Bistro Quelle","url_name":"bistro-quelle","address":"Wehntalerstrasse 430","zip":"8046","city":"Z\u00fcrich","gaultmillau":"","latitude":"47.4155","longitude":"8.51434","distance":"0"},"578":{"id":"617","real_name":"Emilia Albisriederhaus","url_name":"emilia-albisriederhaus","address":"Albiesriederstrasse 330","zip":"8047","city":"Z\u00fcrich","gaultmillau":"","latitude":"47.376","longitude":"8.48781","distance":"0"},"579":{"id":"60","real_name":"8048","url_name":"8048-restaurant","address":"Lindenplatz 5","zip":"8048","city":"Z\u00fcrich","gaultmillau":"","latitude":"47.3874","longitude":"8.48542","distance":"0"},"580":{"id":"111","real_name":"La Taverna","url_name":"la-taverna","address":"Badenerstrasse 663","zip":"8048","city":"Z\u00fcrich","gaultmillau":"","latitude":"47.3868","longitude":"8.48788","distance":"0"},"581":{"id":"502","real_name":"Mediacampus","url_name":"mediacampus","address":"Baslerstrasse 30","zip":"8048","city":"Z\u00fcrich","gaultmillau":"","latitude":"47.385","longitude":"8.50253","distance":"0"},"582":{"id":"592","real_name":"Arche Bistro","url_name":"arche-bistro","address":"Hohlstrasse 489","zip":"8048","city":"Z\u00fcrich","gaultmillau":"","latitude":"47.389","longitude":"8.49432","distance":"0"},"583":{"id":"669","real_name":"Oval","url_name":"oval","address":"Badenerstrasse 500","zip":"8048","city":"Z\u00fcrich","gaultmillau":"","latitude":"47.3832","longitude":"8.5035","distance":"0"},"584":{"id":"740","real_name":"Triibhuus","url_name":"striibhuus","address":"Salzweg 50","zip":"8048 ","city":"Altstetten","gaultmillau":"","latitude":"47.3867","longitude":"8.46907","distance":"0"},"585":{"id":"699","real_name":"Tex Mex Z\u00fcri","url_name":"tex-mex-zuri","address":"Badenerstrasse 505","zip":"8048","city":"Z\u00fcrich","gaultmillau":"","latitude":"47.3815","longitude":"8.50254","distance":"0"},"586":{"id":"758","real_name":"Asian Dining","url_name":"asian-dining","address":"Altstetterstrasse 124","zip":"8048","city":"Z\u00fcrich","gaultmillau":"","latitude":"47.3897","longitude":"8.48652","distance":"0"},"587":{"id":"927","real_name":"Ristorante - Bocciodromo \u00abDa Cono\u00bb","url_name":"bocciodromo-pizzeria-da-cono","address":"Badenerstrasse 526","zip":"8048","city":"Z\u00fcrich","gaultmillau":"","latitude":"47.3826","longitude":"8.50107","distance":"0"},"588":{"id":"983","real_name":"Ado","url_name":"ado","address":"Badenerstrasse 811","zip":"8048","city":"Z\u00fcrich","gaultmillau":"","latitude":"47.393","longitude":"8.47413","distance":"0"},"589":{"id":"65","real_name":"Desperado","url_name":"desperado-hoengg","address":"Limmattalstrasse 215","zip":"8049","city":"Z\u00fcrich","gaultmillau":"","latitude":"47.402","longitude":"8.49715","distance":"0"},"590":{"id":"1143","real_name":"Il Pantheon","url_name":"il-pantheon","address":"Limmattalstrasse 400","zip":"8049","city":"Z\u00fcrich","gaultmillau":"","latitude":"47.4053","longitude":"8.4805","distance":"0"},"591":{"id":"40","real_name":"Henne","url_name":"henne","address":"Schwamendingerstrasse 16","zip":"8050","city":"Z\u00fcrich","gaultmillau":"","latitude":"47.4075","longitude":"8.54782","distance":"0"},"592":{"id":"57","real_name":"Cheyenne","url_name":"cheyenne","address":"Querstrasse 3","zip":"8050","city":"Z\u00fcrich","gaultmillau":"","latitude":"47.4099","longitude":"8.54574","distance":"0"},"593":{"id":"59","real_name":"kai sushi-bar","url_name":"kai-sushi-bar","address":"Ellen-Widmann-Weg 2","zip":"8050","city":"Z\u00fcrich","gaultmillau":"","latitude":"47.4144","longitude":"8.53942","distance":"0"},"594":{"id":"71","real_name":"B\u00e4ckerei Buchmann Max Bill Platz","url_name":"buchmann-backerei-max-bill-platz","address":"Max Bill Platz 13","zip":"8050","city":"Z\u00fcrich","gaultmillau":"","latitude":"47.4142","longitude":"8.54042","distance":"0"},"595":{"id":"85","real_name":"Theater 11","url_name":"theater-11","address":"Thurgauerstrasse 7 ","zip":"8050","city":"Z\u00fcrich","gaultmillau":"","latitude":"47.4107","longitude":"8.54969","distance":"0"},"596":{"id":"131","real_name":"Die GIESSEREI","url_name":"die-giesserei","address":"Birchstrasse 108","zip":"8050","city":"Z\u00fcrich","gaultmillau":"","latitude":"47.4085","longitude":"8.53759","distance":"0"},"597":{"id":"156","real_name":"Brasserie Bits&Bites","url_name":"brasserie-bitsbites-zurich","address":"Wallisellenstrasse 48","zip":"8050","city":"Z\u00fcrich","gaultmillau":"","latitude":"47.4105","longitude":"8.55324","distance":"0"},"598":{"id":"203","real_name":"Le Muh","url_name":"le-muh","address":"Schulstrasse 44\/Am Marktplatz Oerlikon","zip":"8050","city":"Z\u00fcrich ","gaultmillau":"","latitude":"47.4107","longitude":"8.54369","distance":"0"},"599":{"id":"225","real_name":"Paul's Ch\u00e4s St\u00fcbli","url_name":"pauls-chas-stubli","address":"Tramstrasse 17","zip":"8050","city":"Z\u00fcrich","gaultmillau":"","latitude":"47.4093","longitude":"8.54732","distance":"0"},"600":{"id":"581","real_name":"Asiaway","url_name":"asiaway","address":"Schwamendingenstrasse 10","zip":"8050","city":"Z\u00fcrich","gaultmillau":"","latitude":"47.4078","longitude":"8.54727","distance":"0"},"601":{"id":"640","real_name":"The Traders","url_name":"the-traders","address":"Leutschenbachstrasse 95","zip":"8050","city":"Z\u00fcrich","gaultmillau":"","latitude":"47.4179","longitude":"8.55872","distance":"0"},"602":{"id":"653","real_name":"Ziegelh\u00fctte","url_name":"ziegelhuette","address":"H\u00fcttenkopfstrasse 70","zip":"8051","city":"Z\u00fcrich","gaultmillau":"","latitude":"47.3997","longitude":"8.57278","distance":"0"},"603":{"id":"425","real_name":"Kafi Ferdinand","url_name":"kafi-ferdinand","address":"Gutstrasse 2","zip":"8055","city":"Z\u00fcrich","gaultmillau":"","latitude":"47.3701","longitude":"8.51042","distance":"0"},"604":{"id":"426","real_name":"Cafeteria Monti","url_name":"cafeteria-monti","address":"Birmensdorferstrasse 486","zip":"8055","city":"Z\u00fcrich","gaultmillau":"","latitude":"47.3684","longitude":"8.49644","distance":"0"},"605":{"id":"429","real_name":"Zhong Thai","url_name":"zhong-thai","address":"Gutstrasse 10","zip":"8055","city":"Z\u00fcrich","gaultmillau":"","latitude":"47.3703","longitude":"8.50975","distance":"0"},"606":{"id":"573","real_name":"Oberes-Triemli","url_name":"oberes-triemli","address":"Birmensdorferstrasse 533","zip":"8055","city":"Z\u00fcrich","gaultmillau":"","latitude":"47.367","longitude":"8.49338","distance":"0"},"607":{"id":"541","real_name":"Gasthaus L\u00f6wen","url_name":"gasthaus-lowen","address":"Z\u00fcrcherstrasse 1","zip":"8104","city":"Weiningen","gaultmillau":"","latitude":"47.4197","longitude":"8.43479","distance":"0"},"608":{"id":"1227","real_name":"Seerestaurant Schiffl\u00e4nde","url_name":"seerestaurant-schifflande","address":"Seestrasse 31","zip":"8124","city":"Maur","gaultmillau":"","latitude":"47.3388","longitude":"8.6757","distance":"0"},"609":{"id":"909","real_name":"TC Zollikerberg","url_name":"tc-zollikerberg","address":"Oberhubstrasse 80","zip":"8125","city":"Zollikerberg","gaultmillau":"","latitude":"47.3434","longitude":"8.61426","distance":"0"},"610":{"id":"850","real_name":"Trichtenhauserm\u00fchle","url_name":"trichtenhausermuhle","address":"Trichtenhauserstrasse 60","zip":"8125","city":"Zollikerberg","gaultmillau":"","latitude":"47.3506","longitude":"8.60208","distance":"0"},"611":{"id":"1016","real_name":"Hotel Wassberg","url_name":"hotel-wassberg","address":"Wassbergstrasse 62","zip":"8127","city":"Forch","gaultmillau":"","latitude":"47.3331","longitude":"8.65004","distance":"0"},"612":{"id":"1152","real_name":"Hotel UTO KULM","url_name":"hotel-uto-kulm","address":"Top of Z\u00fcrich","zip":"8143","city":"Uetliberg","gaultmillau":"","latitude":"47.3499","longitude":"8.49072","distance":"0"},"613":{"id":"1132","real_name":"Vivendi - ristorante e bar","url_name":"vivendi-ristorante-e-bar","address":"Europastrasse 2","zip":"8152","city":"Glattbrugg","gaultmillau":"","latitude":"47.4355","longitude":"8.56026","distance":"0"},"614":{"id":"779","real_name":"Pasta e Pizza R\u00fcmlang","url_name":"pasta-e-pizza","address":"Hofwisenstrasse 20","zip":"8153 ","city":"R\u00fcmlang","gaultmillau":"","latitude":"47.4529","longitude":"8.53578","distance":"0"},"615":{"id":"1059","real_name":"Kronenhof","url_name":"kronenhof","address":"Kirchhofplatz 7","zip":"8200","city":"Schaffhausen","gaultmillau":"","latitude":"47.6967","longitude":"8.63569","distance":"0"},"616":{"id":"1082","real_name":"Restaurant Falken","url_name":"falken-schaffhausen","address":"Vorstadt 5","zip":"8200","city":"Schaffhausen","gaultmillau":"","latitude":"47.6977","longitude":"8.63367","distance":"0"},"617":{"id":"1085","real_name":"Sch\u00f6nb\u00fchl","url_name":"schonbuhl","address":"Ungarb\u00fchlstrasse 4","zip":"8200","city":"Schaffhausen","gaultmillau":"","latitude":"47.7047","longitude":"8.64032","distance":"0"},"618":{"id":"1083","real_name":"Mamma Rosa","url_name":"mamma-rosa","address":"Bachstrasse 19","zip":"8200","city":"Schaffhausen","gaultmillau":"","latitude":"47.6964","longitude":"8.63784","distance":"0"},"619":{"id":"1141","real_name":"zum Frieden","url_name":"zum-frieden","address":"Herrenacker 11","zip":"8200","city":"Schaffhausen","gaultmillau":"13","latitude":"47.6952","longitude":"8.6327","distance":"0"},"620":{"id":"1153","real_name":"El Barco","url_name":"el-barco","address":"Freier Platz 6","zip":"8200","city":"Schaffhausen","gaultmillau":"","latitude":"47.6958","longitude":"8.6405","distance":"0"},"621":{"id":"902","real_name":"Manora Schaffhausen","url_name":"manora-schaffhausen","address":"Fronwagplatz 1","zip":"8201","city":"Schaffhausen","gaultmillau":"","latitude":"47.6963","longitude":"8.6336","distance":"0"},"622":{"id":"1195","real_name":"H\u00fcttenleben","url_name":"huttenleben","address":"Drachenbrunnenweg 5","zip":"8240","city":"Thayngen","gaultmillau":"","latitude":"47.7538","longitude":"8.69376","distance":"0"},"623":{"id":"1107","real_name":"Lamm","url_name":"lamm","address":"Frauenfelderstrasse 73","zip":"8252","city":" Schlatt TG","gaultmillau":"","latitude":"47.6616","longitude":"8.703","distance":"0"},"624":{"id":"1108","real_name":"Rother Ochsen","url_name":"rother-ochsen","address":"Rathausplatz 9","zip":"8260","city":"Stein am Rhein","gaultmillau":"","latitude":"47.6593","longitude":"8.85923","distance":"0"},"625":{"id":"1111","real_name":"Chlosterhof","url_name":"chlosterhof","address":"Oehningerstrasse 2 ","zip":"8260","city":"Stein am Rhein","gaultmillau":"","latitude":"47.6592","longitude":"8.86135","distance":"0"},"626":{"id":"1121","real_name":"Rheingerbe","url_name":"rheingerbe","address":"Schiffl\u00e4ndi 5","zip":"8260","city":"Stein am Rhein","gaultmillau":"","latitude":"47.6596","longitude":"8.85774","distance":"0"},"627":{"id":"1230","real_name":"Adler","url_name":"adler-ermatingen","address":"Fruthwilerstrasse 2+4","zip":"8272","city":"Ermatingen","gaultmillau":"","latitude":"47.6691","longitude":"9.07969","distance":"0"},"628":{"id":"1210","real_name":"Bahnhof Post","url_name":"bahnhof-post","address":"Nationalstrasse 2","zip":"8280","city":"Kreuzlingen","gaultmillau":"","latitude":"47.6522","longitude":"9.16893","distance":"0"},"629":{"id":"1101","real_name":"Jakobsh\u00f6he","url_name":"jakobshohe","address":"Bergstrasse 46","zip":"8280","city":"Kreuzlingen","gaultmillau":"14","latitude":"47.6407","longitude":"9.16618","distance":"0"},"630":{"id":"1116","real_name":"Gr\u00f6deli","url_name":"grodeli","address":"Konstanzerstrasse 58","zip":"8280","city":"Kreuzlingen","gaultmillau":"","latitude":"47.6499","longitude":"9.16408","distance":"0"},"631":{"id":"1228","real_name":"Blue American Bar","url_name":"blue-american-bar","address":"Hauptstrasse 34","zip":"8280","city":"Kreuzlingen","gaultmillau":"","latitude":"47.6513","longitude":"9.17412","distance":"0"},"632":{"id":"1229","real_name":"Hafenrestaurant Alti Badi","url_name":"hafenrestaurant-alti-badi","address":"Seestrasse 45","zip":"8280","city":"Kreuzlingen","gaultmillau":"","latitude":"47.6516","longitude":"9.18039","distance":"0"},"633":{"id":"781","real_name":"Pasta e Pizza Kloten","url_name":"wilden-mann","address":"Schaffhauserstrasse 157","zip":"8302 ","city":"Kloten","gaultmillau":"","latitude":"47.4538","longitude":"8.57959","distance":"0"},"634":{"id":"1154","real_name":"Yooji`s Glattzentrum","url_name":"yoojis-glattzentrum","address":"Glattzentrum, neue Winterthurerstrasse 99","zip":"8304","city":"Wallisellen","gaultmillau":"","latitude":"47.4091","longitude":"8.59574","distance":"0"},"635":{"id":"1208","real_name":"La Colina","url_name":"la-colina","address":"Kleinikon 11 ","zip":"8312","city":"Winterberg ZH ","gaultmillau":"","latitude":"47.458","longitude":"8.68509","distance":"0"},"636":{"id":"1028","real_name":"Heidelberg","url_name":"heidelberg","address":"Sch\u00fctzenstrasse 45","zip":"8355","city":"Aadorf","gaultmillau":"","latitude":"47.4961","longitude":"8.90338","distance":"0"},"637":{"id":"367","real_name":"Giardino Glashaus","url_name":"giardino-glashaus","address":"T\u00f6sstalstrasse 70","zip":"8400","city":"Winterthur","gaultmillau":"","latitude":"47.4943","longitude":"8.73981","distance":"0"},"638":{"id":"249","real_name":"Bistro la Couronne - Hotel Krone","url_name":"bistro-la-couronne","address":"Marktgasse 49","zip":"8400","city":"Winterthur","gaultmillau":"","latitude":"47.4994","longitude":"8.72739","distance":"0"},"639":{"id":"250","real_name":"Pearl","url_name":"pearl","address":"Marktgasse 49","zip":"8400","city":"Winterthur","gaultmillau":"16","latitude":"47.4995","longitude":"8.7272","distance":"0"},"640":{"id":"256","real_name":"San Remo","url_name":"san-remo","address":"Brunngasse 35","zip":"8400","city":"Winterthur","gaultmillau":"","latitude":"47.5072","longitude":"8.72568","distance":"0"},"641":{"id":"268","real_name":"Concordia","url_name":"concordia","address":"Feldstrasse 2 ","zip":"8400","city":"Winterthur","gaultmillau":"","latitude":"47.5091","longitude":"8.71719","distance":"0"},"642":{"id":"270","real_name":"Tom Tom","url_name":"tom-tom","address":"Metzggasse 10","zip":"8400","city":"Winterthur","gaultmillau":"","latitude":"47.4987","longitude":"8.72799","distance":"0"},"643":{"id":"271","real_name":"Fahrenheit","url_name":"fahrenheit","address":"steinberggasse 65","zip":"8400","city":"Winterthur","gaultmillau":"","latitude":"47.4984","longitude":"8.72688","distance":"0"},"644":{"id":"275","real_name":"La Pergola","url_name":"la-pergola","address":"Stadthausstr. 71","zip":"8400","city":"Winterthur","gaultmillau":"","latitude":"47.5001","longitude":"8.72923","distance":"0"},"645":{"id":"276","real_name":"Banana City","url_name":"banana-city","address":"Schaffhauserstrasse 8a","zip":"8400","city":"Winterthur","gaultmillau":"","latitude":"47.5045","longitude":"8.7254","distance":"0"},"646":{"id":"280","real_name":"La Torre","url_name":"la-torre","address":"Archstrasse 12","zip":"8400","city":"Winterthur","gaultmillau":"","latitude":"47.4979","longitude":"8.72353","distance":"0"},"647":{"id":"284","real_name":"Bistro im Rathaus","url_name":"bistro-im-rathaus","address":"Marktgasse 20","zip":"8400","city":"Winterthur","gaultmillau":"","latitude":"47.5","longitude":"8.7299","distance":"0"},"648":{"id":"286","real_name":"Bloom","url_name":"bloom","address":"Stadthausstrasse 4","zip":"8400","city":"Winterthur","gaultmillau":"","latitude":"47.501","longitude":"8.73291","distance":"0"},"649":{"id":"287","real_name":"Tres Amigos","url_name":"tres-amigos","address":"Stadthausstrasse 8b","zip":"8400","city":"Winterthur","gaultmillau":"","latitude":"47.5006","longitude":"8.72716","distance":"0"},"650":{"id":"371","real_name":"Bagels","url_name":"bagels","address":"Oberer Graben 8","zip":"8400","city":"Winterthur","gaultmillau":"","latitude":"47.4987","longitude":"8.7314","distance":"0"},"651":{"id":"337","real_name":"Insieme","url_name":"insieme","address":"Steinberggasse 24","zip":"8400","city":"Winterthur","gaultmillau":"","latitude":"47.4985","longitude":"8.7288","distance":"0"},"652":{"id":"352","real_name":"Sch\u00e4fli","url_name":"schafli","address":"Oberer Graben 18","zip":"8400","city":"Winterthur","gaultmillau":"","latitude":"47.499","longitude":"8.7314","distance":"0"},"653":{"id":"319","real_name":"Gambrinus","url_name":"gambrinus","address":"Wartstrasse 32","zip":"8400","city":"Winterthur","gaultmillau":"","latitude":"47.5015","longitude":"8.72077","distance":"0"},"654":{"id":"341","real_name":"Gutschick","url_name":"gutschick","address":"Scheideggstrasse 10","zip":"8400","city":"Winterthur","gaultmillau":"","latitude":"47.4917","longitude":"8.75016","distance":"0"},"655":{"id":"338","real_name":"Platino","url_name":"platino","address":"Steinberggasse 54","zip":"8400","city":"Winterthur","gaultmillau":"","latitude":"47.4984","longitude":"8.72726","distance":"0"},"656":{"id":"340","real_name":"Coalmine","url_name":"coalmine","address":"Turnerstrasse 1","zip":"8400","city":"Winterthur","gaultmillau":"","latitude":"47.5004","longitude":"8.72526","distance":"0"},"657":{"id":"342","real_name":"Hermannseck","url_name":"hermannseck","address":"Hermannstrasse 15","zip":"8400","city":"Winterthur","gaultmillau":"","latitude":"47.4981","longitude":"8.74096","distance":"0"},"658":{"id":"372","real_name":"New Point","url_name":"new-point-winterthur","address":"Bahnhofplatz 7","zip":"8400","city":"Winterthur","gaultmillau":"","latitude":"47.5003","longitude":"8.724","distance":"0"},"659":{"id":"376","real_name":"R\u00f6merpark","url_name":"romerpark","address":"Pflanzschulstrasse 36","zip":"8400","city":"Winterthur","gaultmillau":"","latitude":"47.4988","longitude":"8.74042","distance":"0"},"660":{"id":"588","real_name":"Gotthard1900","url_name":"gotthard","address":"Untertor 34","zip":"8400 ","city":"Winterthur","gaultmillau":"","latitude":"47.4993","longitude":"8.72416","distance":"0"},"661":{"id":"742","real_name":"Aquarius","url_name":"aquarius","address":"Neumarkt 11","zip":"8400","city":"Winterthur","gaultmillau":"","latitude":"47.4988","longitude":"8.72588","distance":"0"},"662":{"id":"603","real_name":"Cotton Corner Bar","url_name":"cotton-corner-bar","address":"Merkurstrasse 23","zip":"8400","city":"Winterthur","gaultmillau":"","latitude":"47.5014","longitude":"8.726","distance":"0"},"663":{"id":"656","real_name":"Bistro Villa Str\u00e4uli","url_name":"bistro-villa-strauli","address":"Museumstrasse 60","zip":"8400","city":"Winterthur","gaultmillau":"","latitude":"47.5017","longitude":"8.72882","distance":"0"},"664":{"id":"648","real_name":"Alltag","url_name":"alltag","address":"Unterer Graben 25","zip":"8400","city":"Winterthur","gaultmillau":"","latitude":"47.4994","longitude":"8.73106","distance":"0"},"665":{"id":"649","real_name":"Kafisatz","url_name":"kafisatz","address":"Spitalgasse 1","zip":"8400","city":"Winterthur","gaultmillau":"","latitude":"47.4989","longitude":"8.72746","distance":"0"},"666":{"id":"928","real_name":"Zum L\u00f6wen","url_name":"zum-lowen","address":"L\u00f6wenstrasse 16","zip":"8400","city":"Winterthur","gaultmillau":"","latitude":"47.5085","longitude":"8.71863","distance":"0"},"667":{"id":"1127","real_name":"Boilerroom","url_name":"boilerroom","address":"Z\u00fcrcherstrasse 1 + 3","zip":"8400","city":"Winterthur","gaultmillau":"","latitude":"47.4985","longitude":"8.72114","distance":"0"},"668":{"id":"1128","real_name":"Yooji`s Kesselhaus","url_name":"yoojis-sushi-sins-take-away","address":"Z\u00fcrcherstrasse 1 + 3","zip":"8400","city":"Winterthur","gaultmillau":"","latitude":"47.4985","longitude":"8.72114","distance":"0"},"669":{"id":"1134","real_name":"Stella del Centro","url_name":"stella-del-centro","address":"Marktgasse 61","zip":"8400","city":"Winterthur","gaultmillau":"","latitude":"47.4993","longitude":"8.72667","distance":"0"},"670":{"id":"1201","real_name":"Bruderhaus","url_name":"bruderhaus","address":"Bruderhausstrasse 1 ","zip":"8400","city":"Winterthur","gaultmillau":"","latitude":"47.4771","longitude":"8.72616","distance":"0"},"671":{"id":"647","real_name":"Loge","url_name":"loge","address":"Oberer Graben 6","zip":"8402","city":"Winterthur","gaultmillau":"","latitude":"47.4986","longitude":"8.7314","distance":"0"},"672":{"id":"1174","real_name":"Sonneck","url_name":"sonneck","address":"R\u00f6merstrasse 159","zip":"8404","city":"Winterthur","gaultmillau":"","latitude":"47.5074","longitude":"8.75436","distance":"0"},"673":{"id":"1150","real_name":"Gasthof Gr\u00fcntal","url_name":"gasthof-gruntal","address":"Im Gr\u00fcntal 1","zip":"8405","city":"Winterthur","gaultmillau":"","latitude":"47.4807","longitude":"8.77164","distance":"0"},"674":{"id":"191","real_name":"Hotel Zentrum T\u00f6ss","url_name":"hotel-zentrum-toss","address":"Z\u00fcrcherstrasse 106","zip":"8406","city":"Winterthur","gaultmillau":"","latitude":"47.4916","longitude":"8.70608","distance":"0"},"675":{"id":"320","real_name":"Billabong","url_name":"billabong","address":"Z\u00fcrcherstrasse 260","zip":"8406","city":"Winterthur","gaultmillau":"","latitude":"47.4844","longitude":"8.70259","distance":"0"},"676":{"id":"339","real_name":"La Mirada","url_name":"la-mirada","address":"Z\u00fcrcherstrasse 208","zip":"8406","city":"Winterthur","gaultmillau":"","latitude":"47.4892","longitude":"8.7028","distance":"0"},"677":{"id":"894","real_name":"Restaurant Bahnhof T\u00f6ss","url_name":"restaurant-bahnhof","address":"Agnesstrasse 65","zip":"8406","city":"Winterthur","gaultmillau":"","latitude":"47.4901","longitude":"8.70917","distance":"0"},"678":{"id":"621","real_name":"Sporrer","url_name":"sporrer","address":"Im Sporrer 1","zip":"8408","city":"Winterthur-W\u00fclflingen","gaultmillau":"","latitude":"47.5177","longitude":"8.69171","distance":"0"},"679":{"id":"975","real_name":"Taverne zum Hirschen","url_name":"taverne-zum-hirschen","address":"Lindenplatz 2","zip":"8408","city":"Winterthur","gaultmillau":"","latitude":"47.5109","longitude":"8.69444","distance":"0"},"680":{"id":"826","real_name":"Gasthof zum Hirschen","url_name":"gasthof-zum-hirschen","address":"Steigstrasse 4","zip":"8477","city":"Oberstammheim","gaultmillau":"","latitude":"47.632","longitude":"8.80139","distance":"0"},"681":{"id":"1080","real_name":"Pl\u00e4ttli-Zoo","url_name":"plattli","address":"Hertenstrasse 41","zip":"8500","city":"Frauenfeld","gaultmillau":"","latitude":"47.5605","longitude":"8.91577","distance":"0"},"682":{"id":"994","real_name":"Brauhaus","url_name":"brauhaus","address":"Hohenzornstrasse 2","zip":"8500","city":"Frauenfeld","gaultmillau":"","latitude":"47.5585","longitude":"8.90057","distance":"0"},"683":{"id":"995","real_name":"Goldenes Kreuz","url_name":"goldenes-kreuz","address":"Z\u00fcrcherstrasse 134","zip":"8500","city":"Frauenfeld","gaultmillau":"14","latitude":"47.5542","longitude":"8.89522","distance":"0"},"684":{"id":"996","real_name":"Pergola-Gartenlaube","url_name":"pergola-gartenlaube","address":"Bahnhofstrasse 98","zip":"8500","city":"Frauenfeld","gaultmillau":"","latitude":"47.5609","longitude":"8.90232","distance":"0"},"685":{"id":"998","real_name":"Hoffnung","url_name":"hoffnung","address":"Schaffhauserstrasse 266","zip":"8500","city":"Frauenfeld","gaultmillau":"","latitude":"47.5687","longitude":"8.84782","distance":"0"},"686":{"id":"1014","real_name":"5","url_name":"5-frauenfeld","address":"Altweg 16","zip":"8500","city":"Frauenfeld","gaultmillau":"","latitude":"47.5552","longitude":"8.89297","distance":"0"},"687":{"id":"1026","real_name":"Barbarossa","url_name":"barbarossa","address":"Zeughausstrasse 4","zip":"8500","city":"Frauenfeld","gaultmillau":"","latitude":"47.5597","longitude":"8.90086","distance":"0"},"688":{"id":"1106","real_name":"Thaispezialit\u00e4ten im Kehlhof","url_name":"kehlhof","address":"Bahnhofstrasse 102","zip":"8500","city":"Frauenfeld","gaultmillau":"","latitude":"47.561","longitude":"8.90354","distance":"0"},"689":{"id":"1109","real_name":"la Terasse","url_name":"la-terasse","address":"Grabenstrasse 8","zip":"8500","city":"Frauenfeld","gaultmillau":"","latitude":"47.3709","longitude":"8.53921","distance":"0"},"690":{"id":"1110","real_name":"B\u00fcrgerstube","url_name":"burgerstube-frauenfeld","address":"Rathausplatz 4","zip":"8500","city":"Frauenfeld","gaultmillau":"","latitude":"47.5554","longitude":"8.89748","distance":"0"},"691":{"id":"1185","real_name":"Blumenstein \/ Cafe Papillon","url_name":"blumenstein-cafe-papillon","address":"Bahnhofplatz \/ Oberstadtstrasse 4","zip":"8500","city":"Frauenfeld","gaultmillau":"","latitude":"47.5577","longitude":"8.89655","distance":"0"},"692":{"id":"1017","real_name":"Domicil","url_name":"domicil","address":"Oststrasse 51","zip":"8503","city":"Frauenfeld","gaultmillau":"","latitude":"47.5701","longitude":"8.90479","distance":"0"},"693":{"id":"1041","real_name":"Storchen","url_name":"storchen","address":"Gemeindehausstrasse 8","zip":"8542","city":"Wiesendangen","gaultmillau":"","latitude":"47.5217","longitude":"8.78723","distance":"0"},"694":{"id":"1224","real_name":"Lindenhof","url_name":"lindenhof","address":"Hauptstrasse 39","zip":"8543","city":"Gundetswil","gaultmillau":"","latitude":"47.5404","longitude":"8.82325","distance":"0"},"695":{"id":"1019","real_name":"Schwanen","url_name":"schwanen","address":"Weinfelderstrasse  14","zip":"8552","city":"Felben-Wellhausen","gaultmillau":"","latitude":"47.5731","longitude":"8.94593","distance":"0"},"696":{"id":"1004","real_name":"Thurtal","url_name":"thurtal","address":"Hauptstrasse 19","zip":"8553","city":"Eschikofen TG","gaultmillau":"","latitude":"47.5808","longitude":"9.00648","distance":"0"},"697":{"id":"1034","real_name":"Wartegg","url_name":"wartegg","address":"M\u00fcllheimerstrasse 5","zip":"8554","city":"M\u00fcllheim-Wigoltingen","gaultmillau":"","latitude":"47.5886","longitude":"9.01388","distance":"0"},"698":{"id":"1001","real_name":"Wellnesshotel Golf Panorama","url_name":"wellnesshotel-golf-panorama","address":"Golfpanorama 6","zip":"8564","city":"Lipperswil","gaultmillau":"","latitude":"47.6219","longitude":"9.05869","distance":"0"},"699":{"id":"1000","real_name":"Gambrinus","url_name":"gambrinus-weinfelden","address":"Marktstrasse 2","zip":"8570","city":"Weinfelden","gaultmillau":"","latitude":"47.5672","longitude":"9.10898","distance":"0"},"700":{"id":"1003","real_name":"Eisenbahn","url_name":"eisenbahn","address":"Bahnhofstrasse 2","zip":"8570","city":"Weinfelden","gaultmillau":"","latitude":"47.5659","longitude":"9.10796","distance":"0"},"701":{"id":"1005","real_name":"Thurberg","url_name":"thurberg","address":"Thurbergstrasse 29","zip":"8570","city":"Weinfelden","gaultmillau":"","latitude":"47.5821","longitude":"9.10047","distance":"0"},"702":{"id":"1103","real_name":"zum L\u00f6wen","url_name":"zum-lowen-weinfelden","address":"Rathausstrasse 8","zip":"8570","city":"Weinfelden","gaultmillau":"14","latitude":"47.5684","longitude":"9.10952","distance":"0"},"703":{"id":"1007","real_name":"Gasthof B\u00e4ren ","url_name":"hotel-restaurant-baren","address":"Marktplatz 5 ","zip":"8580 ","city":"Amriswil ","gaultmillau":"","latitude":"47.5455","longitude":"9.29864","distance":"0"},"704":{"id":"1182","real_name":"Pizzeria Eufrat","url_name":"pizzeria-eufrat","address":"Kreuzlingerstrasse 51","zip":"8580","city":"Amriswil","gaultmillau":"","latitude":"47.5484","longitude":"9.27561","distance":"0"},"705":{"id":"1115","real_name":"Inseli","url_name":"inseli","address":"Inselistrasse 6","zip":"8590","city":"Romanshorn","gaultmillau":"","latitude":"47.5703","longitude":"9.38129","distance":"0"},"706":{"id":"1179","real_name":"Seem\u00f6we","url_name":"seemowe","address":"Hauptstrasse 54","zip":"8594","city":"G\u00fcttingen","gaultmillau":"","latitude":"47.6063","longitude":"9.2839","distance":"0"},"707":{"id":"1022","real_name":"Krone am See","url_name":"krone-am-see","address":"Hafenstrasse 13","zip":"8595","city":"Altnau","gaultmillau":"","latitude":"47.6227","longitude":"9.26759","distance":"0"},"708":{"id":"110","real_name":"Brunnentor","url_name":"brunnentor","address":"Brunnenstrasse 21","zip":"8610","city":"Uster","gaultmillau":"","latitude":"47.3497","longitude":"8.71942","distance":"0"},"709":{"id":"762","real_name":"Le Jardin ","url_name":"le-jardin-rapperswil","address":"Seequai 1","zip":"8640","city":"Rapperswil","gaultmillau":"","latitude":"47.2261","longitude":"8.81413","distance":"0"},"710":{"id":"763","real_name":"De Medici","url_name":"de-medici","address":"Fischmarktstrasse 8","zip":"8640","city":"Rapperswil","gaultmillau":"","latitude":"47.2259","longitude":"8.81645","distance":"0"},"711":{"id":"764","real_name":"La Finca","url_name":"la-finca","address":"Kluggasse 4","zip":"8640","city":"Rapperswil","gaultmillau":"","latitude":"47.227","longitude":"8.81672","distance":"0"},"712":{"id":"765","real_name":"Villa Aurum","url_name":"villa-aurum","address":"alte Jonastrasse 23","zip":"8640","city":"Rapperswil","gaultmillau":"","latitude":"47.2294","longitude":"8.82341","distance":"0"},"713":{"id":"778","real_name":"Marsala \/ San Marco","url_name":"marsala-san-marco","address":"Marktgasse 21","zip":"8640","city":"Rapperswil","gaultmillau":"","latitude":"47.2261","longitude":"8.81485","distance":"0"},"714":{"id":"790","real_name":"Rathaus","url_name":"rathaus","address":"Hauptplatz 1","zip":"8640","city":"Rapperswil","gaultmillau":"","latitude":"47.2263","longitude":"8.81633","distance":"0"},"715":{"id":"825","real_name":"Manora Rapperswil","url_name":"manora-rapperswil","address":"Neue Jonastrasse 20","zip":"8640","city":"Rapperswil","gaultmillau":"","latitude":"47.2267","longitude":"8.81877","distance":"0"},"716":{"id":"234","real_name":"Rico's Kunststuben","url_name":"petermanns-kunststuben","address":"Seestrasse 160","zip":"8700","city":"K\u00fcsnacht","gaultmillau":"19","latitude":"47.3155","longitude":"8.57993","distance":"0"},"717":{"id":"947","real_name":"Sonnengalerie - Sonne Romantik Seehotel","url_name":"sonnengalerie-romantik-seehotel-sonne","address":"Seestrasse 120","zip":"8700","city":"Z\u00fcrich-K\u00fcsnacht","gaultmillau":"","latitude":"47.3189","longitude":"8.57912","distance":"0"},"718":{"id":"811","real_name":"Falken","url_name":"falken","address":"Dorfstrasse 22","zip":"8700","city":"K\u00fcsnacht","gaultmillau":"","latitude":"47.3175","longitude":"8.58197","distance":"0"},"719":{"id":"883","real_name":"Steinburg","url_name":"steinburg","address":"Seestrasse 110","zip":"8700","city":"K\u00fcsnacht","gaultmillau":"14","latitude":"47.3205","longitude":"8.57851","distance":"0"},"720":{"id":"948","real_name":"Gaststuben - Sonne Romantik Seehotel","url_name":"gaststuben-romantik-seehotel-sonne","address":"Seestrasse 120","zip":"8700","city":"Z\u00fcrich-K\u00fcsnacht","gaultmillau":"","latitude":"47.3191","longitude":"8.57892","distance":"0"},"721":{"id":"800","real_name":"Pflugstein","url_name":"pflugstein","address":"Pflugsteinstrasse 71","zip":"8703","city":"Erlenbach","gaultmillau":"13","latitude":"47.297","longitude":"8.60823","distance":"0"},"722":{"id":"812","real_name":"Buech","url_name":"buech","address":"Forchstrasse","zip":"8704","city":"Herrliberg","gaultmillau":"","latitude":"47.2886","longitude":"8.62967","distance":"0"},"723":{"id":"856","real_name":"Kittenm\u00fchle","url_name":"kittenmuhle","address":"Kappelistrasse 40","zip":"8704","city":"Herrliberg","gaultmillau":"","latitude":"47.3018","longitude":"8.61094","distance":"0"},"724":{"id":"855","real_name":"L\u00f6wen Meilen","url_name":"lowen-meilen","address":"Seestrasse 595","zip":"8706","city":"Meilen","gaultmillau":"","latitude":"47.268","longitude":"8.64039","distance":"0"},"725":{"id":"782","real_name":"Krone","url_name":"krone-uetikon-am-see","address":"Seestrasse 117","zip":"8707 ","city":"Uetikon am See","gaultmillau":"","latitude":"47.2597","longitude":"8.67612","distance":"0"},"726":{"id":"1131","real_name":"Gasthof zur Metzg","url_name":"gasthof-zur-metzg","address":"Bergstrasse 82","zip":"8712","city":"St\u00e4fa","gaultmillau":"","latitude":"47.2453","longitude":"8.72605","distance":"0"},"727":{"id":"1052","real_name":"Landgasthof Sternen","url_name":"landgasthof-sternen","address":"Liessenstrasse 10","zip":"8717 ","city":"Benken SG","gaultmillau":"","latitude":"47.196","longitude":"9.00633","distance":"0"},"728":{"id":"1036","real_name":"Restaurant Speer","url_name":"restaurant-speer","address":"Dorfstrasse 10","zip":"8722","city":"Kaltbrunn","gaultmillau":"","latitude":"47.2143","longitude":"9.02544","distance":"0"},"729":{"id":"1037","real_name":"Kunsthof","url_name":"kunsthof","address":"Z\u00fcrcherstrasse 28","zip":"8730","city":"Uznach","gaultmillau":"","latitude":"47.2272","longitude":"8.97952","distance":"0"},"730":{"id":"1047","real_name":"Berggasthaus Schwammh\u00f6he","url_name":"berggasthaus-schwammhohe","address":"Im K\u00f6ntal","zip":"8750","city":"Glarus","gaultmillau":"","latitude":"47.027","longitude":"8.93094","distance":"0"},"731":{"id":"1029","real_name":"Glarnerhof","url_name":"glarnerhof","address":"Bahnhofstrasse 2","zip":"8750","city":"Glarus","gaultmillau":"","latitude":"47.0405","longitude":"9.07054","distance":"0"},"732":{"id":"1053","real_name":"Restaurant Bergli","url_name":"restaurant-bergli","address":"Berglistrasse","zip":"8750","city":"Glarus","gaultmillau":"","latitude":"47.0451","longitude":"9.0587","distance":"0"},"733":{"id":"1167","real_name":"Hotel Schwert","url_name":"hotel-schwert","address":"Im Dorf 20","zip":"8752","city":"N\u00e4fels","gaultmillau":"","latitude":"47.099","longitude":"9.06279","distance":"0"},"734":{"id":"1173","real_name":"Restaurant Freihof","url_name":"restaurant-freihof","address":"Oberdorf 67","zip":"8752","city":"N\u00e4fels","gaultmillau":"","latitude":"47.0945","longitude":"9.06076","distance":"0"},"735":{"id":"1033","real_name":"Schwert Netstal","url_name":"schwert-netstal","address":"Landstrasse 13a","zip":"8754","city":"Netstal","gaultmillau":"","latitude":"47.0649","longitude":"9.05604","distance":"0"},"736":{"id":"1050","real_name":"Restaurant Horgenberg","url_name":"restaurant-horgenberg","address":"Horgenberg 5","zip":"8756","city":"Mitl\u00f6di","gaultmillau":"","latitude":"47.0229","longitude":"9.07938","distance":"0"},"737":{"id":"1031","real_name":"Seminar- und Erlebnishotel R\u00f6merturm","url_name":"seminar-und-erlebnishotel-romerturm","address":"Vordemwald","zip":"8757","city":"Filzbach\/Kerenzerberg","gaultmillau":"","latitude":"47.1238","longitude":"9.12603","distance":"0"},"738":{"id":"1038","real_name":"Brauereigasthof Adler","url_name":"brauereigasthof-adler","address":"Hauptstrasse 34","zip":"8762","city":"Schwanden","gaultmillau":"","latitude":"46.9958","longitude":"9.07526","distance":"0"},"739":{"id":"119","real_name":"Oberer M\u00f6nchhof","url_name":"oberer-monchhof","address":"Alte Landstrasse 98","zip":"8802","city":"Kilchberg","gaultmillau":"","latitude":"47.3259","longitude":"8.54485","distance":"0"},"740":{"id":"117","real_name":"Chez Fritz","url_name":"chez-fritz","address":"Seestrasse 195b","zip":"8802","city":"Kilchberg","gaultmillau":"","latitude":"47.3189","longitude":"8.5521","distance":"0"},"741":{"id":"642","real_name":"Gasthof Rose","url_name":"gasthof-rose","address":"Dorfstrasse 42","zip":"8803","city":"R\u00fcschlikon","gaultmillau":"","latitude":"47.3089","longitude":"8.55527","distance":"0"},"742":{"id":"683","real_name":"Seerestaurant Tracht","url_name":"seerestaurant-tracht","address":"Seestrasse 25","zip":"8803","city":"R\u00fcschlikon","gaultmillau":"","latitude":"47.3123","longitude":"8.55678","distance":"0"},"743":{"id":"1104","real_name":"Restaurant - Hotel Belvoir","url_name":"restaurant-hotel-belvoir","address":"S\u00e4umerstrasse 37","zip":"8803","city":"R\u00fcschlikon","gaultmillau":"","latitude":"47.3061","longitude":"8.55025","distance":"0"},"744":{"id":"1105","real_name":"Grill - Hotel Belvoir","url_name":"grill-hotel-belvoir","address":"S\u00e4umerstrasse 37","zip":"8803","city":"R\u00fcschlikon","gaultmillau":"","latitude":"47.3061","longitude":"8.55025","distance":"0"},"745":{"id":"802","real_name":"Punto - Seedamm Plaza","url_name":"punto-seedamm-plaza","address":"Seedammstrasse 3","zip":"8808","city":"Pf\u00e4ffikon","gaultmillau":"","latitude":"47.2028","longitude":"8.79012","distance":"0"},"746":{"id":"803","real_name":"Pur - Seedamm Plaza","url_name":"pur-seedamm-plaza","address":"Seedammstrasse 3","zip":"8808","city":"Pf\u00e4ffikon","gaultmillau":"15","latitude":"47.2033","longitude":"8.78976","distance":"0"},"747":{"id":"804","real_name":"Nippon Sun - Seedamm Plaza","url_name":"nippon-sun-seedamm-plaza","address":"Seedammstrasse 13","zip":"8808","city":"Pf\u00e4ffikon","gaultmillau":"","latitude":"47.2029","longitude":"8.78916","distance":"0"},"748":{"id":"770","real_name":"Chalet India","url_name":"chalet-india","address":"Oberdorfstrasse 51","zip":"8810","city":"Horgen","gaultmillau":"","latitude":"47.2585","longitude":"8.59064","distance":"0"},"749":{"id":"954","real_name":"Hotel du Lac","url_name":"hotel-du-lac","address":"Seestrasse 100","zip":"8820","city":"W\u00e4denswil","gaultmillau":"","latitude":"47.2284","longitude":"8.67517","distance":"0"},"750":{"id":"971","real_name":"OX Asian Cuisine - Marina Lachen","url_name":"ox-asian-cuisine-marina-lachen","address":"Hafenstrasse 4","zip":"8853","city":"Lachen","gaultmillau":"","latitude":"47.1932","longitude":"8.8511","distance":"0"},"751":{"id":"970","real_name":"The Steakhouse - Marina Lachen","url_name":"the-steakhouse-marina-lachen","address":"Hafenstrasse 4","zip":"8853","city":"Lachen","gaultmillau":"","latitude":"47.1937","longitude":"8.85176","distance":"0"},"752":{"id":"972","real_name":"Osteria Vista - Marina Lachen","url_name":"osteria-vista-marina-lachen","address":"Hafenstrasse 4","zip":"8853","city":"Lachen","gaultmillau":"","latitude":"47.1934","longitude":"8.85151","distance":"0"},"753":{"id":"1055","real_name":"Flyhof","url_name":"flyhof","address":"Betliserstrasse","zip":"8872 ","city":"Weesen","gaultmillau":"","latitude":"47.1396","longitude":"9.11432","distance":"0"},"754":{"id":"1030","real_name":"Fischerstube Weesen","url_name":"fischerstube-weesen","address":"Marktgasse 9","zip":"8872","city":"Weesen","gaultmillau":"","latitude":"47.1354","longitude":"9.0974","distance":"0"},"755":{"id":"1049","real_name":"Brasserie Du Lac","url_name":"parkhotel-shwert-brasserie-du-lac","address":"Hauptstrasse 23","zip":"8872","city":"Weesen","gaultmillau":"","latitude":"47.1351","longitude":"9.09773","distance":"0"},"756":{"id":"1051","real_name":"Landgasthaus Bi\u00e4sche","url_name":"landgasthaus-biasche","address":"Seeflechsenstrasse 1","zip":"8872","city":"Weesen","gaultmillau":"","latitude":"47.1312","longitude":"9.08678","distance":"0"},"757":{"id":"1048","real_name":"Hotel R\u00f6ssli Murg","url_name":"hotel-rossli-murg","address":"R\u00f6sslistrasse 2","zip":"8877","city":"Murg","gaultmillau":"","latitude":"47.1118","longitude":"9.21965","distance":"0"},"758":{"id":"1194","real_name":"Resort Walensee","url_name":"resort-walensee","address":"Gostenstrasse 20","zip":"8882","city":"Walensee","gaultmillau":"","latitude":"47.1147","longitude":"9.25669","distance":"0"},"759":{"id":"739","real_name":"Casa Mediterranea","url_name":"casa-mediterranea","address":"Schlierenstrasse 9","zip":"8902","city":"Urdorf","gaultmillau":"","latitude":"47.3914","longitude":"8.42645","distance":"0"},"760":{"id":"952","real_name":"Key West","url_name":"key-west","address":"Seestrasse 31","zip":"8942","city":"Oberrieden","gaultmillau":"","latitude":"47.2783","longitude":"8.58175","distance":"0"},"761":{"id":"583","real_name":"Salmen Schlieren","url_name":"salmen-schlieren","address":"Uitikonerstrasse 17","zip":"8952","city":"Schlieren","gaultmillau":"","latitude":"47.3959","longitude":"8.44825","distance":"0"},"762":{"id":"1213","real_name":"Mojito","url_name":"mojito","address":"Bernstrasse 15","zip":"8952","city":"Schlieren","gaultmillau":"","latitude":"47.4008","longitude":"8.4623","distance":"0"},"763":{"id":"643","real_name":"Linde Bakery & Bistro","url_name":"linde-bakery-bistro","address":"Badenerstrasse 7","zip":"8953","city":"Dietikon","gaultmillau":"","latitude":"47.4054","longitude":"8.39875","distance":"0"},"764":{"id":"780","real_name":"Pasta e Pizza Dietikon","url_name":"pasta-e-pizza-dietikon","address":"Lerzenstrasse 19b","zip":"8953","city":"Dietikon","gaultmillau":"","latitude":"47.4189","longitude":"8.39735","distance":"0"},"765":{"id":"901","real_name":"Manora Spreitenbach","url_name":"manora-spreitenbach","address":"Shopping-Center","zip":"8957","city":"Spreitenbach","gaultmillau":"","latitude":"47.4216","longitude":"8.3688","distance":"0"},"766":{"id":"589","real_name":"90Grad","url_name":"90grad","address":"Am Bohl 2","zip":"9000","city":"St. Gallen","gaultmillau":"","latitude":"47.4261","longitude":"9.37631","distance":"0"},"767":{"id":"604","real_name":"Goldener Ochsen","url_name":"goldener-ochsen","address":"Unterstrasse 57","zip":"9000","city":"St. Gallen","gaultmillau":"","latitude":"47.4182","longitude":"9.3659","distance":"0"},"768":{"id":"605","real_name":"Falkenburg","url_name":"falkenburg","address":"Falkenburgstrasse 25","zip":"9000","city":"St. Gallen","gaultmillau":"","latitude":"47.4185","longitude":"9.37534","distance":"0"},"769":{"id":"622","real_name":"Schl\u00f6ssli","url_name":"schlossli","address":"Zeughausgasse 17","zip":"9000","city":"St. Gallen","gaultmillau":"14","latitude":"47.4243","longitude":"9.37901","distance":"0"},"770":{"id":"623","real_name":"Einstein St.Gallen, Caf E. Bistro","url_name":"einstein","address":"Wassergasse 5 ","zip":"9000","city":"St. Gallen","gaultmillau":"","latitude":"47.4216","longitude":"9.37462","distance":"0"},"771":{"id":"626","real_name":"Weinstube zum B\u00e4umli ","url_name":"weinstube-zum-baumli","address":"Schmiedgasse 18 ","zip":"9000","city":"St. Gallen","gaultmillau":"","latitude":"47.4241","longitude":"9.3757","distance":"0"},"772":{"id":"632","real_name":"Am Spisertor","url_name":"am-spisertor","address":"Moosbruggstrasse 1","zip":"9000","city":"St. Gallen","gaultmillau":"","latitude":"47.4242","longitude":"9.37992","distance":"0"},"773":{"id":"659","real_name":"Schoren","url_name":"schoren","address":"Dufourstrasse 150","zip":"9000","city":"St. Gallen","gaultmillau":"14","latitude":"47.4228","longitude":"9.35809","distance":"0"},"774":{"id":"691","real_name":"News Caf\u00e9BAR","url_name":"news-cafebar","address":"Oberer Graben 8","zip":"9000","city":"St. Gallen","gaultmillau":"","latitude":"47.4253","longitude":"9.37406","distance":"0"},"775":{"id":"882","real_name":"Carpe Diem...","url_name":"carpe-diem","address":"St. Jakobstrasse 87","zip":"9000","city":"St. Gallen","gaultmillau":"","latitude":"47.4326","longitude":"9.38269","distance":"0"},"776":{"id":"1023","real_name":"Traube St. Georgen ","url_name":"traube-st-georgen","address":"St. Georgenstrasse 79","zip":"9000","city":"St. Gallen ","gaultmillau":"","latitude":"47.417","longitude":"9.38186","distance":"0"},"777":{"id":"1058","real_name":"Pizzeria Il Castello","url_name":"il-castello","address":"Burgstrasse 26 ","zip":"9000","city":"St. Gallen","gaultmillau":"","latitude":"47.4197","longitude":"9.3627","distance":"0"},"778":{"id":"1246","real_name":"Engelis","url_name":"engelis","address":"Br\u00fchlgasse 30","zip":"9000","city":"St. Gallen","gaultmillau":"","latitude":"47.4252","longitude":"9.37835","distance":"0"},"779":{"id":"716","real_name":"Walhalla Restaurant","url_name":"walhalla-restaurant","address":"Poststrasse 27","zip":"9001","city":"St. Gallen","gaultmillau":"12","latitude":"47.4226","longitude":"9.36957","distance":"0"},"780":{"id":"717","real_name":"Brasserie","url_name":"brasserie-st-gallen","address":"Kornhausstrasse 3 ","zip":"9001","city":"St. Gallen","gaultmillau":"","latitude":"47.4226","longitude":"9.36957","distance":"0"},"781":{"id":"774","real_name":"Elba - Pizzeria","url_name":"elba-pizzeria","address":"Bruggwaldstrasse 1 a","zip":"9008","city":"St.Gallen","gaultmillau":"","latitude":"47.4425","longitude":"9.39388","distance":"0"},"782":{"id":"1125","real_name":"Jurte Mongolian Barbecue","url_name":"jurte-mongolian-barbecue","address":"Langgasse 11","zip":"9008","city":"St.Gallen","gaultmillau":"","latitude":"47.4346","longitude":"9.38472","distance":"0"},"783":{"id":"619","real_name":"Peter und Paul - Wildpark","url_name":"peter-und-paul-wildpark","address":"Kirchlistrasse 99","zip":"9010","city":"St. Gallen","gaultmillau":"","latitude":"47.4501","longitude":"9.388","distance":"0"},"784":{"id":"1065","real_name":"Bistro Kletterhalle ","url_name":"bistro-kletterhalle","address":"Edisonstrasse 9 ","zip":"9015 ","city":"St. Gallen ","gaultmillau":"","latitude":"47.4086","longitude":"9.30901","distance":"0"},"785":{"id":"1018","real_name":"Pompei ","url_name":"restaurant-pompei","address":"Z\u00fcrcherstrasse 391","zip":"9015","city":"St. Gallen ","gaultmillau":"","latitude":"47.4074","longitude":"9.31807","distance":"0"},"786":{"id":"1240","real_name":"Gasthaus zur Post","url_name":"gasthaus-zur-post","address":"Dorf 6","zip":"9038 ","city":"Rehetobel","gaultmillau":"14","latitude":"47.4263","longitude":"9.48365","distance":"0"},"787":{"id":"1039","real_name":"Sonne","url_name":"sonne","address":"Landsgemeindeplatz 1","zip":"9050","city":"Appenzell","gaultmillau":"","latitude":"47.3315","longitude":"9.40802","distance":"0"},"788":{"id":"1149","real_name":"Brasserie Treffpunkt","url_name":"brasserie-treffpunkt","address":"Bahnhofstrasse 2","zip":"9100","city":"Herisau","gaultmillau":"","latitude":"47.3862","longitude":"9.27992","distance":"0"},"789":{"id":"1248","real_name":"Il Pomodoro","url_name":"il-pomodoro","address":"Bahnhofstrasse 17","zip":"9100","city":"Herisau","gaultmillau":"","latitude":"47.3874","longitude":"9.2772","distance":"0"},"790":{"id":"1040","real_name":"Sonne","url_name":"sonne-urnasch","address":"Schw\u00e4galpstrasse 60","zip":"9107","city":"Urn\u00e4sch","gaultmillau":"","latitude":"47.3063","longitude":"9.275","distance":"0"},"791":{"id":"606","real_name":"Schloss Oberberg","url_name":"schloss-oberberg","address":"Schloss Oberberg","zip":"9200","city":"Gossau","gaultmillau":"","latitude":"47.4143","longitude":"9.28662","distance":"0"},"792":{"id":"1084","real_name":"Hotel-Brasserie Le Lion","url_name":"brasserie-le-lion","address":"Grubplatz 2","zip":"9220","city":"Bischofszell","gaultmillau":"","latitude":"47.4937","longitude":"9.2415","distance":"0"},"793":{"id":"1011","real_name":"Restaurant R\u00f6ssli ","url_name":"restaurant-rossli","address":"Wilerstrasse 8","zip":"9230","city":"Flawil","gaultmillau":"","latitude":"47.4138","longitude":"9.1865","distance":"0"},"794":{"id":"1057","real_name":"La Favola ","url_name":"la-favola","address":"Henauerstrasse 44","zip":"9244","city":"Niederuzwil ","gaultmillau":"","latitude":"47.4479","longitude":"9.13514","distance":"0"},"795":{"id":"627","real_name":"Segreto","url_name":"segreto","address":"Abacus-Platz 1","zip":"9301","city":"Wittenbach-St.Gallen","gaultmillau":"","latitude":"47.4625","longitude":"9.37608","distance":"0"},"796":{"id":"1144","real_name":"Fellini Club ","url_name":"fellini-club","address":"Neukircherstrasse 6 ","zip":"9325","city":"Roggwil ","gaultmillau":"","latitude":"47.5037","longitude":"9.39952","distance":"0"},"797":{"id":"1008","real_name":"Genossenschaft Hotel Linde","url_name":"hotel-linde","address":"Poststrasse 11","zip":"9410","city":"Heiden","gaultmillau":"","latitude":"47.4441","longitude":"9.53552","distance":"0"},"798":{"id":"1145","real_name":"Rosengarten, Heidens Gaumenfreuden-Haus ","url_name":"rosengarten-heidens-gaumenfreuden-haus","address":"Sch\u00fctzengasse 21 ","zip":"9410 ","city":"Heiden ","gaultmillau":"","latitude":"47.4403","longitude":"9.52953","distance":"0"},"799":{"id":"836","real_name":"Weisses R\u00f6ssli Bodensee Hotel & Restaurant","url_name":"weisses-rossli-bodensee-hotel-restaurant","address":"Hauptstrasse 69","zip":"9422","city":"Staad","gaultmillau":"","latitude":"47.4819","longitude":"9.53965","distance":"0"},"800":{"id":"1139","real_name":"J\u00e4gerhaus ","url_name":"jagerhaus","address":"Hafenstrasse 10 ","zip":"9423","city":"Altenrhein ","gaultmillau":"","latitude":"47.4899","longitude":"9.54896","distance":"0"},"801":{"id":"899","real_name":"Manora Haag","url_name":"manora-haag","address":"Haag-Center","zip":"9469","city":"Haag","gaultmillau":"","latitude":"47.2135","longitude":"9.49577","distance":"0"},"802":{"id":"1148","real_name":"Art`s Pub & Restaurant","url_name":"arts-pub-restaurant","address":"Obere Bahnhofstrasse 53","zip":"9500","city":"Wil SG","gaultmillau":"","latitude":"47.4655","longitude":"9.04718","distance":"0"},"803":{"id":"1124","real_name":"Freudenberg","url_name":"freudenberg","address":"Freudenberg 27","zip":"9507","city":"Stettfurt","gaultmillau":"","latitude":"47.532","longitude":"8.95155","distance":"0"},"804":{"id":"1164","real_name":"Weid-Hof - Erlebnis Bauernhof","url_name":"weid-hof-erlebnis-bauernhof","address":"Weid-Hof ","zip":"9621","city":"Oberhelfenschwil","gaultmillau":"","latitude":"47.3478","longitude":"9.10311","distance":"0"},"profiling":{"summary":"api_time:0.0038700103759766"}}